LOCATION_CODE,LOCATION_NAME,PRIMARY_ADDRESS_LINE_1,X_COORDINATE,Y_COORDINATE,COMMUNITY_DISTRICT,COUNCIL_DISTRICT,CENSUS_TRACT,BOROUGH_BLOCK_LOT,NTA,NTA_NAME,PRINCIPAL_NAME,GEOGRAPHICAL_DISTRICT_CODE,ADMIN_DISTRICT_LOCATION_CODE,ADMINISTRATIVE_DISTRICT_NAME,Location 1
M034,P.S. 034 Franklin D. Roosevelt,730 EAST  12 STREET,991163,203782,103,2,2800,1003810038,MN28,Lower East Side                                                            ,ANGELIKI LOUKATOS,1,M801,COMMUNITY SCHOOL DISTRICT 01,"730 EAST 12 STREET
MANHATTAN, NY 10009
(40.726008, -73.975058)"
M140,P.S. 140 Nathan Straus,123 RIDGE STREET,988749,201282,103,1,2201,1003440001,MN28,Lower East Side                                                            ,MELISSA RODRIGUEZ,1,M801,COMMUNITY SCHOOL DISTRICT 01,"123 RIDGE STREET
MANHATTAN, NY 10002
(40.719148, -73.983769)"
M184,P.S. 184m Shuang Wen,327 CHERRY STREET,988287,198359,103,1,201,1002450007,MN28,Lower East Side                                                            ,Iris Chiu,1,M801,COMMUNITY SCHOOL DISTRICT 01,"327 CHERRY STREET
MANHATTAN, NY 10002
(40.711125, -73.985438)"
M188,P.S. 188 The Island School,442 EAST HOUSTON STREET,990520,201552,103,2,2000,1003560100,MN28,Lower East Side                                                            ,Suany Ramos,1,M801,COMMUNITY SCHOOL DISTRICT 01,"442 EAST HOUSTON STREET
NEW YORK, NY 10002
(40.719888, -73.97738)"
M301,"Technology, Arts, and Sciences Studio",185 1 AVENUE,988547,205239,103,2,4000,1004530034,MN22,East Village                                                               ,GEORGE MORGAN,1,M801,COMMUNITY SCHOOL DISTRICT 01,"185 1 AVENUE
MANHATTAN, NY 10003
(40.730009, -73.984496)"
M332,University Neighborhood Middle School,220 HENRY STREET,988117,199174,103,1,201,1002690041,MN28,Lower East Side                                                            ,LAURA PEYNADO CASTRO,1,M801,COMMUNITY SCHOOL DISTRICT 01,"220 HENRY STREET
MANHATTAN, NY 10002
(40.713362, -73.986051)"
M378,School for Global Leaders,145 STANTON STREET,988120,201607,103,1,3001,1003540080,MN27,Chinatown                                                                  ,Keri Ricks,1,M801,COMMUNITY SCHOOL DISTRICT 01,"145 STANTON STREET
MANHATTAN, NY 10002
(40.72004, -73.986038)"
M450,East Side Community School,420 EAST 12 STREET,989108,204927,103,2,3400,1004390017,MN22,East Village                                                               ,MARK FEDERMAN,1,HS12,NULL,"420 EAST 12 STREET
MANHATTAN, NY 10009
(40.729152, -73.982472)"
M539,"New Explorations into Science, Technology and Math",111 COLUMBIA STREET,989910,201380,103,2,2201,1003350001,MN28,Lower East Side                                                            ,MARK BERKOWITZ,1,HS04,NULL,"111 COLUMBIA STREET
MANHATTAN, NY 10002
(40.719416, -73.979581)"
M839,Tompkins Square Middle School,600 EAST  6 STREET,989351,202733,103,2,2601,1003870001,MN28,Lower East Side                                                            ,SONHANDO ESTWICK,1,M801,COMMUNITY SCHOOL DISTRICT 01,"600 EAST 6 STREET
MANHATTAN, NY 10009
(40.72313, -73.981597)"
M104,J.H.S. 104 Simon Baruch,330 EAST  21 STREET,989506,207378,106,2,6400,1009260001,MN21,Gramercy                                                                   ,Rocco Macri,2,M802,COMMUNITY SCHOOL DISTRICT 02,"330 EAST 21 STREET
MANHATTAN, NY 10010
(40.735879, -73.981034)"
M114,East Side Middle School,331 EAST 91ST STREET,998823,223621,108,5,15400,1015540032,MN32,Yorkville                                                                  ,DAVID GETZ,2,M802,COMMUNITY SCHOOL DISTRICT 02,"331 EAST 91ST STREET
MANHATTAN, NY 10128
(40.780452, -73.947379)"
M126,P.S. 126 Jacob August Riis,80 CATHERINE STREET,984965,198186,103,1,2500,1001110160,MN27,Chinatown                                                                  ,Carlos Romero,2,M802,COMMUNITY SCHOOL DISTRICT 02,"80 CATHERINE STREET
MANHATTAN, NY 10038
(40.710651, -73.99742)"
M131,M.S. 131,100 HESTER STREET,986022,200219,103,1,1600,1003010003,MN27,Chinatown                                                                  ,PHYLLIS TAM,2,M802,COMMUNITY SCHOOL DISTRICT 02,"100 HESTER STREET
MANHATTAN, NY 10002
(40.716231, -73.993607)"
M167,J.H.S. 167 Robert F. Wagner,220 EAST  76 STREET,995931,220373,108,4,13400,1014300005,MN31,Lenox Hill-Roosevelt Island                                                ,Jennifer Rehn,2,M802,COMMUNITY SCHOOL DISTRICT 02,"220 EAST 76 STREET
MANHATTAN, NY 10021
(40.771541, -73.957827)"
M177,Yorkville East Middle School,1458 YORK AVENUE,997893,219891,108,5,13200,1014890001,MN31,Lenox Hill-Roosevelt Island                                                ,Christina Riggio,2,M802,COMMUNITY SCHOOL DISTRICT 02,"1458 YORK AVENUE
MANHATTAN, NY 10075
(40.770215, -73.950745)"
M217,P.S./I.S. 217 Roosevelt Island,645 MAIN STREET,996320,213836,108,5,23801,1013730001,MN31,Lenox Hill-Roosevelt Island                                                ,MANDANA BECKMAN,2,M802,COMMUNITY SCHOOL DISTRICT 02,"645 MAIN STREET
MANHATTAN, NY 10044
(40.753598, -73.956435)"
M225,Ella Baker School,317 EAST  67 STREET,995392,218222,108,5,11800,1014420001,MN31,Lenox Hill-Roosevelt Island                                                ,LAURA GARCIA,2,M802,COMMUNITY SCHOOL DISTRICT 02,"317 EAST 67 STREET
MANHATTAN, NY 10065
(40.765638, -73.959777)"
M255,M.S. 255 Salk School of Science,319 EAST 19 STREET,989367,207177,106,2,6400,1009250012,MN21,Gramercy                                                                   ,Rhonda Perry,2,M802,COMMUNITY SCHOOL DISTRICT 02,"319 EAST 19 STREET
MANHATTAN, NY 10003
(40.735328, -73.981536)"
M260,M.S. 260 Clinton School Writers & Artists,10 East 15th Street,986370,207476,105,2,5200,1008420034,MN13,Hudson Yards-Chelsea-Flatiron-Union Square                                 ,Jonathan Levin,2,M802,COMMUNITY SCHOOL DISTRICT 02,"10 East 15th Street
Manhattan, NY 10003
(40.736526, -73.992727)"
M276,Battery Park City School,55 BATTERY PLACE,979410,196632,101,1,31704,1000160040,MN25,Battery Park City-Lower Manhattan                                          ,Theresa Ruyter,2,M802,COMMUNITY SCHOOL DISTRICT 02,"55 BATTERY PLACE
MANHATTAN, NY 10280
(40.706384, -74.017456)"
M289,I.S. 289,201 WARREN STREET,980378,200503,101,1,31703,1000160221,MN25,Battery Park City-Lower Manhattan                                          ,Zeynep Ozkan,2,M802,COMMUNITY SCHOOL DISTRICT 02,"201 WARREN STREET
MANHATTAN, NY 10282
(40.71701, -74.013967)"
M297,M.S. 297,10 East 15th Street,986370,207476,105,2,5200,1008420034,MN13,Hudson Yards-Chelsea-Flatiron-Union Square                                 ,JACQUELINE GETZ,2,M802,COMMUNITY SCHOOL DISTRICT 02,"10 East 15th Street
Manhattan, NY 10003
(40.736526, -73.992727)"
M312,New York City Lab Middle School for Collaborative,333 WEST  17 STREET,983634,209794,104,3,8300,1007410010,MN13,Hudson Yards-Chelsea-Flatiron-Union Square                                 ,MEGAN ADAMS,2,M802,COMMUNITY SCHOOL DISTRICT 02,"333 WEST 17 STREET
MANHATTAN, NY 10011
(40.742512, -74.002222)"
M347,The 47 American Sign Language & English Lower Scho,223 EAST 23 STREET,989424,208287,106,2,6400,1009040024,MN21,Gramercy                                                                   ,DAVID BOWELL,2,M802,COMMUNITY SCHOOL DISTRICT 02,"223 EAST 23 STREET
MANHATTAN, NY 10010
(40.738374, -73.981329)"
M397,Spruce Street School,12 SPRUCE STREET,982855,198074,101,1,1501,1001000001,MN25,Battery Park City-Lower Manhattan                                          ,NANCY HARRIS,2,M802,COMMUNITY SCHOOL DISTRICT 02,"12 SPRUCE STREET
MANHATTAN, NY 10038
(40.711321, -74.005473)"
M407,Institute for Collaborative Education,345 EAST  15TH STREET,989075,206207,106,2,4800,1009220008,MN21,Gramercy                                                                   ,Peter Karp,2,HS12,NULL,"345 EAST 15TH STREET
MANHATTAN, NY 10003
(40.732665, -73.98259)"
M408,Professional Performing Arts High School,328 WEST  48 STREET,987390,216649,104,3,12700,1010380014,MN15,Clinton                                                                    ,KEITH RYAN,2,HS04,NULL,"328 WEST 48 STREET
MANHATTAN, NY 10036
(40.761327, -73.988665)"
M413,School of the Future High School,127 EAST  22 STREET,988317,208559,105,2,6800,1008780016,MN21,Gramercy                                                                   ,STACY GOLDSTEIN,2,HS12,NULL,"127 EAST 22 STREET
MANHATTAN, NY 10010
(40.739121, -73.985323)"
M422,Quest to Learn,351 WEST  18 STREET,983546,210120,104,3,8900,1007420007,MN13,Hudson Yards-Chelsea-Flatiron-Union Square                                 ,Nicholas Jurman,2,HS07,NULL,"351 WEST 18 STREET
MANHATTAN, NY 10011
(40.743407, -74.00254)"
M442,"Ballet Tech, NYC Public School for Dance",890 BROADWAY,987165,208340,105,2,5200,1008487502,MN13,Hudson Yards-Chelsea-Flatiron-Union Square                                 ,ROY ONEILL,2,M802,COMMUNITY SCHOOL DISTRICT 02,"890 BROADWAY
MANHATTAN, NY 10003
(40.738521, -73.989481)"
M655,Life Sciences Secondary School,320 EAST  96 STREET,999223,224654,108,5,15601,1015580034,MN32,Yorkville                                                                  ,Kimberly Swanson,2,HS04,NULL,"320 EAST 96 STREET
MANHATTAN, NY 10128
(40.783286, -73.945933)"
M896,Lower Manhattan Community Middle School,26 BROADWAY,980562,196375,101,1,900,0,MN25,Battery Park City-Lower Manhattan                                          ,KELLY MCGUIRE,2,M802,COMMUNITY SCHOOL DISTRICT 02,"26 BROADWAY
MANHATTAN, NY 10004
(40.705688, -74.013303)"
M933,City Knoll Middle School,425 WEST 33RD STREET,984904,213648,104,3,10300,0,MN13,Hudson Yards-Chelsea-Flatiron-Union Square                                 ,Kaye Kerr,2,M802,COMMUNITY SCHOOL DISTRICT 02,"425 WEST 33RD STREET
MANHATTAN, NY 10001
(40.753099, -73.997641)"
M054,J.H.S. 054 Booker T. Washington,103 WEST 107 STREET,994419,230996,107,7,19300,1018620011,MN09,Morningside Heights                                                        ,ELANA ELSTER,3,M803,COMMUNITY SCHOOL DISTRICT 03,"103 WEST 107 STREET
MANHATTAN, NY 10025
(40.8007, -73.96327)"
M076,P.S. 076 A. Philip Randolph,220 WEST 121 STREET,997690,233123,110,9,22000,1019260017,MN11,Central Harlem South                                                       ,CHARLES DEBERRY,3,M803,COMMUNITY SCHOOL DISTRICT 03,"220 WEST 121 STREET
MANHATTAN, NY 10027
(40.806534, -73.951451)"
M149,P.S. 149 Sojourner Truth,41 WEST 117 STREET,998622,231708,110,9,19000,1016010001,MN11,Central Harlem South                                                       ,CLAUDIA AGUIRRE,3,M803,COMMUNITY SCHOOL DISTRICT 03,"41 WEST 117 STREET
MANHATTAN, NY 10026
(40.802649, -73.948088)"
M165,P.S. 165 Robert E. Simon,234 WEST 109 STREET,993677,231707,107,7,19500,1018800013,MN09,Morningside Heights                                                        ,ARACELIS CASTELLANO-FOLK,3,M803,COMMUNITY SCHOOL DISTRICT 03,"234 WEST 109 STREET
MANHATTAN, NY 10025
(40.802653, -73.965949)"
M180,P.S. 180 Hugo Newman,370 WEST 120TH STREET,996469,233500,110,9,25700,1019460001,MN11,Central Harlem South                                                       ,Jeneca Parker,3,M803,COMMUNITY SCHOOL DISTRICT 03,"370 WEST 120TH STREET
MANHATTAN, NY 10027
(40.80757, -73.955861)"
M191,The Riverside School for Makers and Artists,300 WEST 61ST STREET,986901,220799,107,6,15100,1011717510,MN14,Lincoln Square                                                             ,Lauren Keville,3,M803,COMMUNITY SCHOOL DISTRICT 03,"300 WEST 61ST STREET
NEW YORK, NY 10023
(40.7722, -73.990902)"
M243,M.S. 243 Center School,100 WEST  84 STREET,991379,225360,107,6,16900,1012140029,MN12,Upper West Side                                                            ,ELAINE SCHWARTZ,3,M803,COMMUNITY SCHOOL DISTRICT 03,"100 WEST 84 STREET
MANHATTAN, NY 10024
(40.785234, -73.974256)"
M245,M.S. M245 The Computer School,100 WEST  77 STREET,990453,223648,107,6,16100,1011480014,MN12,Upper West Side                                                            ,HENRY ZYMECK,3,M803,COMMUNITY SCHOOL DISTRICT 03,"100 WEST 77 STREET
MANHATTAN, NY 10024
(40.780536, -73.977602)"
M247,M.S. M247 Dual Language Middle School,100 WEST  77 STREET,990453,223648,107,6,16100,1011480014,MN12,Upper West Side                                                            ,Kristina Jelinek,3,M803,COMMUNITY SCHOOL DISTRICT 03,"100 WEST 77 STREET
MANHATTAN, NY 10024
(40.780536, -73.977602)"
M250,M.S. 250 West Side Collaborative Middle School,735 WEST END AVENUE,991450,228958,107,6,18300,1012530065,MN12,Upper West Side                                                            ,Novella Bailey,3,M803,COMMUNITY SCHOOL DISTRICT 03,"735 WEST END AVENUE
MANHATTAN, NY 10025
(40.795109, -73.973996)"
M256,Lafayette Academy,154 WEST  93 STREET,992277,227605,107,6,17700,1012230005,MN12,Upper West Side                                                            ,Brian Zager,3,M803,COMMUNITY SCHOOL DISTRICT 03,"154 WEST 93 STREET
MANHATTAN, NY 10025
(40.791395, -73.971011)"
M258,Community Action School - MS 258,154 WEST  93 STREET,992277,227605,107,6,17700,1012230005,MN12,Upper West Side                                                            ,Andrew Sullivan,3,M803,COMMUNITY SCHOOL DISTRICT 03,"154 WEST 93 STREET
MANHATTAN, NY 10025
(40.791395, -73.971011)"
M291,West End Secondary School,227-243 WEST 61ST STREET,987480,220759,107,6,15100,1011540108,MN14,Lincoln Square                                                             ,JESSICA JENKINS,3,M803,COMMUNITY SCHOOL DISTRICT 03,"227-243 WEST 61ST STREET
MANHATTAN, NY 10023
(40.772608, -73.988338)"
M333,P.S. 333 Manhattan School for Children,154 WEST  93 STREET,992277,227605,107,6,17700,1012230005,MN12,Upper West Side                                                            ,Claire Lowenstein,3,M803,COMMUNITY SCHOOL DISTRICT 03,"154 WEST 93 STREET
MANHATTAN, NY 10025
(40.791395, -73.971011)"
M334,The Anderson School,100 WEST  77 STREET,990453,223648,107,6,16100,1011480014,MN12,Upper West Side                                                            ,JODI HYDE,3,M803,COMMUNITY SCHOOL DISTRICT 03,"100 WEST 77 STREET
MANHATTAN, NY 10024
(40.780536, -73.977602)"
M415,Wadleigh Secondary School for the Performing & Vis,215 WEST 114 STREET,996943,231693,110,9,21800,1018300019,MN11,Central Harlem South                                                       ,Daisy Fontanez,3,M803,COMMUNITY SCHOOL DISTRICT 03,"215 WEST 114 STREET
MANHATTAN, NY 10026
(40.80261, -73.954152)"
M421,West Prep Academy,150 WEST 105 STREET,993771,230412,107,7,18900,1018590001,MN12,Upper West Side                                                            ,Carland Washington,3,M803,COMMUNITY SCHOOL DISTRICT 03,"150 WEST 105 STREET
MANHATTAN, NY 10025
(40.799098, -73.965611)"
M859,Special Music School,129 WEST  67 STREET,988965,221724,107,6,15300,1011390008,MN14,Lincoln Square                                                             ,KATHERINE BANUCCI-SMITH,3,M803,COMMUNITY SCHOOL DISTRICT 03,"129 WEST 67 STREET
MANHATTAN, NY 10023
(40.775256, -73.982976)"
M860,Frederick Douglass Academy II Secondary School,215 WEST 114 STREET,996943,231693,110,9,21800,1018300019,MN11,Central Harlem South                                                       ,OSEI OWUSU AFRIYIE,3,HS07,NULL,"215 WEST 114 STREET
MANHATTAN, NY 10026
(40.80261, -73.954152)"
M862,Mott Hall II,234 WEST 109 STREET,993677,231707,107,7,19500,1018800013,MN09,Morningside Heights                                                        ,Marlon Lowe,3,M803,COMMUNITY SCHOOL DISTRICT 03,"234 WEST 109 STREET
MANHATTAN, NY 10025
(40.802653, -73.965949)"
M007,P.S. 007 Samuel Stern,160 EAST 120 STREET,1001035,230969,111,8,19600,1017680021,MN34,East Harlem North                                                          ,David Graeber,4,M804,COMMUNITY SCHOOL DISTRICT 04,"160 EAST 120 STREET
MANHATTAN, NY 10035
(40.800616, -73.939374)"
M012,Tag Young Scholars,240 EAST 109 STREET,1000231,228032,111,8,17000,1016560100,MN33,East Harlem South                                                          ,JANETTE CESAR,4,M804,COMMUNITY SCHOOL DISTRICT 04,"240 EAST 109 STREET
MANHATTAN, NY 10029
(40.792556, -73.942285)"
M050,P.S. 050 Vito Marcantonio,433 EAST 100 STREET,1000611,225483,111,8,16200,1016940001,MN33,East Harlem South                                                          ,Ellen Johnson,4,M804,COMMUNITY SCHOOL DISTRICT 04,"433 EAST 100 STREET
MANHATTAN, NY 10029
(40.785559, -73.940919)"
M057,James Weldon Johnson,176 EAST 115 STREET,1000420,229726,111,8,18200,1016400139,MN34,East Harlem North                                                          ,NANCY JACQUELINE DIAZ,4,M804,COMMUNITY SCHOOL DISTRICT 04,"176 EAST 115 STREET
MANHATTAN, NY 10029
(40.797205, -73.941598)"
M072,The Lexington Academy,131 EAST 104 STREET,998801,227626,111,8,16600,1016320011,MN33,East Harlem South                                                          ,Antonio Hernandez,4,M804,COMMUNITY SCHOOL DISTRICT 04,"131 EAST 104 STREET
MANHATTAN, NY 10029
(40.791444, -73.94745)"
M096,P.S. 096 Joseph Lanzetta,216 EAST 120 STREET,1001643,230632,111,8,19400,1017840012,MN34,East Harlem North                                                          ,David Pretto,4,M804,COMMUNITY SCHOOL DISTRICT 04,"216 EAST 120 STREET
MANHATTAN, NY 10035
(40.79969, -73.937179)"
M108,P.S. 108 Assemblyman Angelo Del Toro Educational C,1615 MADISON AVENUE,998688,228933,111,8,17401,1016140021,MN33,East Harlem South                                                          ,William Gladstone,4,M804,COMMUNITY SCHOOL DISTRICT 04,"1615 MADISON AVENUE
MANHATTAN, NY 10029
(40.795032, -73.947855)"
M171,P.S. 171 Patrick Henry,19 EAST 103 STREET,997700,227938,111,8,16800,1016090007,MN33,East Harlem South                                                          ,DIMITRES PANTELIDIS,4,M804,COMMUNITY SCHOOL DISTRICT 04,"19 EAST 103 STREET
MANHATTAN, NY 10029
(40.792302, -73.951425)"
M206,P.S. 206 Jose Celso Barbosa,508 EAST 120 STREET,1003485,229613,111,8,19200,1018160001,MN34,East Harlem North                                                          ,CAMILLE FORBES,4,M804,COMMUNITY SCHOOL DISTRICT 04,"508 EAST 120 STREET
MANHATTAN, NY 10035
(40.796889, -73.930528)"
M224,M.S. 224 Manhattan East School for Arts & Academic,410 EAST 100 STREET,1000269,225318,111,8,16200,1016930001,MN33,East Harlem South                                                          ,LUIS GENAO,4,M804,COMMUNITY SCHOOL DISTRICT 04,"410 EAST 100 STREET
MANHATTAN, NY 10029
(40.785107, -73.942154)"
M310,THE JUDITH S. KAYE HIGH SCHOOL,321 EAST  96 STREET,999302,224955,111,8,15602,1016680001,MN33,East Harlem South                                                          ,Andrew Brown,4,DA79,COMMUNITY SCHOOL DISTRICT 04,"321 EAST 96 STREET
MANHATTAN, NY 10128
(40.784112, -73.945647)"
M372,Esperanza Preparatory Academy,240 EAST 109 STREET,1000231,228032,111,8,17000,1016560100,MN33,East Harlem South                                                          ,Luisa Morales,4,M804,COMMUNITY SCHOOL DISTRICT 04,"240 EAST 109 STREET
MANHATTAN, NY 10029
(40.792556, -73.942285)"
M377,Renaissance School of the Arts,319 EAST 117 STREET,1001999,229837,111,8,18800,1016890005,MN34,East Harlem North                                                          ,Brian Bradley,4,M804,COMMUNITY SCHOOL DISTRICT 04,"319 EAST 117 STREET
MANHATTAN, NY 10035
(40.797507, -73.935895)"
M406,Global Technology Preparatory,160 EAST 120 STREET,1001035,230969,111,8,19600,1017680021,MN34,East Harlem North                                                          ,ROBERT PERALES,4,M804,COMMUNITY SCHOOL DISTRICT 04,"160 EAST 120 STREET
MANHATTAN, NY 10035
(40.800616, -73.939374)"
M610,Young Women's Leadership School,105 EAST 106TH STREET,998878,228168,111,8,17200,1016340003,MN33,East Harlem South                                                          ,Andrew Higginbotham,4,HS07,NULL,"105 EAST 106TH STREET
NEW YORK, NY 10029
(40.792932, -73.947171)"
M825,Isaac Newton Middle School for Math & Science,260 PLEASANT AVENUE,1002838,228627,111,8,17800,1017130001,MN34,East Harlem North                                                          ,Florin Purice,4,M804,COMMUNITY SCHOOL DISTRICT 04,"260 PLEASANT AVENUE
MANHATTAN, NY 10029
(40.794184, -73.932868)"
M964,Central Park East II,19 EAST 103 STREET,997700,227938,111,8,16800,1016090007,MN33,East Harlem South                                                          ,NAOMI SMITH,4,M804,COMMUNITY SCHOOL DISTRICT 04,"19 EAST 103 STREET
MANHATTAN, NY 10029
(40.792302, -73.951425)"
M046,P.S. 046 Arthur Tappan,2987 FREDERICK DOUGLASS BOULEVARD,1001883,242218,110,9,24302,1021060050,MN03,Central Harlem North-Polo Grounds                                          ,Kerry ann Hazell,5,M805,COMMUNITY SCHOOL DISTRICT 05,"2987 FREDERICK DOUGLASS BOULEVARD
MANHATTAN, NY 10039
(40.8304, -73.9363)"
M123,P.S. 123 Mahalia Jackson,301 WEST 140 STREET,999597,238109,110,9,22102,1020420035,MN03,Central Harlem North-Polo Grounds                                          ,Melitina Hernandez,5,M805,COMMUNITY SCHOOL DISTRICT 05,"301 WEST 140 STREET
MANHATTAN, NY 10030
(40.820216, -73.944551)"
M129,P.S. 129 John H. Finley,425 WEST 130 STREET,997531,236176,109,9,21703,1019570010,MN06,Manhattanville                                                             ,ODELPHIA PIERRE,5,M805,COMMUNITY SCHOOL DISTRICT 05,"425 WEST 130 STREET
MANHATTAN, NY 10027
(40.814914, -73.95202)"
M148,Eagle Academy for Young Men of Harlem,6 EDGECOMBE AVENUE,998878,237020,110,9,22102,1019600001,MN03,Central Harlem North-Polo Grounds                                          ,Mahaliel H. Bethea II,5,M805,COMMUNITY SCHOOL DISTRICT 05,"6 EDGECOMBE AVENUE
MANHATTAN, NY 10030
(40.817228, -73.947151)"
M161,P.S. 161 Pedro Albizu Campos,499 WEST 133 STREET,997404,237198,109,9,21303,1019710001,MN06,Manhattanville                                                             ,Pamela Price Haynes,5,M805,COMMUNITY SCHOOL DISTRICT 05,"499 WEST 133 STREET
MANHATTAN, NY 10027
(40.817719, -73.952476)"
M286,Urban Assembly Academy for Future Leaders,509 WEST 129 STREET,996562,236479,109,7,21900,1019840033,MN06,Manhattanville                                                             ,NULL,5,M805,COMMUNITY SCHOOL DISTRICT 05,"509 WEST 129 STREET
MANHATTAN, NY 10027
(40.815747, -73.95552)"
M302,KAPPA IV,6 EDGECOMBE AVENUE,998878,237020,110,9,22102,1019600001,MN03,Central Harlem North-Polo Grounds                                          ,Juan Vives,5,M805,COMMUNITY SCHOOL DISTRICT 05,"6 EDGECOMBE AVENUE
MANHATTAN, NY 10030
(40.817228, -73.947151)"
M362,Columbia Secondary School,425 WEST 123 STREET,996507,234674,109,7,20901,1019640012,MN09,Morningside Heights                                                        ,Miriam Nightengale,5,M805,COMMUNITY SCHOOL DISTRICT 05,"425 WEST 123 STREET
MANHATTAN, NY 10027
(40.810793, -73.955722)"
M499,Frederick Douglass Academy,2581 7TH AVENUE,1002033,239485,110,9,23600,1020160100,MN03,Central Harlem North-Polo Grounds                                          ,Ayisha Fullerton,5,M805,COMMUNITY SCHOOL DISTRICT 05,"2581 7TH AVENUE
MANHATTAN, NY 10039
(40.823988, -73.935746)"
M514,New Design Middle School,625 WEST 133 STREET,996203,237953,109,7,22302,1020010005,MN06,Manhattanville                                                             ,JEANINE BENITEZ,5,M805,COMMUNITY SCHOOL DISTRICT 05,"625 WEST 133 STREET
MANHATTAN, NY 10027
(40.819793, -73.956814)"
M670,Thurgood Marshall Academy for Learning and Social,200-214 WEST 135TH STREET,999668,236295,110,9,22800,1019400035,MN03,Central Harlem North-Polo Grounds                                          ,Sean Davenport,5,M805,COMMUNITY SCHOOL DISTRICT 05,"200-214 WEST 135TH STREET
MANHATTAN, NY 10030
(40.815237, -73.944299)"
M018,P.S. 018 Park Terrace,4124 9 AVENUE,1008662,256785,112,10,29900,1022150824,MN01,Marble Hill-Inwood                                                         ,CONNIE MEJIA,6,M806,COMMUNITY SCHOOL DISTRICT 06,"4124 9 AVENUE
MANHATTAN, NY 10034
(40.871456, -73.911732)"
M052,J.H.S. 052 Inwood,650 ACADEMY STREET,1004866,254632,112,10,29100,1022330020,MN01,Marble Hill-Inwood                                                         ,Lupe Leon,6,M806,COMMUNITY SCHOOL DISTRICT 06,"650 ACADEMY STREET
MANHATTAN, NY 10034
(40.865556, -73.925464)"
M143,J.H.S. 143 Eleanor Roosevelt,511 WEST 182ND STREET,1003342,248712,112,10,26900,1021550035,MN35,Washington Heights North                                                   ,Lakisha Mcdaniel Luke,6,M806,COMMUNITY SCHOOL DISTRICT 06,"511 WEST 182ND STREET
MANHATTAN, NY 10033
(40.849311, -73.930991)"
M187,P.S./I.S. 187 Hudson Cliffs,349 CABRINI BOULEVARD,1001722,251235,112,10,27300,1021790365,MN35,Washington Heights North                                                   ,CYNTHIA CHORY,6,M806,COMMUNITY SCHOOL DISTRICT 06,"349 CABRINI BOULEVARD
MANHATTAN, NY 10040
(40.856239, -73.93684)"
M209,Hamilton Grange Middle School,500 WEST 138 STREET,997529,238215,109,7,22301,1019880200,MN06,Manhattanville                                                             ,BENJAMIN LEV,6,M806,COMMUNITY SCHOOL DISTRICT 06,"500 WEST 138 STREET
MANHATTAN, NY 10031
(40.82051, -73.952023)"
M210,P.S./I.S. 210 - Twenty-first Century Academy for C,501-503 WEST 152 STREET,999563,241675,109,7,23700,1020840129,MN04,Hamilton Heights                                                           ,EVELYN LINARES,6,M806,COMMUNITY SCHOOL DISTRICT 06,"501-503 WEST 152 STREET
MANHATTAN, NY 10031
(40.830004, -73.944666)"
M218,I.S. 218 Salome Urena,4600 BROADWAY,1003590,252953,112,10,28500,1021720016,MN35,Washington Heights North                                                   ,JUNE BARNETT,6,M806,COMMUNITY SCHOOL DISTRICT 06,"4600 BROADWAY
MANHATTAN, NY 10040
(40.860951, -73.930082)"
M223,The Mott Hall School,71-111 CONVENT AVE,997732,236800,109,9,21703,1019570001,MN06,Manhattanville                                                             ,JUDITH DE LOS SANTOS,6,M806,COMMUNITY SCHOOL DISTRICT 06,"71-111 CONVENT AVE
MANHATTAN, NY 10027
(40.816626, -73.951292)"
M278,Paula Hedbavny School,421 W 219TH ST,1008494,256864,112,10,29900,1022150831,MN01,Marble Hill-Inwood                                                         ,LILLIAN REYES,6,M806,COMMUNITY SCHOOL DISTRICT 06,"421 W 219TH ST
MANHATTAN, NY 10034
(40.871673, -73.912339)"
M293,City College Academy of the Arts,4600 BROADWAY,1003590,252953,112,10,28500,1021720016,MN35,Washington Heights North                                                   ,BURNEDETTE DRYSDALE,6,HS03,NULL,"4600 BROADWAY
MANHATTAN, NY 10040
(40.860951, -73.930082)"
M311,Amistad Dual Language School,4862 BROADWAY,1005321,254933,112,10,29100,1022340007,MN01,Marble Hill-Inwood                                                         ,ROBIN EDMONDS,6,M806,COMMUNITY SCHOOL DISTRICT 06,"4862 BROADWAY
MANHATTAN, NY 10034
(40.866381, -73.923818)"
M319,M.S. 319 - Maria Teresa,21 JUMEL PLACE,1002010,245005,112,10,24900,1021120058,MN36,Washington Heights South                                                   ,YSIDRO ABREU,6,M806,COMMUNITY SCHOOL DISTRICT 06,"21 JUMEL PLACE
MANHATTAN, NY 10032
(40.839139, -73.935815)"
M322,Middle School 322,4600 BROADWAY,1003590,252953,112,10,28500,1021720016,MN35,Washington Heights North                                                   ,ERICA ZIGELMAN,6,M806,COMMUNITY SCHOOL DISTRICT 06,"4600 BROADWAY
MANHATTAN, NY 10040
(40.860951, -73.930082)"
M324,M.S. 324 - Patria Mirabal,21 JUMEL PLACE,1002010,245005,112,10,24900,1021120058,MN36,Washington Heights South                                                   ,JANET HELLER,6,M806,COMMUNITY SCHOOL DISTRICT 06,"21 JUMEL PLACE
MANHATTAN, NY 10032
(40.839139, -73.935815)"
M328,Community Math & Science Prep,401 WEST 164 STREET,1001610,244219,112,10,24301,1021110024,MN36,Washington Heights South                                                   ,Olga Quiles,6,M806,COMMUNITY SCHOOL DISTRICT 06,"401 WEST 164 STREET
MANHATTAN, NY 10032
(40.836982, -73.937263)"
M346,Community Health Academy of the Heights,504 WEST 158TH STREET,1000218,242961,112,7,24100,1021160031,MN36,Washington Heights South                                                   ,MARK HOUSE,6,HS07,NULL,"504 WEST 158TH STREET
MANHATTAN, NY 10032
(40.833695, -73.942074)"
M348,Washington Heights Expeditionary Learning School,511 WEST 182ND STREET,1003342,248712,112,10,26900,1021550035,MN35,Washington Heights North                                                   ,Thomas Rochowicz,6,HS12,NULL,"511 WEST 182ND STREET
MANHATTAN, NY 10033
(40.849311, -73.930991)"
M349,Harbor Heights,306 FORT WASHINGTON AVENUE,1000910,247307,112,10,26300,1021420154,MN36,Washington Heights South                                                   ,MONICA KLEHR,6,M806,COMMUNITY SCHOOL DISTRICT 06,"306 FORT WASHINGTON AVENUE
MANHATTAN, NY 10033
(40.845459, -73.939785)"
M366,Washington Heights Academy,202 SHERMAN AVE,1005926,254640,112,10,29300,1022260041,MN01,Marble Hill-Inwood                                                         ,Renzo Martinez,6,M806,COMMUNITY SCHOOL DISTRICT 06,"202 SHERMAN AVE
MANHATTAN, NY 10034
(40.865575, -73.921631)"
M528,I.S. 528 Bea Fuller Rodgers School,180 WADSWORTH AVENUE,1002322,249211,112,10,27100,1021640032,MN35,Washington Heights North                                                   ,CARLOS PICHARDO,6,M806,COMMUNITY SCHOOL DISTRICT 06,"180 WADSWORTH AVENUE
MANHATTAN, NY 10033
(40.850683, -73.934676)"
X005,P.S. 5 Port Morris,564 JACKSON AVENUE,1009617,235815,201,8,7300,2026420001,BX34,Melrose South-Mott Haven North                                             ,DANIELLE KEANE,7,X807,COMMUNITY SCHOOL DISTRICT 07,"564 JACKSON AVENUE
BRONX, NY 10455
(40.813896, -73.908358)"
X029,P.S./M.S. 029 Melrose School,758 COURTLANDT AVENUE,1007383,238599,201,17,6900,2024030001,BX34,Melrose South-Mott Haven North                                             ,Deborah Sanabria,7,X807,COMMUNITY SCHOOL DISTRICT 07,"758 COURTLANDT AVENUE
BRONX, NY 10451
(40.821544, -73.916419)"
X031,P.S./M.S. 031 The William Lloyd Garrison,250 EAST 156 STREET,1006076,238973,204,17,6100,2024430190,BX14,East Concourse-Concourse Village                                           ,WILLIAM HEWLETT  JR,7,X807,COMMUNITY SCHOOL DISTRICT 07,"250 EAST 156 STREET
BRONX, NY 10451
(40.822574, -73.92114)"
X151,J.H.S. 151 Lou Gehrig,250 EAST 156 STREET,1006076,238973,204,17,6100,2024430190,BX14,East Concourse-Concourse Village                                           ,Socorro Rivera,7,X807,COMMUNITY SCHOOL DISTRICT 07,"250 EAST 156 STREET
BRONX, NY 10451
(40.822574, -73.92114)"
X221,South Bronx Preparatory: A College Board School,360 EAST 145 STREET,1006159,235708,201,8,4300,2023060054,BX39,Mott Haven-Port Morris                                                     ,ELLEN FLANAGAN,7,HS02,NULL,"360 EAST 145 STREET
BRONX, NY 10454
(40.813612, -73.920851)"
X223,The Laboratory School of Finance and Technology: X,360 EAST 145 STREET,1006159,235708,201,8,4300,2023060054,BX39,Mott Haven-Port Morris                                                     ,DR. RAMON GONZALEZ,7,X807,COMMUNITY SCHOOL DISTRICT 07,"360 EAST 145 STREET
BRONX, NY 10454
(40.813612, -73.920851)"
X224,P.S./I.S. 224,345 BROOK AVENUE,1006735,234507,201,8,4100,2022860036,BX39,Mott Haven-Port Morris                                                     ,PATRICIA CATANIA,7,X807,COMMUNITY SCHOOL DISTRICT 07,"345 BROOK AVENUE
BRONX, NY 10454
(40.810314, -73.918774)"
X296,South Bronx Academy for Applied Media,778 FOREST AVENUE,1010437,237567,201,17,7700,2026550030,BX34,Melrose South-Mott Haven North                                             ,ROSHONE AULT-LEE,7,X807,COMMUNITY SCHOOL DISTRICT 07,"778 FOREST AVENUE
BRONX, NY 10456
(40.818703, -73.905389)"
X298,Academy of Public Relations,778 FOREST AVENUE,1010437,237567,201,17,7700,2026550030,BX34,Melrose South-Mott Haven North                                             ,AMY ANDINO-FLOHR,7,X807,COMMUNITY SCHOOL DISTRICT 07,"778 FOREST AVENUE
BRONX, NY 10456
(40.818703, -73.905389)"
X343,Academy of Applied Mathematics and Technology,345 BROOK AVENUE,1006735,234507,201,8,4100,2022860036,BX39,Mott Haven-Port Morris                                                     ,Vincent Gassetto,7,X807,COMMUNITY SCHOOL DISTRICT 07,"345 BROOK AVENUE
BRONX, NY 10454
(40.810314, -73.918774)"
X500,Hostos-Lincoln Academy of Science,600 SAINT ANN'S AVENUE,1008598,236164,201,17,7300,2026160001,BX34,Melrose South-Mott Haven North                                             ,NICHOLAS PAARLBERG,7,HS03,NULL,"600 SAINT ANN'S AVENUE
BRONX, NY 10455
(40.814857, -73.912038)"
X551,The Urban Assembly Bronx Academy of Letters,339 MORRIS AVENUE,1004735,235732,201,8,5100,2023330070,BX39,Mott Haven-Port Morris                                                     ,BRANDON CARDET HERNANDE,7,HS03,NULL,"339 MORRIS AVENUE
BRONX, NY 10451
(40.813681, -73.925995)"
X584,I.S. 584,600 SAINT ANN'S AVENUE,1008598,236164,201,17,7300,2026160001,BX34,Melrose South-Mott Haven North                                             ,TANNIS SERTIMA,7,X807,COMMUNITY SCHOOL DISTRICT 07,"600 SAINT ANN'S AVENUE
BRONX, NY 10455
(40.814857, -73.912038)"
X071,P.S. 071 Rose E. Scala,3040 ROBERTS AVENUE,1031406,247318,210,13,26602,2041710001,BX10,Pelham Bay-Country Club-City Island                                        ,Margaret Mirando,8,X808,COMMUNITY SCHOOL DISTRICT 08,"3040 ROBERTS AVENUE
BRONX, NY 10461
(40.845379, -73.829562)"
X101,M.S. X101 Edward R. Byrne,2750 LAFAYETTE AVENUE,1031516,240651,210,13,15200,2055470001,BX52,Schuylerville-Throgs Neck-Edgewater Park                                   ,Jared Rosoff,8,X808,COMMUNITY SCHOOL DISTRICT 08,"2750 LAFAYETTE AVENUE
BRONX, NY 10465
(40.82708, -73.829211)"
X123,J.H.S. 123 James M. Kieran,1025 MORRISON AVENUE,1019077,239868,209,18,4800,2037180001,BX55,Soundview-Bruckner                                                         ,RICHARD HALLENBECK JR,8,X808,COMMUNITY SCHOOL DISTRICT 08,"1025 MORRISON AVENUE
BRONX, NY 10472
(40.824989, -73.874162)"
X125,J.H.S. 125 Henry Hudson,1111 PUGSLEY AVENUE,1023580,241392,209,18,4001,2037900040,BX55,Soundview-Bruckner                                                         ,Michael Collins,8,X808,COMMUNITY SCHOOL DISTRICT 08,"1111 PUGSLEY AVENUE
BRONX, NY 10472
(40.829153, -73.857882)"
X131,J.H.S. 131 Albert Einstein,885 BOLTON AVENUE,1022998,239122,209,18,4200,2036440001,BX09,Soundview-Castle Hill-Clason Point-Harding Park                            ,Monique Mason,8,X808,COMMUNITY SCHOOL DISTRICT 08,"885 BOLTON AVENUE
BRONX, NY 10473
(40.822925, -73.859998)"
X269,Bronx Studio School for Writers and Artists,928 SIMPSON STREET,1013876,238185,202,17,8900,2027230033,BX27,Hunts Point                                                                ,Dawn Verhille,8,X808,COMMUNITY SCHOOL DISTRICT 08,"928 SIMPSON STREET
BRONX, NY 10459
(40.820388, -73.892961)"
X301,M.S. 301 Paul L. Dunbar,890 CAULDWELL AVENUE,1010062,238874,203,16,18500,2026310048,BX35,Morrisania-Melrose                                                         ,Hesham Farid,8,X808,COMMUNITY SCHOOL DISTRICT 08,"890 CAULDWELL AVENUE
BRONX, NY 10456
(40.822291, -73.906739)"
X302,M.S. 302 Luisa Dessus Cruz,681 KELLY STREET,1011487,236612,202,17,8300,2026860020,BX33,Longwood                                                                   ,Liza Ortiz,8,X808,COMMUNITY SCHOOL DISTRICT 08,"681 KELLY STREET
BRONX, NY 10455
(40.816078, -73.901599)"
X337,The School for Inquiry and Social Justice,1025 MORRISON AVENUE,1019077,239868,209,18,4800,2037180001,BX55,Soundview-Bruckner                                                         ,A CYPRYS,8,X808,COMMUNITY SCHOOL DISTRICT 08,"1025 MORRISON AVENUE
BRONX, NY 10472
(40.824989, -73.874162)"
X367,"Archimedes Academy for Math, Science and Technolog",456 WHITE PLAINS ROAD,1024090,236252,209,18,400,2034780018,BX09,Soundview-Castle Hill-Clason Point-Harding Park                            ,MIRIAM LAZAR,8,X808,COMMUNITY SCHOOL DISTRICT 08,"456 WHITE PLAINS ROAD
BRONX, NY 10473
(40.815043, -73.85607)"
X371,Urban Institute of Mathematics,650 HOLLYWOOD AVENUE,1034596,240553,210,13,15800,2054380001,BX52,Schuylerville-Throgs Neck-Edgewater Park                                   ,JENNIFER JOYNT,8,X808,COMMUNITY SCHOOL DISTRICT 08,"650 HOLLYWOOD AVENUE
BRONX, NY 10465
(40.826794, -73.818083)"
X375,The Bronx Mathematics Preparatory School,456 WHITE PLAINS ROAD,1024090,236252,209,18,400,2034780018,BX09,Soundview-Castle Hill-Clason Point-Harding Park                            ,Dyon Rozier,8,X808,COMMUNITY SCHOOL DISTRICT 08,"456 WHITE PLAINS ROAD
BRONX, NY 10473
(40.815043, -73.85607)"
X376,Antonia Pantoja Preparatory Academy: A College Boa,1980 LAFAYETTE AVENUE,1024125,238502,209,18,1600,2036040039,BX09,Soundview-Castle Hill-Clason Point-Harding Park                            ,Nalini Singh,8,X808,COMMUNITY SCHOOL DISTRICT 08,"1980 LAFAYETTE AVENUE
BRONX, NY 10473
(40.821218, -73.85593)"
X424,The Hunts Point School,730 BRYANT AVENUE,1016003,236526,202,17,11700,2027630279,BX27,Hunts Point                                                                ,DAVID VAZQUEZ,8,X808,COMMUNITY SCHOOL DISTRICT 08,"730 BRYANT AVENUE
BRONX, NY 10474
(40.815827, -73.885284)"
X448,Soundview Academy for Culture and Scholarship,885 BOLTON AVENUE,1022998,239122,209,18,4200,2036440001,BX09,Soundview-Castle Hill-Clason Point-Harding Park                            ,WILLIAM FRACKELTON,8,X808,COMMUNITY SCHOOL DISTRICT 08,"885 BOLTON AVENUE
BRONX, NY 10473
(40.822925, -73.859998)"
X467,Mott Hall Community School,650 HOLLYWOOD AVENUE,1034596,240553,210,13,15800,2054380001,BX52,Schuylerville-Throgs Neck-Edgewater Park                                   ,BENJAMIN BASILE,8,X808,COMMUNITY SCHOOL DISTRICT 08,"650 HOLLYWOOD AVENUE
BRONX, NY 10465
(40.826794, -73.818083)"
X562,Blueprint Middle School,1111 PUGSLEY AVENUE,1023580,241392,209,18,4001,2037900040,BX55,Soundview-Bruckner                                                         ,TYNEKA HARRINGTON,8,X808,COMMUNITY SCHOOL DISTRICT 08,"1111 PUGSLEY AVENUE
BRONX, NY 10472
(40.829153, -73.857882)"
X004,P.S./M.S. 004 Crotona Park West,1701 FULTON AVENUE,1012488,245969,203,15,16500,2029300075,BX01,Claremont-Bathgate                                                         ,VINCENT RESTO,9,X809,COMMUNITY SCHOOL DISTRICT 09,"1701 FULTON AVENUE
BRONX, NY 10457
(40.841758, -73.897943)"
X022,J.H.S. 022 Jordan L. Mott,270 EAST 167 STREET,1007952,242417,204,16,17500,2024380050,BX14,East Concourse-Concourse Village                                           ,Edgar Lin,9,X809,COMMUNITY SCHOOL DISTRICT 09,"270 EAST 167 STREET
BRONX, NY 10456
(40.832022, -73.91435)"
X117,I.S. 117 Joseph H. Wade,1865 MORRIS AVENUE,1009420,248441,205,14,23301,2028270001,BX41,Mount Hope                                                                 ,DELISE JONES,9,X809,COMMUNITY SCHOOL DISTRICT 09,"1865 MORRIS AVENUE
BRONX, NY 10453
(40.848552, -73.909022)"
X128,Mott Hall III,580 CROTONA PARK SOUTH,1011741,243313,203,16,14900,2029320001,BX35,Morrisania-Melrose                                                         ,JORISIS STUPART,9,X809,COMMUNITY SCHOOL DISTRICT 09,"580 CROTONA PARK SOUTH
BRONX, NY 10456
(40.83447, -73.900654)"
X215,Kappa,3630 THIRD AVENUE,1010829,242956,203,16,14701,2029250001,BX01,Claremont-Bathgate                                                         ,SHERI WARREN,9,X809,COMMUNITY SCHOOL DISTRICT 09,"3630 THIRD AVENUE
BRONX, NY 10456
(40.833493, -73.903951)"
X218,P.S./I.S. 218 Rafael Hernandez Dual Language Magne,1220 GERARD AVENUE,1006506,243749,204,16,19700,2024800008,BX63,West Concourse                                                             ,SERGIO CACERES,9,X809,COMMUNITY SCHOOL DISTRICT 09,"1220 GERARD AVENUE
BRONX, NY 10452
(40.835681, -73.919571)"
X219,I.S. 219 New Venture School,3630 THIRD AVENUE,1010829,242956,203,16,14701,2029250001,BX01,Claremont-Bathgate                                                         ,DOMINIC CIPOLLONE,9,X809,COMMUNITY SCHOOL DISTRICT 09,"3630 THIRD AVENUE
BRONX, NY 10456
(40.833493, -73.903951)"
X229,I.S. 229 Roland Patterson,275 HARLEM RIVER PARK BRIDGE,1005976,249889,205,16,5300,2028820130,BX36,University Heights-Morris Heights                                          ,EZRA MATTHIAS,9,X809,COMMUNITY SCHOOL DISTRICT 09,"275 HARLEM RIVER PARK BRIDGE
BRONX, NY 10453
(40.8524, -73.9216)"
X231,Eagle Academy for Young Men,4143 THIRD AVENUE,1012615,247284,206,15,39500,2029230018,BX01,Claremont-Bathgate                                                         ,Hector Velazquez,9,HS09,NULL,"4143 THIRD AVENUE
BRONX, NY 10457
(40.845366, -73.897479)"
X232,I.S. 232,1700 MACOMBS ROAD,1007706,248754,205,14,21502,2028660070,BX36,University Heights-Morris Heights                                          ,Desiree Resto,9,X809,COMMUNITY SCHOOL DISTRICT 09,"1700 MACOMBS ROAD
BRONX, NY 10453
(40.849416, -73.915217)"
X241,Urban Assembly School for Applied Math and Science,1595 BATHGATE AVENUE,1011429,245148,203,16,16700,2029130001,BX01,Claremont-Bathgate                                                         ,David Krulwich,9,HS03,NULL,"1595 BATHGATE AVENUE
BRONX, NY 10457
(40.839508, -73.901774)"
X303,I.S. X303 Leadership & Community Service,1700 MACOMBS ROAD,1007706,248754,205,14,21502,2028660070,BX36,University Heights-Morris Heights                                          ,PATRICIA BENTLEY,9,X809,COMMUNITY SCHOOL DISTRICT 09,"1700 MACOMBS ROAD
BRONX, NY 10453
(40.849416, -73.915217)"
X313,I.S. 313 School of Leadership Development,1600 WEBSTER AVENUE,1010715,245522,203,16,16700,2028970005,BX01,Claremont-Bathgate                                                         ,EARL BRATHWAITE,9,X809,COMMUNITY SCHOOL DISTRICT 09,"1600 WEBSTER AVENUE
BRONX, NY 10457
(40.840536, -73.904353)"
X323,Bronx Writing Academy,270 EAST 167 STREET,1007952,242417,204,16,17500,2024380050,BX14,East Concourse-Concourse Village                                           ,Lauren Hasson,9,X809,COMMUNITY SCHOOL DISTRICT 09,"270 EAST 167 STREET
BRONX, NY 10456
(40.832022, -73.91435)"
X324,Bronx Early College Academy for Teaching & Learnin,250 EAST 164 STREET,1007025,240954,204,16,18302,2024460043,BX14,East Concourse-Concourse Village                                           ,Yvette Rivera,9,HS09,NULL,"250 EAST 164 STREET
BRONX, NY 10456
(40.828009, -73.917705)"
X325,Urban Science Academy,1000 TELLER AVENUE,1008032,240747,204,16,17300,2024240001,BX14,East Concourse-Concourse Village                                           ,PATRICK KELLY,9,X809,COMMUNITY SCHOOL DISTRICT 09,"1000 TELLER AVENUE
BRONX, NY 10456
(40.827438, -73.914067)"
X327,Comprehensive Model School Project M.S. 327,1501 JEROME AVENUE,1007429,246415,204,14,20900,2028590077,BX63,West Concourse                                                             ,Alixandre Ricci,9,X809,COMMUNITY SCHOOL DISTRICT 09,"1501 JEROME AVENUE
BRONX, NY 10452
(40.842503, -73.916084)"
X328,New Millennium Business Academy Middle School,1000 TELLER AVENUE,1008032,240747,204,16,17300,2024240001,BX14,East Concourse-Concourse Village                                           ,DORALD BASTIAN,9,X809,COMMUNITY SCHOOL DISTRICT 09,"1000 TELLER AVENUE
BRONX, NY 10456
(40.827438, -73.914067)"
X339,I.S. 339,1600 WEBSTER AVENUE,1010715,245522,203,16,16700,2028970005,BX01,Claremont-Bathgate                                                         ,Kim Outerbridge,9,X809,COMMUNITY SCHOOL DISTRICT 09,"1600 WEBSTER AVENUE
BRONX, NY 10457
(40.840536, -73.904353)"
X350,New Directions Secondary School,240 EAST 172 STREET,1008775,245072,204,16,22500,2028170002,BX14,East Concourse-Concourse Village                                           ,James Waslawski,9,HS10,NULL,"240 EAST 172 STREET
BRONX, NY 10457
(40.839307, -73.911366)"
X361,The Highbridge Green School,200 West 167th Street,1004055,244663,204,16,19300,2025270032,BX26,Highbridge                                                                 ,Kyle Brillante,9,X809,COMMUNITY SCHOOL DISTRICT 09,"200 West 167th Street
Bronx, NY 10452
(40.838232, -73.927892)"
X413,Bronx High School for Medical Science,240 EAST 172 STREET,1008775,245072,204,16,22500,2028170002,BX14,East Concourse-Concourse Village                                           ,WILLIAM QUINTANA,9,HS09,NULL,"240 EAST 172 STREET
BRONX, NY 10457
(40.839307, -73.911366)"
X454,Science and Technology Academy: A Mott Hall School,250 EAST 164 STREET,1007025,240954,204,16,18302,2024460043,BX14,East Concourse-Concourse Village                                           ,Dr. PATRICK AWOSOGBA,9,X809,COMMUNITY SCHOOL DISTRICT 09,"250 EAST 164 STREET
BRONX, NY 10456
(40.828009, -73.917705)"
X505,"Bronx School for Law, Government and Justice",244 EAST 163 STREET,1006660,240754,204,16,18302,2024450006,BX14,East Concourse-Concourse Village                                           ,Johanie Hernandez,9,HS03,NULL,"244 EAST 163 STREET
BRONX, NY 10451
(40.827461, -73.919024)"
X568,Young Women's Leadership School of the Bronx,1865 MORRIS AVENUE,1009420,248441,205,14,23301,2028270001,BX41,Mount Hope                                                                 ,Lemarie Laureano,9,HS08,NULL,"1865 MORRIS AVENUE
BRONX, NY 10453
(40.848552, -73.909022)"
X003,P.S. 3 Raul Julia Micro Society,2100 LAFONTAINE AVENUE,1014231,249022,206,15,37504,2030620043,BX17,East Tremont                                                               ,DENISE BROWN,10,X810,COMMUNITY SCHOOL DISTRICT 10,"2100 LAFONTAINE AVENUE
BRONX, NY 10457
(40.850131, -73.89163)"
X015,P.S. X015 Institute for Environmental Learning,2195 ANDREWS AVENUE,1009211,252336,207,14,25500,2032240009,BX30,Kingsbridge Heights                                                        ,Tara Edmonds,10,X810,COMMUNITY SCHOOL DISTRICT 10,"2195 ANDREWS AVENUE
BRONX, NY 10453
(40.859243, -73.909763)"
X020,"P.S./M.S. 20 P.O.George J. Werdann, III",3050 WEBSTER AVENUE,1017790,256077,207,11,42500,2033300001,BX43,Norwood                                                                    ,CARLA LING,10,X810,COMMUNITY SCHOOL DISTRICT 10,"3050 WEBSTER AVENUE
BRONX, NY 10467
(40.869482, -73.878731)"
X037,P.S. X037 - Multiple Intelligence School,360 WEST 230 STREET,1008117,259145,208,11,29302,2057160725,BX29,Spuyten Duyvil-Kingsbridge                                                 ,KENNETH PETRICCIONE,10,X810,COMMUNITY SCHOOL DISTRICT 10,"360 WEST 230 STREET
BRONX, NY 10463
(40.877935, -73.913694)"
X045,Thomas C. Giordano Middle School 45,2502 LORILLARD PLACE,1015501,252032,206,15,38700,2030670001,BX06,Belmont                                                                    ,ANNAMARIA PERROTTA,10,X810,COMMUNITY SCHOOL DISTRICT 10,"2502 LORILLARD PLACE
BRONX, NY 10458
(40.858389, -73.887026)"
X080,J.H.S. 080 The Mosholu Parkway,149 EAST MOSHOLU PKWY N,1017091,258749,207,11,41900,2033360035,BX43,Norwood                                                                    ,Emmanuel Polanco,10,X810,COMMUNITY SCHOOL DISTRICT 10,"149 EAST MOSHOLU PKWY N
BRONX, NY 10467
(40.876819, -73.881245)"
X095,P.S. 095 Sheila Mencher,3961 HILLMAN AVENUE,1014207,261015,208,11,28100,2032520182,BX28,Van Cortlandt Village                                                      ,SERGE DAVIS,10,X810,COMMUNITY SCHOOL DISTRICT 10,"3961 HILLMAN AVENUE
BRONX, NY 10463
(40.883049, -73.891664)"
X118,J.H.S. 118 William W. Niles,577 EAST 179 STREET,1013996,248501,206,15,37504,2030690001,BX17,East Tremont                                                               ,GIULIA COX,10,X810,COMMUNITY SCHOOL DISTRICT 10,"577 EAST 179 STREET
BRONX, NY 10457
(40.848702, -73.892482)"
X141,Riverdale / Kingsbridge Academy (Middle School / H,660 WEST 237 STREET,1007990,262596,208,11,30900,2059180376,BX22,North Riverdale-Fieldston-Riverdale                                        ,LORI OMARA,10,X810,COMMUNITY SCHOOL DISTRICT 10,"660 WEST 237 STREET
BRONX, NY 10463
(40.887407, -73.914141)"
X206,I.S. 206 Ann Mersereau,2280 AQUEDUCT AVENUE,1010173,252443,207,14,25300,2032090001,BX30,Kingsbridge Heights                                                        ,RAFAEL CABRAL,10,X810,COMMUNITY SCHOOL DISTRICT 10,"2280 AQUEDUCT AVENUE
BRONX, NY 10468
(40.859534, -73.906285)"
X225,Theatre Arts Production Company School,2225 WEBSTER AVENUE,1012632,250523,205,15,37900,2031430043,BX41,Mount Hope                                                                 ,Ron Link,10,HS02,NULL,"2225 WEBSTER AVENUE
BRONX, NY 10457
(40.854257, -73.897404)"
X228,Jonas Bronck Academy,400 EAST FORDHAM ROAD,1014245,252977,206,15,38302,2030337501,BX40,Fordham South                                                              ,Brenda Gonzalez,10,X810,COMMUNITY SCHOOL DISTRICT 10,"400 EAST FORDHAM ROAD
BRONX, NY 10458
(40.860987, -73.891562)"
X243,West Bronx Academy for the Future,500 EAST FORDHAM ROAD,1015058,252424,206,15,38700,2030590001,BX06,Belmont                                                                    ,WILPER MORALES,10,HS08,NULL,"500 EAST FORDHAM ROAD
BRONX, NY 10458
(40.859466, -73.888625)"
X244,The New School for Leadership and Journalism,120 WEST 231 STREET,1011472,258311,208,14,27300,2032530141,BX28,Van Cortlandt Village                                                      ,Eduardo Mora,10,X810,COMMUNITY SCHOOL DISTRICT 10,"120 WEST 231 STREET
BRONX, NY 10463
(40.875636, -73.901565)"
X254,I.S. 254,2452 WASHINGTON AVENUE,1014712,252152,206,15,38700,2030580003,BX06,Belmont                                                                    ,Alexis Marrero,10,X810,COMMUNITY SCHOOL DISTRICT 10,"2452 WASHINGTON AVENUE
BRONX, NY 10458
(40.858721, -73.889878)"
X279,"P.S. 279 Captain Manuel Rivera, Jr.",2100 WALTON AVENUE,1010542,250670,205,14,24100,2031780014,BX41,Mount Hope                                                                 ,Jean Dalton Encke,10,X810,COMMUNITY SCHOOL DISTRICT 10,"2100 WALTON AVENUE
BRONX, NY 10453
(40.854666, -73.904958)"
X280,P.S./M.S. 280 Mosholu Parkway,3202 STEUBEN AVENUE,1017091,258749,207,11,41900,2033360035,BX43,Norwood                                                                    ,JAMES WEEKS,10,X810,COMMUNITY SCHOOL DISTRICT 10,"3202 STEUBEN AVENUE
BRONX, NY 10467
(40.876819, -73.881245)"
X308,Bronx Dance Academy School,3617 BAINBRIDGE AVENUE,1017970,261887,207,11,43100,2033290124,BX43,Norwood                                                                    ,SANDRA SANCHEZ,10,X810,COMMUNITY SCHOOL DISTRICT 10,"3617 BAINBRIDGE AVENUE
BRONX, NY 10467
(40.885428, -73.878051)"
X315,P.S. 315 Lab School,2865 CLAFLIN AVENUE,1011887,257591,208,14,26702,2032500073,BX28,Van Cortlandt Village                                                      ,Gaby Flores,10,X810,COMMUNITY SCHOOL DISTRICT 10,"2865 CLAFLIN AVENUE
BRONX, NY 10468
(40.873659, -73.900068)"
X331,The Bronx School of Young Leaders,40 WEST TREMONT AVENUE,1008920,249231,205,14,21700,2028620014,BX36,University Heights-Morris Heights                                          ,SERAPHA CRUZ,10,X810,COMMUNITY SCHOOL DISTRICT 10,"40 WEST TREMONT AVENUE
BRONX, NY 10453
(40.850722, -73.910827)"
X342,International School for Liberal Arts,2780 RESERVOIR AVENUE,1012719,255917,207,11,40900,2032470070,BX28,Van Cortlandt Village                                                      ,Francine Cruz,10,HS02,NULL,"2780 RESERVOIR AVENUE
BRONX, NY 10468
(40.869061, -73.897066)"
X363,Academy For Personal Leadership And Excellence,120 EAST 184 STREET,1011776,252431,205,14,23703,2031720046,BX40,Fordham South                                                              ,Angelo Ledda,10,X810,COMMUNITY SCHOOL DISTRICT 10,"120 EAST 184 STREET
BRONX, NY 10468
(40.859496, -73.90049)"
X368,In-Tech Academy (M.S. / High School 368),2975 TIBBETT AVENUE,1008117,259145,208,11,29302,2057160725,BX29,Spuyten Duyvil-Kingsbridge                                                 ,Stephen Seltzer,10,X810,COMMUNITY SCHOOL DISTRICT 10,"2975 TIBBETT AVENUE
BRONX, NY 10463
(40.877935, -73.913694)"
X390,M.S. 390,1930 ANDREWS AVENUE,1008313,250547,205,14,24502,2032160002,BX36,University Heights-Morris Heights                                          ,ROBERT MERCEDES,10,X810,COMMUNITY SCHOOL DISTRICT 10,"1930 ANDREWS AVENUE
BRONX, NY 10453
(40.854335, -73.913016)"
X391,The Angelo Patri Middle School,2225 WEBSTER AVENUE,1012632,250523,205,15,37900,2031430043,BX41,Mount Hope                                                                 ,GISELLE FORTICHE OCAMPO,10,X810,COMMUNITY SCHOOL DISTRICT 10,"2225 WEBSTER AVENUE
BRONX, NY 10457
(40.854257, -73.897404)"
X447,Creston Academy,125 EAST 181 STREET,1011045,250915,205,14,23704,2031700001,BX40,Fordham South                                                              ,Mellissa Miller,10,X810,COMMUNITY SCHOOL DISTRICT 10,"125 EAST 181 STREET
BRONX, NY 10453
(40.855337, -73.903139)"
X459,East Fordham Academy for the Arts,120 EAST 184 STREET,1011776,252431,205,14,23703,2031720046,BX40,Fordham South                                                              ,Francisco De La Cruz,10,X810,COMMUNITY SCHOOL DISTRICT 10,"120 EAST 184 STREET
BRONX, NY 10468
(40.859496, -73.90049)"
X019,P.S. 019 Judith K. Weiss,4318 KATONAH AVENUE,1021032,266964,212,11,45102,2033860001,BX62,Woodlawn-Wakefield                                                         ,TIMOTHY SULLIVAN,11,X10C,COMMUNITY SCHOOL DISTRICT 11,"4318 KATONAH AVENUE
BRONX, NY 10470
(40.899351, -73.866949)"
X083,P.S. 083 Donald Hertz,950 RHINELANDER AVENUE,1023323,248687,211,13,24400,2041250001,BX37,Van Nest-Morris Park-Westchester Square                                    ,Brandon Muccino,11,X10C,COMMUNITY SCHOOL DISTRICT 11,"950 RHINELANDER AVENUE
BRONX, NY 10462
(40.849176, -73.858769)"
X089,P.S. 089 Bronx,980 MACE AVENUE,1023181,253534,211,13,32400,2044440016,BX07,Bronxdale                                                                  ,RALPH MARTINEZ,11,X10C,COMMUNITY SCHOOL DISTRICT 11,"980 MACE AVENUE
BRONX, NY 10469
(40.862481, -73.859254)"
X127,J.H.S. 127 The Castle Hill,1560 PURDY STREET,1024869,244894,209,18,22200,2039480055,BX46,Parkchester                                                                ,HARRY SHERMAN,11,X10C,COMMUNITY SCHOOL DISTRICT 11,"1560 PURDY STREET
BRONX, NY 10462
(40.838759, -73.853203)"
X144,J.H.S. 144 Michelangelo,2545 GUNTHER AVENUE,1029467,254041,211,13,31000,2044930001,BX31,Allerton-Pelham Gardens                                                    ,Ellen Barrett,11,X10C,COMMUNITY SCHOOL DISTRICT 11,"2545 GUNTHER AVENUE
BRONX, NY 10469
(40.863842, -73.836525)"
X175,P.S. 175 City Island,200 CITY ISLAND AVENUE,1044140,246972,210,13,51600,2056410280,BX10,Pelham Bay-Country Club-City Island                                        ,AMY LIPSON ELLIS,11,X10C,COMMUNITY SCHOOL DISTRICT 11,"200 CITY ISLAND AVENUE
BRONX, NY 10464
(40.844353, -73.78354)"
X180,M.S. 180 Dr. Daniel Hale Williams,700 BAYCHESTER AVENUE,1030803,257757,210,12,46201,2051410150,BX13,Co-op City                                                                 ,MARLON WILLIAMS,11,X10C,COMMUNITY SCHOOL DISTRICT 11,"700 BAYCHESTER AVENUE
BRONX, NY 10475
(40.874035, -73.831669)"
X181,I.S. 181 Pablo Casals,800 BAYCHESTER AVENUE,1030803,257757,210,12,46201,2051410150,BX13,Co-op City                                                                 ,CHRISTOPHE WARNOCK,11,X10C,COMMUNITY SCHOOL DISTRICT 11,"800 BAYCHESTER AVENUE
BRONX, NY 10475
(40.874035, -73.831669)"
X194,P.S./M.S. 194,2365 WATERBURY AVENUE,1026700,243677,210,18,9600,2038340070,BX59,Westchester-Unionport                                                      ,Rosa Sifuentes-Rosado,11,X10C,COMMUNITY SCHOOL DISTRICT 11,"2365 WATERBURY AVENUE
BRONX, NY 10462
(40.83541, -73.846594)"
X287,North Bronx School of Empowerment,3710 BARNES AVENUE,1022929,260153,212,12,39000,2046750020,BX44,Williamsbridge-Olinville                                                   ,Magdalen Neyra,11,X10C,COMMUNITY SCHOOL DISTRICT 11,"3710 BARNES AVENUE
BRONX, NY 10467
(40.880649, -73.860126)"
X326,Bronx Green Middle School,2441 WALLACE AVENUE,1021584,253392,211,13,33000,2044320001,BX07,Bronxdale                                                                  ,Charles Johnson,11,X10C,COMMUNITY SCHOOL DISTRICT 11,"2441 WALLACE AVENUE
BRONX, NY 10467
(40.862098, -73.865028)"
X355,Bronx Alliance Middle School,3750 BAYCHESTER AVENUE,1028579,262113,212,12,48400,2049350001,BX03,Eastchester-Edenwald-Baychester                                            ,STEVEN COBB,11,X10C,COMMUNITY SCHOOL DISTRICT 11,"3750 BAYCHESTER AVENUE
BRONX, NY 10466
(40.886002, -73.839682)"
X370,Leaders of Tomorrow,3710 BARNES AVENUE,1022929,260153,212,12,39000,2046750020,BX44,Williamsbridge-Olinville                                                   ,Sean Licata,11,X10C,COMMUNITY SCHOOL DISTRICT 11,"3710 BARNES AVENUE
BRONX, NY 10467
(40.880649, -73.860126)"
X462,Cornerstone Academy for Social Action Middle Schoo,3441 STEENWICK AVENUE,1031088,260943,212,12,46202,2052630192,BX13,Co-op City                                                                 ,JAMAAL BOWMAN,11,X10C,COMMUNITY SCHOOL DISTRICT 11,"3441 STEENWICK AVENUE
BRONX, NY 10475
(40.882778, -73.830616)"
X468,Pelham Academy of Academics and Community Engageme,2441 WALLACE AVENUE,1021584,253392,211,13,33000,2044320001,BX07,Bronxdale                                                                  ,ANTHONY RIVERA,11,X10C,COMMUNITY SCHOOL DISTRICT 11,"2441 WALLACE AVENUE
BRONX, NY 10467
(40.862098, -73.865028)"
X498,P.S./M.S. 11X498 - VAN NEST ACADEMY,1640 BRONXDALE AVE,1023541,247174,211,13,24400,2040910001,BX37,Van Nest-Morris Park-Westchester Square                                    ,Carol Ann Gilligan,11,X10C,COMMUNITY SCHOOL DISTRICT 11,"1640 BRONXDALE AVE
BRONX, NY 10462
(40.845023, -73.857989)"
X529,One World Middle School at Edenwald,3750 BAYCHESTER AVENUE,1028579,262113,212,12,48400,2049350001,BX03,Eastchester-Edenwald-Baychester                                            ,Patricia Wynne,11,X10C,COMMUNITY SCHOOL DISTRICT 11,"3750 BAYCHESTER AVENUE
BRONX, NY 10466
(40.886002, -73.839682)"
X532,Baychester Middle School,3750 BAYCHESTER AVENUE,1028579,262113,212,12,48400,2049350001,BX03,Eastchester-Edenwald-Baychester                                            ,SHAWN MANGAR,11,X10C,COMMUNITY SCHOOL DISTRICT 11,"3750 BAYCHESTER AVENUE
BRONX, NY 10466
(40.886002, -73.839682)"
X556,Bronx Park Middle School,2441 WALLACE AVENUE,1021584,253392,211,13,33000,2044320001,BX07,Bronxdale                                                                  ,Dillon Prime,11,X10C,COMMUNITY SCHOOL DISTRICT 11,"2441 WALLACE AVENUE
BRONX, NY 10467
(40.862098, -73.865028)"
X566,Pelham Gardens Middle School,2545 GUNTHER AVENUE,1029467,254041,211,13,31000,2044930001,BX31,Allerton-Pelham Gardens                                                    ,Denise Williams,11,X10C,COMMUNITY SCHOOL DISTRICT 11,"2545 GUNTHER AVENUE
BRONX, NY 10469
(40.863842, -73.836525)"
X098,J.H.S. 098 Herman Ridder,1619 BOSTON ROAD,1014525,243963,203,17,15500,2029390093,BX75,Crotona Park East                                                          ,Mark Turcotte,12,X812,COMMUNITY SCHOOL DISTRICT 12,"1619 BOSTON ROAD
BRONX, NY 10460
(40.836245, -73.890591)"
X129,M.S. 129 Academy for Independent Learning and Lead,2055 MAPES AVENUE,1015591,247565,206,15,37100,2031090001,BX17,East Tremont                                                               ,Raymond Granda,12,X812,COMMUNITY SCHOOL DISTRICT 12,"2055 MAPES AVENUE
BRONX, NY 10460
(40.846128, -73.886721)"
X190,E.S.M.T- I.S. 190,1550 CROTONA PARK EAST,1013918,243930,203,17,15300,2029390045,BX75,Crotona Park East                                                          ,Castella Mckenzie,12,X812,COMMUNITY SCHOOL DISTRICT 12,"1550 CROTONA PARK EAST
BRONX, NY 10460
(40.836156, -73.892784)"
X211,P.S. 211,1919 PROSPECT AVENUE,1014645,246681,206,17,36901,2029510032,BX17,East Tremont                                                               ,Tanya Drummond,12,X812,COMMUNITY SCHOOL DISTRICT 12,"1919 PROSPECT AVENUE
BRONX, NY 10457
(40.843705, -73.890145)"
X212,P.S. 212,1180 TINTON AVENUE,1011891,241104,203,17,13500,2026720001,BX35,Morrisania-Melrose                                                         ,Fatimah Ali,12,X812,COMMUNITY SCHOOL DISTRICT 12,"1180 TINTON AVENUE
BRONX, NY 10456
(40.828406, -73.900121)"
X214,P.S. 214,1970 WEST FARMS ROAD,1017473,245079,206,17,6000,2030210038,BX75,Crotona Park East                                                          ,DAVID CINTRON,12,X812,COMMUNITY SCHOOL DISTRICT 12,"1970 WEST FARMS ROAD
BRONX, NY 10460
(40.839297, -73.879931)"
X217,School of Performing Arts,977 FOX STREET,1013486,238792,202,17,15900,2027140004,BX27,Hunts Point                                                                ,Dionne Williams,12,X812,COMMUNITY SCHOOL DISTRICT 12,"977 FOX STREET
BRONX, NY 10459
(40.822056, -73.894368)"
X242,Mott Hall V,1551 EAST 172ND STREET,1017958,242606,209,18,5600,2038640001,BX08,West Farms-Bronx River                                                     ,PETER OROSZLANY,12,X812,COMMUNITY SCHOOL DISTRICT 12,"1551 EAST 172ND STREET
BRONX, NY 10472
(40.832508, -73.878191)"
X267,Bronx Latin,800 HOME STREET,1011761,240567,203,16,13100,2026710011,BX33,Longwood                                                                   ,Annette Fiorentino,12,HS08,NULL,"800 HOME STREET
BRONX, NY 10456
(40.826933, -73.900593)"
X271,East Bronx Academy for the Future,1716 SOUTHERN BOULEVARD,1015328,244174,203,17,16100,2029830015,BX75,Crotona Park East                                                          ,SARAH SCROGIN,12,HS08,NULL,"1716 SOUTHERN BOULEVARD
BRONX, NY 10460
(40.836821, -73.887688)"
X273,Frederick Douglass Academy V. Middle School,2111 CROTONA AVENUE,1014963,248519,206,15,37300,2030810026,BX17,East Tremont                                                               ,SAYI NEUFELD,12,X812,COMMUNITY SCHOOL DISTRICT 12,"2111 CROTONA AVENUE
BRONX, NY 10457
(40.848748, -73.888987)"
X286,Fannie Lou Hamer Middle School,1001 JENNINGS STREET,1015648,242233,203,17,15700,2030080001,BX75,Crotona Park East                                                          ,Abbey Wilson,12,X812,COMMUNITY SCHOOL DISTRICT 12,"1001 JENNINGS STREET
BRONX, NY 10460
(40.831493, -73.88654)"
X316,Kappa III,2055 MAPES AVENUE,1015591,247565,206,15,37100,2031090001,BX17,East Tremont                                                               ,Jean Colon,12,X812,COMMUNITY SCHOOL DISTRICT 12,"2055 MAPES AVENUE
BRONX, NY 10460
(40.846128, -73.886721)"
X318,"I.S. X318 Math, Science & Technology Through Arts",1919 PROSPECT AVENUE,1014645,246681,206,17,36901,2029510032,BX17,East Tremont                                                               ,Uchechukwu Njoku,12,X812,COMMUNITY SCHOOL DISTRICT 12,"1919 PROSPECT AVENUE
BRONX, NY 10457
(40.843705, -73.890145)"
X341,Accion Academy,1825 PROSPECT AVENUE,1014385,246265,206,17,36902,2029490064,BX17,East Tremont                                                               ,Rajendra Jimenez Jailall,12,X812,COMMUNITY SCHOOL DISTRICT 12,"1825 PROSPECT AVENUE
BRONX, NY 10457
(40.842564, -73.891086)"
X372,Urban Assembly School for Wildlife Conservation,2024 MOHEGAN AVENUE,1016292,246711,206,17,36300,2031230003,BX17,East Tremont                                                               ,Astrid Jacobo,12,HS03,NULL,"2024 MOHEGAN AVENUE
BRONX, NY 10460
(40.843781, -73.884192)"
X383,Emolior Academy,1970 WEST FARMS ROAD,1017473,245079,206,17,6000,2030210038,BX75,Crotona Park East                                                          ,Michael Abbey,12,X812,COMMUNITY SCHOOL DISTRICT 12,"1970 WEST FARMS ROAD
BRONX, NY 10460
(40.839297, -73.879931)"
X384,Entrada Academy,977 FOX STREET,1013486,238792,202,17,15900,2027140004,BX27,Hunts Point                                                                ,VICTOR FRIAS,12,X812,COMMUNITY SCHOOL DISTRICT 12,"977 FOX STREET
BRONX, NY 10459
(40.822056, -73.894368)"
K008,P.S. 008 Robert Fulton,37 HICKS STREET,986235,194564,302,33,100,3002110001,BK09,Brooklyn Heights-Cobble Hill                                               ,Patricia Peterson,13,K813,COMMUNITY SCHOOL DISTRICT 13,"37 HICKS STREET
BROOKLYN, NY 11201
(40.700709, -73.992841)"
K113,M.S. 113 Ronald Edmonds Learning Center,300 ADELPHI STREET,992161,190215,302,35,18100,3021030004,BK68,Fort Greene                                                                ,Dawnique Daughtry,13,K813,COMMUNITY SCHOOL DISTRICT 13,"300 ADELPHI STREET
BROOKLYN, NY 11205
(40.688769, -73.971474)"
K265,Dr. Susan S. McKinney Secondary School of the Arts,101 PARK AVENUE,990876,193278,302,35,21100,3020280001,BK68,Fort Greene                                                                ,Michael Walker,13,K813,COMMUNITY SCHOOL DISTRICT 13,"101 PARK AVENUE
BROOKLYN, NY 11205
(40.697177, -73.976104)"
K266,M.S. K266 - Park Place Community Middle School,62 PARK PLACE,990727,186586,306,39,12902,3009410050,BK37,Park Slope-Gowanus                                                         ,Glenda Esperance,13,K813,COMMUNITY SCHOOL DISTRICT 13,"62 PARK PLACE
BROOKLYN, NY 11217
(40.678809, -73.976648)"
K282,P.S. 282 Park Slope,180 6 AVENUE,990357,185799,306,39,13100,3009500024,BK37,Park Slope-Gowanus                                                         ,Rashan Hoke,13,K813,COMMUNITY SCHOOL DISTRICT 13,"180 6 AVENUE
BROOKLYN, NY 11217
(40.676649, -73.977983)"
K301,Satellite East Middle School,344 MONROE STREET,999301,189083,303,36,26500,3018190014,BK75,Bedford                                                                    ,KIM MCPHERSON,13,K813,COMMUNITY SCHOOL DISTRICT 13,"344 MONROE STREET
BROOKLYN, NY 11216
(40.685653, -73.94573)"
K791,Brooklyn Dreams Charter School,259 PARKVILLE AVENUE,992608,169587,314,40,48200,3054240029,BK42,Flatbush                                                                   ,Richard Carter,22,NULL,OFFICE OF CHARTER SCHOOLS,"259 PARKVILLE AVENUE
BROOKLYN, NY 11230
(40.632149, -73.969887)"
K313,Dock Street School for STEAM Studies,19 DOCK STREET,986447,195381,302,33,2100,3000367504,BK38,DUMBO-Vinegar Hill-Downtown Brooklyn-Boerum Hill                           ,Melissa Vaughan,13,K813,COMMUNITY SCHOOL DISTRICT 13,"19 DOCK STREET
BROOKLYN, NY 11201
(40.702952, -73.992076)"
K351,The Urban Assembly Unison School,170 GATES AVENUE,995195,188583,302,35,23100,3019830010,BK69,Clinton Hill                                                               ,Emily Jarrell,13,K813,COMMUNITY SCHOOL DISTRICT 13,"170 GATES AVENUE
BROOKLYN, NY 11238
(40.684286, -73.960536)"
K492,Academy of Arts and Letters,225 ADELPHI STREET,992321,190934,302,35,18300,3020910003,BK68,Fort Greene                                                                ,John Oreilly,13,K813,COMMUNITY SCHOOL DISTRICT 13,"225 ADELPHI STREET
BROOKLYN, NY 11205
(40.690742, -73.970896)"
K527,Urban Assembly Institute of Math and Science for Y,283 ADAMS STREET,987488,192349,302,33,1100,3001400010,BK38,DUMBO-Vinegar Hill-Downtown Brooklyn-Boerum Hill                           ,Kiri Soares,13,HS03,NULL,"283 ADAMS STREET
BROOKLYN, NY 11201
(40.694629, -73.988323)"
K691,Fort Greene Preparatory Academy,100 CLERMONT AVENUE,992113,192314,302,35,18700,3020450011,BK68,Fort Greene                                                                ,Paula Lettiere,13,K813,COMMUNITY SCHOOL DISTRICT 13,"100 CLERMONT AVENUE
BROOKLYN, NY 11205
(40.69453, -73.971644)"
K050,J.H.S. 050 John D. Wells,183 SOUTH  3 STREET,995301,198649,301,34,52300,3024190001,BK73,North Side-South Side                                                      ,Benjamin Honoroff,14,K814,COMMUNITY SCHOOL DISTRICT 14,"183 SOUTH 3 STREET
BROOKLYN, NY 11211
(40.711915, -73.960137)"
K740,Brooklyn Scholars Charter School,2635 LINDEN BOULEVARD,1021107,183169,305,42,120800,3044640025,BK82,East New York                                                              ,Desiree Kirton,19,NULL,OFFICE OF CHARTER SCHOOLS,"2635 LINDEN BOULEVARD
BROOKLYN, NY 11208
(40.669356, -73.867138)"
K071,Juan Morel Campos Secondary School,215 HEYWARD STREET,997197,195765,301,33,52900,3022270001,BK72,Williamsburg                                                               ,ESTHER SHALI OGLI,14,K814,COMMUNITY SCHOOL DISTRICT 14,"215 HEYWARD STREET
BROOKLYN, NY 11206
(40.703996, -73.953304)"
K084,P.S. 084 Jose De Diego,250 BERRY STREET,994283,199805,301,34,55100,3023910001,BK73,North Side-South Side                                                      ,Sereida Rodriguez,14,K814,COMMUNITY SCHOOL DISTRICT 14,"250 BERRY STREET
BROOKLYN, NY 11211
(40.715089, -73.963808)"
K126,John Ericsson Middle School 126,424 LEONARD STREET,998683,201530,301,33,49900,3027120001,BK76,Greenpoint                                                                 ,MARIA ORTEGA,14,K814,COMMUNITY SCHOOL DISTRICT 14,"424 LEONARD STREET
BROOKLYN, NY 11222
(40.719818, -73.947932)"
K157,P.S./I.S. 157 The Benjamin Franklin Health & Scien,850 KENT AVENUE,995342,192631,303,33,123700,3018970013,BK75,Bedford                                                                    ,KOURTNEY BOYD,14,K814,COMMUNITY SCHOOL DISTRICT 14,"850 KENT AVENUE
BROOKLYN, NY 11205
(40.695397, -73.959999)"
K318,I.S. 318 Eugenio Maria De Hostos,101 WALTON STREET,998454,195415,301,33,50900,3022460001,BK72,Williamsburg                                                               ,Leander Windley,14,K814,COMMUNITY SCHOOL DISTRICT 14,"101 WALTON STREET
BROOKLYN, NY 11206
(40.703034, -73.948771)"
K577,Conselyea Preparatory School,208 NORTH  5 STREET,996087,199871,301,34,51900,3023450001,BK73,North Side-South Side                                                      ,MARIA MASULLO,14,K814,COMMUNITY SCHOOL DISTRICT 14,"208 NORTH 5 STREET
BROOKLYN, NY 11211
(40.715268, -73.9573)"
K582,M.S. 582,207 BUSHWICK AVENUE,1001055,197519,301,34,48500,3030460001,BK78,Bushwick South                                                             ,BRIAN WALSH,14,K814,COMMUNITY SCHOOL DISTRICT 14,"207 BUSHWICK AVENUE
BROOKLYN, NY 11206
(40.708804, -73.939385)"
K586,Lyons Community School,223 GRAHAM AVENUE,999647,197868,301,34,50500,3030250001,BK90,East Williamsburg                                                          ,KAREN ONISHI,14,HS12,NULL,"223 GRAHAM AVENUE
BROOKLYN, NY 11206
(40.709765, -73.944463)"
K614,Young Women's Leadership School of Brooklyn,325 BUSHWICK AVENUE,1001221,196135,301,34,48500,3030910001,BK78,Bushwick South                                                             ,Catherine Mitchell,14,HS07,NULL,"325 BUSHWICK AVENUE
BROOKLYN, NY 11206
(40.705005, -73.93879)"
K051,M.S. 51 William Alexander,350 5 AVENUE,988397,184235,306,39,13500,3009810111,BK37,Park Slope-Gowanus                                                         ,LENORE DILEO BERNER,15,K815,COMMUNITY SCHOOL DISTRICT 15,"350 5 AVENUE
BROOKLYN, NY 11215
(40.672358, -73.98505)"
K088,J.H.S. 088 Peter Rouget,544 7TH AVENUE,987373,180026,307,38,14700,3008800001,BK32,Sunset Park West                                                           ,AILENE MITCHELL,15,K815,COMMUNITY SCHOOL DISTRICT 15,"544 7TH AVENUE
BROOKLYN, NY 11215
(40.660805, -73.988743)"
K136,I.S. 136 Charles O. Dewey,4004 4 AVENUE,982142,176864,307,38,8200,3007130020,BK32,Sunset Park West                                                           ,ERIC SACKLER,15,K815,COMMUNITY SCHOOL DISTRICT 15,"4004 4 AVENUE
BROOKLYN, NY 11232
(40.652127, -74.007596)"
K442,M.S. 442 Carroll Gardens School for Innovation,500 19 STREET,988935,178619,307,38,150200,0,BK40,Windsor Terrace                                                            ,NOREEN MILLS,15,K815,COMMUNITY SCHOOL DISTRICT 15,"500 19 STREET
BROOKLYN, NY 11215
(40.656952, -73.983116)"
K443,New Voices School of Academic & Creative Arts,330 18 STREET,987373,180026,307,38,14700,3008800001,BK32,Sunset Park West                                                           ,FRANK GIORDANO,15,K815,COMMUNITY SCHOOL DISTRICT 15,"330 18 STREET
BROOKLYN, NY 11215
(40.660805, -73.988743)"
K447,The Math & Science Exploratory School,345 DEAN STREET,989723,188459,302,33,3900,3001920013,BK38,DUMBO-Vinegar Hill-Downtown Brooklyn-Boerum Hill                           ,Arin Rusch,15,K815,COMMUNITY SCHOOL DISTRICT 15,"345 DEAN STREET
BROOKLYN, NY 11217
(40.683951, -73.980266)"
K448,Brooklyn Secondary School for Collaborative Studie,610 HENRY STREET,983689,186823,306,39,6300,3003690001,BK33,Carroll Gardens-Columbia Street-Red Hook                                   ,Priscilla Chan,15,HS12,NULL,"610 HENRY STREET
BROOKLYN, NY 11231
(40.679462, -74.002022)"
K464,Park Slope Collegiate,237 7 AVENUE,990192,183105,306,39,15500,3010820001,BK37,Park Slope-Gowanus                                                         ,JILL BLOOMBERG,15,HS06,NULL,"237 7 AVENUE
BROOKLYN, NY 11215
(40.669255, -73.97858)"
K497,The Boerum Hill School for International Studies,284 BALTIC STREET,986110,188843,306,33,6900,3004020001,BK38,DUMBO-Vinegar Hill-Downtown Brooklyn-Boerum Hill                           ,NICOLE LANZILLOTTO,15,K815,COMMUNITY SCHOOL DISTRICT 15,"284 BALTIC STREET
BROOKLYN, NY 11201
(40.685006, -73.993293)"
K821,Sunset Park Prep,4004 4 AVENUE,982142,176864,307,38,8200,3007130020,BK32,Sunset Park West                                                           ,Jennifer Spalding,15,K815,COMMUNITY SCHOOL DISTRICT 15,"4004 4 AVENUE
BROOKLYN, NY 11232
(40.652127, -74.007596)"
K839,M.S. 839,713 CATON AVENUE,991680,175344,307,39,50400,3053210064,BK40,Windsor Terrace                                                            ,MICHAEL PERLBERG,15,K815,COMMUNITY SCHOOL DISTRICT 15,"713 CATON AVENUE
BROOKLYN, NY 11218
(40.647598, -73.973363)"
K035,M.S. 035 Stephen Decatur,272 MACDONOUGH STREET,1002031,187582,303,36,27300,3016740011,BK35,Stuyvesant Heights                                                         ,JACQUELINE CHARLES,16,K816,COMMUNITY SCHOOL DISTRICT 16,"272 MACDONOUGH STREET
BROOKLYN, NY 11233
(40.681528, -73.935891)"
K057,J.H.S. 057 Whitelaw Reid,125 STUYVESANT AVENUE,1003037,191204,303,36,29100,3016160001,BK35,Stuyvesant Heights                                                         ,ANTHONY LETT,16,K816,COMMUNITY SCHOOL DISTRICT 16,"125 STUYVESANT AVENUE
BROOKLYN, NY 11221
(40.691467, -73.932254)"
K267,"M.S. 267 Math, Science & Technology",800 GATES AVENUE,1003090,189930,303,36,29300,3016360001,BK35,Stuyvesant Heights                                                         ,PATRICIA KING,16,K816,COMMUNITY SCHOOL DISTRICT 16,"800 GATES AVENUE
BROOKLYN, NY 11221
(40.68797, -73.932066)"
K308,P.S. 308 Clara Cardwell,616 QUINCY STREET,1002135,190058,303,36,29300,3016300001,BK35,Stuyvesant Heights                                                         ,Sharon Odwin,16,K816,COMMUNITY SCHOOL DISTRICT 16,"616 QUINCY STREET
BROOKLYN, NY 11221
(40.688323, -73.935509)"
K702,Community Partnership Charter School,241 EMERSON PLACE,995028,191129,302,35,19300,3019230001,BK69,Clinton Hill                                                               ,Jubilee Mosley/Nicole Barzey,13,NULL,OFFICE OF CHARTER SCHOOLS,"241 EMERSON PLACE
BROOKLYN, NY 11205
(40.691275, -73.961134)"
K681,Madiba Prep Middle School,1014 LAFAYETTE AVENUE,1003152,191221,303,36,29100,3016160001,BK35,Stuyvesant Heights                                                         ,Anne marie Malcolm,16,K816,COMMUNITY SCHOOL DISTRICT 16,"1014 LAFAYETTE AVENUE
BROOKLYN, NY 11221
(40.6921, -73.9317)"
K002,Parkside Preparatory Academy,655 PARKSIDE AVENUE,997686,178433,309,40,80200,3050500051,BK60,Prospect Lefferts Gardens-Wingate                                          ,ADRIENNE SPENCER,17,K817,COMMUNITY SCHOOL DISTRICT 17,"655 PARKSIDE AVENUE
BROOKLYN, NY 11226
(40.656423, -73.951575)"
K061,M.S. 061 Dr. Gladstone H. Atwell,400 EMPIRE BOULEVARD,998344,181050,309,40,32900,3013160015,BK60,Prospect Lefferts Gardens-Wingate                                          ,Dewana Daids,17,K817,COMMUNITY SCHOOL DISTRICT 17,"400 EMPIRE BOULEVARD
BROOKLYN, NY 11225
(40.663605, -73.949198)"
K138,P.S. 138 Brooklyn,760 PROSPECT PLACE,997687,184816,308,36,31701,3012330026,BK61,Crown Heights North                                                        ,MARIE CHAUVET MONCHIK,17,K817,COMMUNITY SCHOOL DISTRICT 17,"760 PROSPECT PLACE
BROOKLYN, NY 11216
(40.673943, -73.951559)"
K181,P.S. 181 Brooklyn,1023 NEW YORK AVENUE,999267,175444,317,45,85600,3049040010,BK91,East Flatbush-Farragut                                                     ,Victor Esannason,17,K817,COMMUNITY SCHOOL DISTRICT 17,"1023 NEW YORK AVENUE
BROOKLYN, NY 11203
(40.648217, -73.945883)"
K189,P.S. 189 The Bilingual Center,1100 EAST NEW YORK AVENUE,1004936,181646,317,41,89200,3045990001,BK81,Brownsville                                                                ,BERTHE FAUSTIN,17,K817,COMMUNITY SCHOOL DISTRICT 17,"1100 EAST NEW YORK AVENUE
BROOKLYN, NY 11212
(40.665228, -73.925435)"
K246,M.S. 246 Walt Whitman,72 VERONICA PLACE,997159,175492,317,40,79400,3051100025,BK95,Erasmus                                                                    ,BENTLY WARRINGTON,17,K817,COMMUNITY SCHOOL DISTRICT 17,"72 VERONICA PLACE
BROOKLYN, NY 11226
(40.648352, -73.95348)"
K340,I.S. 340,227 STERLING PLACE,992484,185693,308,35,16300,3011640064,BK64,Prospect Heights                                                           ,JEAN WILLIAMS,13,K817,COMMUNITY SCHOOL DISTRICT 17,"227 STERLING PLACE
BROOKLYN, NY 11238
(40.676357, -73.970315)"
K352,Ebbets Field Middle School,46 MCKEEVER PLACE,995490,181629,309,35,32500,3013010001,BK63,Crown Heights South                                                        ,JEANNE ROWE,17,K817,COMMUNITY SCHOOL DISTRICT 17,"46 MCKEEVER PLACE
BROOKLYN, NY 11225
(40.665199, -73.959484)"
K353,Elijah Stroud Middle School,750 CLASSON AVENUE,994952,185085,308,35,21500,3011670018,BK64,Prospect Heights                                                           ,Tricia Delauney,17,K817,COMMUNITY SCHOOL DISTRICT 17,"750 CLASSON AVENUE
BROOKLYN, NY 11238
(40.674685, -73.961418)"
K354,The School of Integrated Learning,1224 PARK PLACE,1001559,184216,308,36,34300,3013700029,BK61,Crown Heights North                                                        ,MONIQUE CAMPBELL,17,K817,COMMUNITY SCHOOL DISTRICT 17,"1224 PARK PLACE
BROOKLYN, NY 11213
(40.67229, -73.937601)"
K382,Academy for College Preparation and Career Explora,911 FLATBUSH AVENUE,996134,175947,314,40,79400,3051030010,BK95,Erasmus                                                                    ,Joan Mosely,17,HS06,NULL,"911 FLATBUSH AVENUE
BROOKLYN, NY 11226
(40.649602, -73.957173)"
K394,M.S. K394,188 ROCHESTER AVENUE,1003968,184371,308,36,34700,3013670022,BK61,Crown Heights North                                                        ,MONIQUE TORAN,17,K817,COMMUNITY SCHOOL DISTRICT 17,"188 ROCHESTER AVENUE
BROOKLYN, NY 11213
(40.67271, -73.928917)"
K484,Ronald Edmonds Learning Center II,430 HOWARD AVENUE,1006415,184524,316,41,36300,3014570032,BK79,Ocean Hill                                                                 ,Michele Luard,23,K817,COMMUNITY SCHOOL DISTRICT 17,"430 HOWARD AVENUE
BROOKLYN, NY 11233
(40.673124, -73.920095)"
K531,"School for Human Rights, The",600 KINGSTON AVENUE,999832,179253,309,40,81000,3048110001,BK60,Prospect Lefferts Gardens-Wingate                                          ,MICHAEL ALEXANDER,17,HS06,NULL,"600 KINGSTON AVENUE
BROOKLYN, NY 11203
(40.658671, -73.943839)"
K543,"Science, Technology and Research Early College Hig",911 FLATBUSH AVENUE,996134,175947,314,40,79400,3051030010,BK95,Erasmus                                                                    ,ERIC BLAKE,17,HS03,NULL,"911 FLATBUSH AVENUE
BROOKLYN, NY 11226
(40.649602, -73.957173)"
K590,Medgar Evers College Preparatory School,1186 CARROLL STREET,997615,182210,309,35,32100,3012890025,BK63,Crown Heights South                                                        ,MICHAEL WILTSHIRE,17,HS03,NULL,"1186 CARROLL STREET
BROOKLYN, NY 11225
(40.66679, -73.951823)"
K722,New Heights Middle School,790 EAST NEW YORK AVENUE,1001919,180501,309,41,87600,3048060001,BK60,Prospect Lefferts Gardens-Wingate                                          ,Ativia Sandusky,17,K817,COMMUNITY SCHOOL DISTRICT 17,"790 EAST NEW YORK AVENUE
BROOKLYN, NY 11203
(40.662092, -73.936313)"
K066,P.S. 66,845 EAST  96 STREET,1010039,175647,318,42,97000,3081290060,BK50,Canarsie                                                                   ,Lucille Jackson,18,K818,COMMUNITY SCHOOL DISTRICT 18,"845 EAST 96 STREET
BROOKLYN, NY 11236
(40.648749, -73.907064)"
K068,I.S. 068 Isaac Bildersee,956 EAST  82 STREET,1008892,170778,318,46,95600,3080180001,BK50,Canarsie                                                                   ,Merve Williams,18,K818,COMMUNITY SCHOOL DISTRICT 18,"956 EAST 82 STREET
BROOKLYN, NY 11236
(40.635388, -73.911215)"
K211,I.S. 211 John Wilson,1001 EAST 100 STREET,1013327,173531,318,46,98800,3082270001,BK50,Canarsie                                                                   ,Carolyn James,18,K818,COMMUNITY SCHOOL DISTRICT 18,"1001 EAST 100 STREET
BROOKLYN, NY 11236
(40.642931, -73.895224)"
K235,P.S. 235 Janice Marie Knight School,525 LENOX ROAD,1000642,178039,317,41,81400,3048440001,BK91,East Flatbush-Farragut                                                     ,Laurence Lord,18,K818,COMMUNITY SCHOOL DISTRICT 18,"525 LENOX ROAD
BROOKLYN, NY 11203
(40.655337, -73.940922)"
K742,Explore Empower Charter School,188 ROCHESTER AVENUE,1003968,184371,308,36,34700,3013670022,BK61,Crown Heights North                                                        ,Christina Cotter,17,NULL,OFFICE OF CHARTER SCHOOLS,"188 ROCHESTER AVENUE
BROOKLYN, NY 11213
(40.67271, -73.928917)"
K285,I.S. 285 Meyer Levin,5909 BEVERLY ROAD,1006232,175304,317,45,93600,3047440001,BK96,Rugby-Remsen Village                                                       ,George Patterson,18,K818,COMMUNITY SCHOOL DISTRICT 18,"5909 BEVERLY ROAD
BROOKLYN, NY 11203
(40.647818, -73.920784)"
K366,The Science And Medicine Middle School,965 EAST 107TH STREET,1014291,175159,318,46,98400,3082150012,BK50,Canarsie                                                                   ,DENNIS HERRING JR,18,K818,COMMUNITY SCHOOL DISTRICT 18,"965 EAST 107TH STREET
BROOKLYN, NY 11236
(40.647396, -73.891743)"
K581,East Flatbush Community Research School,905 WINTHROP STREET,1004020,179408,317,41,88000,3046060025,BK60,Prospect Lefferts Gardens-Wingate                                          ,Daveida Daniel,18,K818,COMMUNITY SCHOOL DISTRICT 18,"905 WINTHROP STREET
BROOKLYN, NY 11203
(40.659088, -73.928744)"
K588,Middle School for Art and Philosophy,1084 LENOX ROAD,1006497,178909,317,41,88600,3046690037,BK96,Rugby-Remsen Village                                                       ,NEIL MCNEILL JR,18,K818,COMMUNITY SCHOOL DISTRICT 18,"1084 LENOX ROAD
BROOKLYN, NY 11212
(40.657712, -73.919818)"
K598,Middle School of Marketing and Legal Studies,905 WINTHROP STREET,1004020,179408,317,41,88000,3046060025,BK60,Prospect Lefferts Gardens-Wingate                                          ,JAMEELA HORTON,18,K818,COMMUNITY SCHOOL DISTRICT 18,"905 WINTHROP STREET
BROOKLYN, NY 11203
(40.659088, -73.928744)"
K763,Brooklyn Science and Engineering Academy,5404 TILDEN AVENUE,1004898,175315,317,45,94600,3047390001,BK96,Rugby-Remsen Village                                                       ,ANGELA DEFILIPPIS,18,K818,COMMUNITY SCHOOL DISTRICT 18,"5404 TILDEN AVENUE
BROOKLYN, NY 11203
(40.647851, -73.925592)"
K333,Explore Exceed Charter School,443 ST MARKS AVENUE,995319,185965,308,35,30500,3011480050,BK61,Crown Heights North                                                        ,Curtis Palmore,17,NULL,OFFICE OF CHARTER SCHOOLS,"443 ST MARKS AVENUE
BROOKLYN, NY 11238
(40.6771, -73.960093)"
K089,P.S. 089 Cypress Hills,265 WARWICK STREET,1015673,186204,305,37,117000,3039520047,BK82,East New York                                                              ,IRENE LEON,19,K819,COMMUNITY SCHOOL DISTRICT 19,"265 WARWICK STREET
BROOKLYN, NY 11207
(40.677707, -73.886712)"
K171,I.S. 171 Abraham Lincoln,528 RIDGEWOOD AVENUE,1020461,189178,305,37,118400,3041340020,BK83,Cypress Hills-City Line                                                    ,Indira Mota,19,K819,COMMUNITY SCHOOL DISTRICT 19,"528 RIDGEWOOD AVENUE
BROOKLYN, NY 11208
(40.685852, -73.869434)"
K355,Williamsburg Collegiate Charter School,157 WILSON STREET,994772,196519,301,33,53500,3021770001,BK72,Williamsburg                                                               ,J.T. Leaird/Maya Roth,14,NULL,OFFICE OF CHARTER SCHOOLS,"157 WILSON STREET
BROOKLYN, NY 11211
(40.706069, -73.962049)"
K218,J.H.S. 218 James P. Sinnott,370 FOUNTAIN AVENUE,1019054,183408,305,42,111800,3042780001,BK82,East New York                                                              ,Lisa ann Hermann,19,K819,COMMUNITY SCHOOL DISTRICT 19,"370 FOUNTAIN AVENUE
BROOKLYN, NY 11208
(40.67002, -73.874537)"
K292,J.H.S. 292 Margaret S. Douglas,301 VERMONT STREET,1013843,183977,305,42,114400,3037400001,BK85,East New York (Pennsylvania Ave)                                           ,Ahmed Edwards,19,K819,COMMUNITY SCHOOL DISTRICT 19,"301 VERMONT STREET
BROOKLYN, NY 11207
(40.671601, -73.893319)"
K364,I.S. 364 Gateway,1426 FREEPORT LOOP,1017241,174731,305,42,105804,3044520040,BK93,Starrett City                                                              ,Nicole Fraser Edmund,19,K819,COMMUNITY SCHOOL DISTRICT 19,"1426 FREEPORT LOOP
BROOKLYN, NY 11239
(40.646211, -73.881115)"
K404,Academy for Young Writers,1065 ELTON STREET,1019192,178761,305,42,107000,3044490001,BK82,East New York                                                              ,AADEN STERN,19,HS05,NULL,"1065 ELTON STREET
BROOKLYN, NY 11208
(40.657266, -73.874064)"
K409,East New York Family Academy,2057 LINDEN BOULEVARD,1015694,180155,305,42,110400,3043280015,BK82,East New York                                                              ,Anthony Yard,19,HS05,NULL,"2057 LINDEN BOULEVARD
BROOKLYN, NY 11207
(40.661104, -73.886664)"
K422,Spring Creek Community School,1065 ELTON STREET,1019192,178761,305,42,107000,3044490001,BK82,East New York                                                              ,Christina Koza,19,HS05,NULL,"1065 ELTON STREET
BROOKLYN, NY 11208
(40.657266, -73.874064)"
K452,Frederick Douglass Academy VIII Middle School,1400 PENNSYLVANIA AVENUE,1016996,174887,305,42,105804,3044520025,BK93,Starrett City                                                              ,Chantal Grandchamps,19,K819,COMMUNITY SCHOOL DISTRICT 19,"1400 PENNSYLVANIA AVENUE
BROOKLYN, NY 11239
(40.64664, -73.881997)"
K654,Van Siclen Community Middle School,800 VAN SICLEN AVE,1015961,179729,305,42,110400,3043490050,BK82,East New York                                                              ,Adonna Mcfarland,19,K819,COMMUNITY SCHOOL DISTRICT 19,"800 VAN SICLEN AVE
BROOKLYN, NY 11207
(40.659934, -73.885704)"
K661,Vista Academy,350 LINWOOD STREET,1016367,185988,305,37,117000,3039690001,BK82,East New York                                                              ,Bernard Addo,19,K819,COMMUNITY SCHOOL DISTRICT 19,"350 LINWOOD STREET
BROOKLYN, NY 11208
(40.677112, -73.884211)"
K662,Liberty Avenue Middle School,350 LINWOOD STREET,1016367,185988,305,37,117000,3039690001,BK82,East New York                                                              ,Kaia Nordtvedt,19,K819,COMMUNITY SCHOOL DISTRICT 19,"350 LINWOOD STREET
BROOKLYN, NY 11208
(40.677112, -73.884211)"
K663,School of the Future Brooklyn,574 DUMONT AVENUE,1012657,181733,305,42,113000,3038020015,BK85,East New York (Pennsylvania Ave)                                           ,Sarah Kaufmann,19,K819,COMMUNITY SCHOOL DISTRICT 19,"574 DUMONT AVENUE
BROOKLYN, NY 11207
(40.665446, -73.897604)"
K678,East New York Middle School of Excellence,605 SHEPHERD AVENUE,1017780,183165,305,42,116400,3040690001,BK82,East New York                                                              ,MALIK SMALL,19,K819,COMMUNITY SCHOOL DISTRICT 19,"605 SHEPHERD AVENUE
BROOKLYN, NY 11208
(40.669358, -73.879131)"
K163,P.S. 163 Bath Beach,109 BAY 14TH STREET,982176,160328,311,43,18000,3063990040,BK27,Bath Beach                                                                 ,Jessica Riccio,20,K820,COMMUNITY SCHOOL DISTRICT 20,"109 BAY 14TH STREET
BROOKLYN, NY 11214
(40.606739, -74.007469)"
K760,Highland Park Community School,528 RIDGEWOOD AVENUE,1020461,189178,305,37,118400,3041340020,BK83,Cypress Hills-City Line                                                    ,Jamilah Seifullah,19,K819,COMMUNITY SCHOOL DISTRICT 19,"528 RIDGEWOOD AVENUE
BROOKLYN, NY 11208
(40.685852, -73.869434)"
K030,P.S./I.S. 30 Mary White Ovington,7002 4TH AVENUE,977441,170105,310,43,6800,3058910048,BK31,Bay Ridge                                                                  ,Carol Heeraman,20,K820,COMMUNITY SCHOOL DISTRICT 20,"7002 4TH AVENUE
BROOKLYN, NY 11209
(40.633598, -74.02395)"
K062,J.H.S. 062 Ditmas,700 CORTELYOU ROAD,992256,171750,312,40,49000,3053910001,BK41,Kensington-Ocean Parkway                                                   ,BARRY KEVORKIAN,20,K820,COMMUNITY SCHOOL DISTRICT 20,"700 CORTELYOU ROAD
BROOKLYN, NY 11218
(40.638087, -73.971153)"
K104,P.S./I.S. 104 The Fort Hamilton School,9115 5 AVENUE,976340,164460,310,43,16000,3060880001,BK31,Bay Ridge                                                                  ,MARIE DIBELLA,20,K820,COMMUNITY SCHOOL DISTRICT 20,"9115 5 AVENUE
BROOKLYN, NY 11209
(40.618077, -74.028492)"
K180,The SEEALL Academy,5601 16 AVENUE,987234,167511,312,44,47000,3054920001,BK88,Borough Park                                                               ,GARY WILLIAMS,20,K820,COMMUNITY SCHOOL DISTRICT 20,"5601 16 AVENUE
BROOKLYN, NY 11204
(40.626454, -73.98925)"
K187,The Christa McAuliffe School\I.S. 187,1171 65 STREET,983172,168048,310,38,21200,3057450029,BK30,Dyker Heights                                                              ,JUSTIN BERMAN,20,K820,COMMUNITY SCHOOL DISTRICT 20,"1171 65 STREET
BROOKLYN, NY 11219
(40.627929, -74.003883)"
K192,P.S. 192 - The Magnet School for Math and Science,4715 18 AVENUE,989929,168366,312,44,47600,3054450001,BK88,Borough Park                                                               ,LISET ISAAC,20,K820,COMMUNITY SCHOOL DISTRICT 20,"4715 18 AVENUE
BROOKLYN, NY 11204
(40.6288, -73.97954)"
K201,J.H.S. 201 The Dyker Heights,8010 12 AVENUE,980433,164811,310,43,16600,3062780022,BK30,Dyker Heights                                                              ,Robert Ciulla,20,K820,COMMUNITY SCHOOL DISTRICT 20,"8010 12 AVENUE
BROOKLYN, NY 11228
(40.619043, -74.013749)"
K220,J.H.S. 220 John J. Pershing,4812 9TH AVENUE,983903,172809,312,38,10800,3007780023,BK34,Sunset Park East                                                           ,SHELDON DEMPSTER,20,K820,COMMUNITY SCHOOL DISTRICT 20,"4812 9TH AVENUE
BROOKLYN, NY 11220
(40.640997, -74.00125)"
K223,J.H.S. 223 The Montauk,4200 16 AVENUE,989128,170661,312,44,23000,3053620021,BK88,Borough Park                                                               ,ANDREW FRANK,20,K820,COMMUNITY SCHOOL DISTRICT 20,"4200 16 AVENUE
BROOKLYN, NY 11204
(40.6351, -73.982424)"
K227,J.H.S. 227 Edward B. Shallow,6500 16 AVENUE,985371,165925,311,38,25000,3055510018,BK28,Bensonhurst West                                                           ,Dr. Edwin Hernandez,20,K820,COMMUNITY SCHOOL DISTRICT 20,"6500 16 AVENUE
BROOKLYN, NY 11204
(40.622102, -73.995961)"
K229,P.S. 229 Dyker,1400 BENSON AVENUE,980478,161637,311,43,17000,3063910024,BK27,Bath Beach                                                                 ,ROBERT ZAPPULLA,20,K820,COMMUNITY SCHOOL DISTRICT 20,"1400 BENSON AVENUE
BROOKLYN, NY 11228
(40.610331, -74.013585)"
K259,J.H.S. 259 William Mckinley,7305 FT HAMILTON PARKWAY,980188,167378,310,43,20600,3059230001,BK30,Dyker Heights                                                              ,JANICE GEARY,20,K820,COMMUNITY SCHOOL DISTRICT 20,"7305 FT HAMILTON PARKWAY
BROOKLYN, NY 11228
(40.626089, -74.014633)"
K609,Urban Assembly School for Criminal Justice,4200 16 AVENUE,989128,170661,312,44,23000,3053620021,BK88,Borough Park                                                               ,Natalie Jufer,20,HS03,NULL,"4200 16 AVENUE
BROOKLYN, NY 11204
(40.6351, -73.982424)"
K686,Brooklyn School of Inquiry,50 AVENUE P,987949,160421,311,44,42800,3066180001,BK29,Bensonhurst East                                                           ,Eric Havlik,20,K820,COMMUNITY SCHOOL DISTRICT 20,"50 AVENUE P
BROOKLYN, NY 11204
(40.606994, -73.986678)"
K095,P.S. 095 The Gravesend,345 VAN SICKLEN STREET,991286,156415,315,47,39800,3071230066,BK26,Gravesend                                                                  ,Janet Ndzibah,21,K03G,COMMUNITY SCHOOL DISTRICT 21,"345 VAN SICKLEN STREET
BROOKLYN, NY 11223
(40.595996, -73.974664)"
K096,I.S. 096 Seth Low,99 AVENUE P,988419,160837,311,44,43000,3065950033,BK29,Bensonhurst East                                                           ,Erin Lynch,21,K03G,COMMUNITY SCHOOL DISTRICT 21,"99 AVENUE P
BROOKLYN, NY 11204
(40.608135, -73.984985)"
K098,I.S. 98 Bay Academy,1401 EMMONS AVENUE,997014,152008,315,48,60800,3087670026,BK17,Sheepshead Bay-Gerritsen Beach-Manhattan Beach                             ,MARIA TIMO,21,K03G,COMMUNITY SCHOOL DISTRICT 21,"1401 EMMONS AVENUE
BROOKLYN, NY 11235
(40.583893, -73.954047)"
K099,P.S. 099 Isaac Asimov,1120 EAST  10 STREET,993680,165698,312,44,45400,3065350011,BK46,Ocean Parkway South                                                        ,GREGORY PIRRAGLIA,21,K03G,COMMUNITY SCHOOL DISTRICT 21,"1120 EAST 10 STREET
BROOKLYN, NY 11230
(40.621474, -73.966031)"
K121,P.S. 121 Nelson A. Rockefeller,5301 20 AVENUE,990226,166133,312,44,46400,3054951101,BK88,Borough Park                                                               ,Anthony Mungioli,21,K03G,COMMUNITY SCHOOL DISTRICT 21,"5301 20 AVENUE
BROOKLYN, NY 11204
(40.622671, -73.978472)"
K209,P.S. 209 Margaret Mead,2609 EAST  7 STREET,995029,153066,313,48,37000,3072440001,BK19,Brighton Beach                                                             ,FRANCES NOVELLALOCURCIO,21,K03G,COMMUNITY SCHOOL DISTRICT 21,"2609 EAST 7 STREET
BROOKLYN, NY 11235
(40.5868, -73.961191)"
K225,P.S. K225 - The Eileen E. Zaglin,1075 OCEAN VIEW AVENUE,996512,150684,313,48,61004,3087120056,BK19,Brighton Beach                                                             ,Michael Cosmai,21,K03G,COMMUNITY SCHOOL DISTRICT 21,"1075 OCEAN VIEW AVENUE
BROOKLYN, NY 11235
(40.58026, -73.955856)"
K226,P.S. 226 Alfred De B.Mason,6006 23 AVENUE,990608,163486,312,44,44600,3065490024,BK88,Borough Park                                                               ,Evan Klein,21,K03G,COMMUNITY SCHOOL DISTRICT 21,"6006 23 AVENUE
BROOKLYN, NY 11204
(40.615405, -73.977099)"
K228,I.S. 228 David A. Boody,228 AVENUE S,990692,158114,311,47,41000,3070840001,BK29,Bensonhurst East                                                           ,DOMINICK DANGELO,21,K03G,COMMUNITY SCHOOL DISTRICT 21,"228 AVENUE S
BROOKLYN, NY 11223
(40.60066, -73.976801)"
K238,P.S. 238 Anne Sullivan,1633 EAST  8 STREET,994083,161081,315,44,42000,3066400013,BK25,Homecrest                                                                  ,HARLA JOY MUSOFF WEISS,21,K03G,COMMUNITY SCHOOL DISTRICT 21,"1633 EAST 8 STREET
BROOKLYN, NY 11223
(40.608801, -73.964586)"
K239,Mark Twain I.S. 239 for the Gifted & Talented,2401 NEPTUNE AVENUE,986348,150091,313,47,33000,3069650140,BK21,Seagate-Coney Island                                                       ,Karen Ditolla,21,K03G,COMMUNITY SCHOOL DISTRICT 21,"2401 NEPTUNE AVENUE
BROOKLYN, NY 11224
(40.57864, -73.992447)"
K281,I.S. 281 Joseph B Cavallaro,8787 24 AVENUE,986037,155923,311,47,30400,3068910001,BK29,Bensonhurst East                                                           ,Maria Bender,21,K03G,COMMUNITY SCHOOL DISTRICT 21,"8787 24 AVENUE
BROOKLYN, NY 11214
(40.594648, -73.993565)"
K288,P.S. 288 The Shirley Tanyhill,2950 WEST  25 STREET,986363,148411,313,47,34200,3070540045,BK21,Seagate-Coney Island                                                       ,Qadir Dixon,21,K03G,COMMUNITY SCHOOL DISTRICT 21,"2950 WEST 25 STREET
BROOKLYN, NY 11224
(40.574029, -73.992393)"
K303,I.S. 303 Herbert S. Eisenberg,501 WEST AVENUE,992025,151505,313,47,35400,3072500025,BK23,West Brighton                                                              ,CARMEN AMADOR,21,K03G,COMMUNITY SCHOOL DISTRICT 21,"501 WEST AVENUE
BROOKLYN, NY 11224
(40.582518, -73.972009)"
K468,Kingsborough Early College School,2630 BENSON AVENUE,988051,155333,313,47,30600,3068830001,BK26,Gravesend                                                                  ,Tracee Murren,21,HS03,NULL,"2630 BENSON AVENUE
BROOKLYN, NY 11214
(40.593028, -73.986313)"
K690,Brooklyn Studio Secondary School,8310 21ST AVENUE,985615,159687,311,47,28800,3063290032,BK28,Bensonhurst West                                                           ,ANDREA CILIOTTA,21,HS06,NULL,"8310 21ST AVENUE
BROOKLYN, NY 11214
(40.60498, -73.995084)"
K014,J.H.S. 014 Shell Bank,2424 BATCHELDER STREET,1001439,155413,315,48,59600,3074240001,BK17,Sheepshead Bay-Gerritsen Beach-Manhattan Beach                             ,Teri Ahearn,22,K822,COMMUNITY SCHOOL DISTRICT 22,"2424 BATCHELDER STREET
BROOKLYN, NY 11235
(40.593232, -73.938107)"
K078,J.H.S. 078 Roy H. Mann,1420 EAST  68 STREET,1008426,165367,318,46,69602,3083880002,BK45,Georgetown-Marine Park-Bergen Beach-Mill Basin                             ,Anthony Cusumano,22,K822,COMMUNITY SCHOOL DISTRICT 22,"1420 EAST 68 STREET
BROOKLYN, NY 11234
(40.620537, -73.912914)"
K109,P.S. 109,1001 EAST  45 STREET,1002818,170938,317,45,83600,3050220002,BK91,East Flatbush-Farragut                                                     ,Kerdy Bertrand,22,K822,COMMUNITY SCHOOL DISTRICT 22,"1001 EAST 45 STREET
BROOKLYN, NY 11203
(40.635842, -73.933099)"
K206,P.S. 206 Joseph F Lamb,2200 GRAVESEND NECK ROAD,998565,156739,315,48,59401,3073810201,BK17,Sheepshead Bay-Gerritsen Beach-Manhattan Beach                             ,Ellen Quigley,22,K822,COMMUNITY SCHOOL DISTRICT 22,"2200 GRAVESEND NECK ROAD
BROOKLYN, NY 11229
(40.596876, -73.948453)"
K207,P.S. 207 Elizabeth G. Leary,4011 FILLMORE AVENUE,1003550,162974,318,46,65200,3084840001,BK45,Georgetown-Marine Park-Bergen Beach-Mill Basin                             ,MARY BOSCO,22,K822,COMMUNITY SCHOOL DISTRICT 22,"4011 FILLMORE AVENUE
BROOKLYN, NY 11234
(40.613981, -73.930485)"
K234,J.H.S. 234 Arthur W. Cunningham,1875 EAST  17 STREET,996685,159496,315,48,55800,3068210244,BK44,Madison                                                                    ,SUSAN SCHAEFFER,22,K822,COMMUNITY SCHOOL DISTRICT 22,"1875 EAST 17 STREET
BROOKLYN, NY 11229
(40.604447, -73.955217)"
K240,Andries Hudde,2500 NOSTRAND AVENUE,999008,166544,314,45,74800,3076290030,BK43,Midwood                                                                    ,Gina Votinelli,22,K822,COMMUNITY SCHOOL DISTRICT 22,"2500 NOSTRAND AVENUE
BROOKLYN, NY 11210
(40.623788, -73.946836)"
K278,J.H.S. 278 Marine Park,1925 STUART STREET,1001265,160336,315,46,66600,3084960100,BK99,park-cemetery-etc-Brooklyn                                                 ,DEBRA GAROFALO,22,K822,COMMUNITY SCHOOL DISTRICT 22,"1925 STUART STREET
BROOKLYN, NY 11229
(40.606745, -73.938721)"
K381,I. S. 381,2500 NOSTRAND AVENUE,999008,166544,314,45,74800,3076290030,BK43,Midwood                                                                    ,Victoria Hippolyte Agard,22,K822,COMMUNITY SCHOOL DISTRICT 22,"2500 NOSTRAND AVENUE
BROOKLYN, NY 11210
(40.623788, -73.946836)"
K890,M.S. 890,21 HINCKLEY PLACE,992295,174218,312,40,49200,3053420006,BK41,Kensington-Ocean Parkway                                                   ,NICHOLAS FRANGELLA,15,K822,COMMUNITY SCHOOL DISTRICT 22,"21 HINCKLEY PLACE
BROOKLYN, NY 11218
(40.644861, -73.97101)"
K041,P.S. 041 Francis White,411 THATFORD AVENUE,1010073,179912,316,42,91800,3036040001,BK81,Brownsville                                                                ,SHONELLE HALL,23,K823,COMMUNITY SCHOOL DISTRICT 23,"411 THATFORD AVENUE
BROOKLYN, NY 11212
(40.660455, -73.906925)"
K137,P.S./I.S. 137 Rachel Jean Mitchell,121 SARATOGA AVENUE,1007370,187849,316,41,37300,3015100001,BK79,Ocean Hill                                                                 ,Suzette Rose,23,K823,COMMUNITY SCHOOL DISTRICT 23,"121 SARATOGA AVENUE
BROOKLYN, NY 11233
(40.682248, -73.916641)"
K155,P.S./ I.S. 155 Nicholas Herkimer,1355 HERKIMER STREET,1009579,186170,316,37,36900,3015520043,BK79,Ocean Hill                                                                 ,MICHELLE MANNS,23,K823,COMMUNITY SCHOOL DISTRICT 23,"1355 HERKIMER STREET
BROOKLYN, NY 11233
(40.677634, -73.908682)"
K178,P.S. 178 Saint Clair Mckelway,2163 DEAN STREET,1007734,185347,316,41,30300,3014400056,BK79,Ocean Hill                                                                 ,JOSEPH HENRY,23,K823,COMMUNITY SCHOOL DISTRICT 23,"2163 DEAN STREET
BROOKLYN, NY 11233
(40.67538, -73.915337)"
K184,P.S. 184 Newport,273 NEWPORT STREET,1010606,179887,316,42,91800,3036060001,BK81,Brownsville                                                                ,LISA CALDWELL LINDER,23,K823,COMMUNITY SCHOOL DISTRICT 23,"273 NEWPORT STREET
BROOKLYN, NY 11212
(40.660385, -73.905004)"
K284,"The Gregory Jocko Jackson School of Sports, Art, a",213 OSBORN STREET,1009874,182275,316,41,91200,3035440135,BK81,Brownsville                                                                ,Keva Pitts,23,K823,COMMUNITY SCHOOL DISTRICT 23,"213 OSBORN STREET
BROOKLYN, NY 11212
(40.666942, -73.907634)"
K323,P.S./I.S. 323,210 CHESTER STREET,1008863,181999,316,41,92400,3035420001,BK81,Brownsville                                                                ,LINDA HARRIS,23,K823,COMMUNITY SCHOOL DISTRICT 23,"210 CHESTER STREET
BROOKLYN, NY 11212
(40.666187, -73.911279)"
K363,Brownsville Collaborative Middle School,85 WATKINS STREET,1009849,183759,316,37,90600,3035070007,BK81,Brownsville                                                                ,GREGORY JACKSON,23,K823,COMMUNITY SCHOOL DISTRICT 23,"85 WATKINS STREET
BROOKLYN, NY 11212
(40.671015, -73.907718)"
K392,I.S. 392,104 SUTTER AVENUE,1007032,181766,316,41,90000,3035350016,BK81,Brownsville                                                                ,Ingrid Joseph,23,K823,COMMUNITY SCHOOL DISTRICT 23,"104 SUTTER AVENUE
BROOKLYN, NY 11212
(40.665553, -73.91788)"
K757,Unity Prep Charter School,432 MONROE STREET,1000652,189288,303,36,27700,3018210001,BK35,Stuyvesant Heights                                                         ,Josh Beauregard,13,NULL,OFFICE OF CHARTER SCHOOLS,"432 MONROE STREET
BROOKLYN, NY 11221
(40.686213, -73.940859)"
K518,Kappa V (Knowledge and Power Preparatory Academy),985 ROCKAWAY AVENUE,1010148,178159,316,42,92200,3036360007,BK81,Brownsville                                                                ,Ronda Phillips,23,K823,COMMUNITY SCHOOL DISTRICT 23,"985 ROCKAWAY AVENUE
BROOKLYN, NY 11212
(40.655644, -73.906662)"
K522,Mott Hall IV,1137 HERKIMER STREET,1007797,186347,316,41,30100,3015500001,BK79,Ocean Hill                                                                 ,Dellie Edwards,23,K823,COMMUNITY SCHOOL DISTRICT 23,"1137 HERKIMER STREET
BROOKLYN, NY 11233
(40.678124, -73.915106)"
K644,Eagle Academy for Young Men II,1137 HERKIMER STREET,1007797,186347,316,41,30100,3015500001,BK79,Ocean Hill                                                                 ,RASHAD MEADE,23,K823,COMMUNITY SCHOOL DISTRICT 23,"1137 HERKIMER STREET
BROOKLYN, NY 11233
(40.678124, -73.915106)"
K664,Brooklyn Environmental Exploration School (BEES),251 MAC DOUGAL STREET,1009013,187279,316,37,36900,3015280001,BK79,Ocean Hill                                                                 ,Craig Garber,23,K823,COMMUNITY SCHOOL DISTRICT 23,"251 MAC DOUGAL STREET
BROOKLYN, NY 11233
(40.680679, -73.910719)"
K668,Riverdale Avenue Middle School,76 RIVERDALE AVENUE,1008247,179605,316,42,89600,3035970011,BK81,Brownsville                                                                ,Yolanda Lawrence,23,K823,COMMUNITY SCHOOL DISTRICT 23,"76 RIVERDALE AVENUE
BROOKLYN, NY 11212
(40.659618, -73.913508)"
K758,Brooklyn Urban Garden Charter School,500 19TH STREET,989071,178349,307,38,150200,3008890001,BK40,Windsor Terrace                                                            ,Linda Rosenbury,15,NULL,OFFICE OF CHARTER SCHOOLS,"500 19TH STREET
BROOKLYN, NY 11215
(40.656202, -73.982624)"
K671,Mott Hall Bridges Academy,210 CHESTER STREET,1008863,181999,316,41,92400,3035420001,BK81,Brownsville                                                                ,NADIA LOPEZ,23,K823,COMMUNITY SCHOOL DISTRICT 23,"210 CHESTER STREET
BROOKLYN, NY 11212
(40.666187, -73.911279)"
K697,Teachers Preparatory High School,226 BRISTOL STREET,1008635,181773,316,41,92400,3035410001,BK81,Brownsville                                                                ,Carmen Simon,23,HS05,NULL,"226 BRISTOL STREET
BROOKLYN, NY 11212
(40.665568, -73.912102)"
Q005,I.S. 5 - The Walter Crowley Intermediate School,50-40 JACOBUS STREET,1015251,207953,404,25,48900,4024500017,QN50,Elmhurst-Maspeth                                                           ,Kelly Nepogoda,24,Q824,COMMUNITY SCHOOL DISTRICT 24,"50-40 JACOBUS STREET
QUEENS, NY 11373
(40.737405, -73.888133)"
Q049,P.S. 049 Dorothy Bonawit Kole,63-60 80th Street,1018763,201459,405,30,66300,4029900045,QN21,Middle Village                                                             ,Thomas Carty,24,Q824,COMMUNITY SCHOOL DISTRICT 24,"63-60 80th Street
QUEENS, NY 11379
(40.719567, -73.875493)"
Q093,I.S. 093 Ridgewood,66-56 FOREST AVENUE,1011128,196364,405,30,58900,4034900001,QN20,Ridgewood                                                                  ,EDWARD SANTOS,24,Q824,COMMUNITY SCHOOL DISTRICT 24,"66-56 FOREST AVENUE
QUEENS, NY 11385
(40.705609, -73.903057)"
Q061,I.S. 061 Leonardo Da Vinci,98-50 50 AVENUE,1022245,209600,404,21,44302,4018910032,QN25,Corona                                                                     ,JOSEPH LISA,24,Q824,COMMUNITY SCHOOL DISTRICT 24,"98-50 50 AVENUE
QUEENS, NY 11368
(40.741898, -73.862886)"
Q073,I.S. 73 - The Frank Sansivieri Intermediate School,70-02 54 AVENUE,1013818,204728,405,30,49302,4025030031,QN30,Maspeth                                                                    ,Michael Casale,24,Q824,COMMUNITY SCHOOL DISTRICT 24,"70-02 54 AVENUE
QUEENS, NY 11378
(40.728558, -73.893318)"
Q077,I.S. 077,976 SENECA AVENUE,1011383,193993,405,34,55500,4035630023,QN20,Ridgewood                                                                  ,JOSEPH MILLER,24,Q824,COMMUNITY SCHOOL DISTRICT 24,"976 SENECA AVENUE
QUEENS, NY 11385
(40.699101, -73.902147)"
Q087,P.S./I.S. 087 Middle Village,67-54 80 STREET,1019826,198543,405,30,62100,4037820027,QN21,Middle Village                                                             ,CARYN MICHAELI,24,Q824,COMMUNITY SCHOOL DISTRICT 24,"67-54 80 STREET
QUEENS, NY 11379
(40.711559, -73.871674)"
Q102,P.S. 102 Bayview,55-24 VAN HORN STREET,1017994,206364,404,25,47900,4028790031,QN50,Elmhurst-Maspeth                                                           ,William Ko,24,Q824,COMMUNITY SCHOOL DISTRICT 24,"55-24 VAN HORN STREET
QUEENS, NY 11373
(40.733033, -73.878243)"
Q113,P.S./I.S. 113 Anthony J. Pranzo,78-23 87TH STREET,1022652,196331,405,30,63700,4038460040,QN19,Glendale                                                                   ,Alejandro Megias,24,Q824,COMMUNITY SCHOOL DISTRICT 24,"78-23 87TH STREET
QUEENS, NY 11385
(40.705476, -73.861493)"
Q119,I.S. 119 The Glendale,74-01 78 AVENUE,1018887,196220,405,30,63301,4038120020,QN19,Glendale                                                                   ,JEANNE FAGAN,24,Q824,COMMUNITY SCHOOL DISTRICT 24,"74-01 78 AVENUE
QUEENS, NY 11385
(40.705187, -73.875073)"
Q125,I.S. 125 Thom J. McCann Woodside,46-02 47 AVENUE,1006762,209054,402,26,23500,4022840006,QN31,Hunters Point-Sunnyside-West Maspeth                                       ,JUDY MITTLER,24,Q824,COMMUNITY SCHOOL DISTRICT 24,"46-02 47 AVENUE
QUEENS, NY 11377
(40.740452, -73.918762)"
Q128,"P.S. 128 The Lorraine Tuzzo, Juniper Valley Elemen",69-10 65th Drive,1015860,199793,405,30,65900,4030270037,QN21,Middle Village                                                             ,CAMILLO TURRICIANO,24,Q824,COMMUNITY SCHOOL DISTRICT 24,"69-10 65th Drive
QUEENS, NY 11379
(40.715005, -73.885974)"
Q311,Corona Arts & Sciences Academy,98-11 44TH AVENUE,1021591,211064,404,21,40900,4016280021,QN26,North Corona                                                               ,Beth Hert,24,Q824,COMMUNITY SCHOOL DISTRICT 24,"98-11 44TH AVENUE
QUEENS, NY 11368
(40.74592, -73.865239)"
Q560,"Robert F. Wagner, Jr. Secondary School for Arts an",47-07 30TH PLACE,1001862,209693,402,26,19900,4002820001,QN31,Hunters Point-Sunnyside-West Maspeth                                       ,Stephania Vu,24,HS08,NULL,"47-07 30TH PLACE
QUEENS, NY 11101
(40.742217, -73.936442)"
Q025,I.S. 025 Adrien Block,34-65 192 STREET,1042598,218015,411,19,113900,4052610001,QN48,Auburndale                                                                 ,MARY ELLEN BEIRNE,25,Q825,COMMUNITY SCHOOL DISTRICT 25,"34-65 192 STREET
QUEENS, NY 11358
(40.764884, -73.789365)"
Q164,P.S. 164 Queens Valley,138-01 77 AVENUE,1033155,202193,408,24,77902,4066060002,QN37,Kew Gardens Hills                                                          ,Lisa Liatto,25,Q825,COMMUNITY SCHOOL DISTRICT 25,"138-01 77 AVENUE
QUEENS, NY 11367
(40.721514, -73.823569)"
Q185,J.H.S. 185 Edward Bleeker,147-26 25 DRIVE,1034490,221648,407,19,104700,4048020001,QN51,Murray Hill                                                                ,Theresa Mshar,25,Q825,COMMUNITY SCHOOL DISTRICT 25,"147-26 25 DRIVE
QUEENS, NY 11354
(40.774906, -73.818607)"
Q189,J.H.S. 189 Daniel Carter Beard,144-80 BARCLAY AVENUE,1034559,216204,407,20,86300,4050510027,QN51,Murray Hill                                                                ,MAGDALEN RADOVICH,25,Q825,COMMUNITY SCHOOL DISTRICT 25,"144-80 BARCLAY AVENUE
QUEENS, NY 11355
(40.759963, -73.818399)"
Q194,J.H.S. 194 William Carr,154-60 17 AVENUE,1037701,224688,407,19,102900,4047290001,QN49,Whitestone                                                                 ,Jennifer Miller,25,Q825,COMMUNITY SCHOOL DISTRICT 25,"154-60 17 AVENUE
QUEENS, NY 11357
(40.783231, -73.80699)"
Q200,P.S./M.S. 200 - The Pomonok School & STAR Academy,70-10 164 STREET,1038084,205685,408,24,122701,4067890001,QN38,Pomonok-Flushing Heights-Hillcrest                                         ,Kevin Mcauliffe,25,Q825,COMMUNITY SCHOOL DISTRICT 25,"70-10 164 STREET
QUEENS, NY 11365
(40.73107, -73.805759)"
Q219,P.S. 219 Paul Klapper,144-39 GRAVETT ROAD,1033068,207998,408,24,80900,4065070001,QN37,Kew Gardens Hills                                                          ,Frederick Wright,25,Q825,COMMUNITY SCHOOL DISTRICT 25,"144-39 GRAVETT ROAD
QUEENS, NY 11367
(40.737448, -73.823841)"
Q237,I.S. 237,46-21 COLDEN STREET,1033735,212365,407,20,84500,4051470001,QN22,Flushing                                                                   ,JUDITH FRIEDMAN,25,Q825,COMMUNITY SCHOOL DISTRICT 25,"46-21 COLDEN STREET
QUEENS, NY 11355
(40.74943, -73.821402)"
Q250,I.S. 250 The Robert F. Kennedy Community Middle Sc,158-40 76 ROAD,1037086,203178,408,24,125700,4068260001,QN37,Kew Gardens Hills                                                          ,Tara Mrwik,25,Q825,COMMUNITY SCHOOL DISTRICT 25,"158-40 76 ROAD
QUEENS, NY 11366
(40.724195, -73.80938)"
Q252,"Queens School of Inquiry, The",158-40 76 ROAD,1037086,203178,408,24,125700,4068260001,QN37,Kew Gardens Hills                                                          ,MEREDITH INBAL,25,HS03,NULL,"158-40 76 ROAD
QUEENS, NY 11366
(40.724195, -73.80938)"
Q281,East-West School of International Studies,46-21 COLDEN STREET,1033735,212365,407,20,84500,4051470001,QN22,Flushing                                                                   ,ANTHONY CROMER,25,HS08,NULL,"46-21 COLDEN STREET
QUEENS, NY 11355
(40.74943, -73.821402)"
Q285,World Journalism Preparatory: A College Board Scho,34-65 192 STREET,1042598,218015,411,19,113900,4052610001,QN48,Auburndale                                                                 ,JANINE WERNER,25,HS01,NULL,"34-65 192 STREET
QUEENS, NY 11358
(40.764884, -73.789365)"
Q294,BELL Academy,18-25 212 STREET,1045611,224379,407,19,99704,4058650050,QN47,Ft. Totten-Bay Terrace-Clearview                                           ,David Abbott,25,Q825,COMMUNITY SCHOOL DISTRICT 25,"18-25 212 STREET
QUEENS, NY 11360
(40.782331, -73.77843)"
Q499,"The Queens College School for Math, Science and Te",148-20 REEVES AVENUE,1033904,208419,408,24,80900,4065070150,QN37,Kew Gardens Hills                                                          ,Simi Minhas,25,Q825,COMMUNITY SCHOOL DISTRICT 25,"148-20 REEVES AVENUE
QUEENS, NY 11367
(40.738599, -73.820821)"
Q067,J.H.S. 067 Louis Pasteur,51-60 MARATHON PARKWAY,1057707,217093,411,19,150701,4082210012,QN45,Douglas Manor-Douglaston-Little Neck                                       ,BRIAN ANNELLO,26,Q826,COMMUNITY SCHOOL DISTRICT 26,"51-60 MARATHON PARKWAY
QUEENS, NY 11362
(40.762241, -73.734832)"
Q074,J.H.S. 074 Nathaniel Hawthorne,61-15 OCEANIA STREET,1048909,210693,411,23,136700,4077230001,QN42,Oakland Gardens                                                            ,Anthony Armstrong,26,Q826,COMMUNITY SCHOOL DISTRICT 26,"61-15 OCEANIA STREET
QUEENS, NY 11364
(40.744743, -73.766653)"
Q158,M.S. 158 Marie Curie,46-35 OCEANIA STREET,1047450,214995,411,19,144700,4073120001,QN46,Bayside-Bayside Hills                                                      ,HENRY SCHANDEL,26,Q826,COMMUNITY SCHOOL DISTRICT 26,"46-35 OCEANIA STREET
QUEENS, NY 11361
(40.756562, -73.771878)"
Q172,Irwin Altman Middle School 172,81-14 257 STREET,1063712,209522,413,23,157902,4087310004,QN44,Glen Oaks-Floral Park-New Hyde Park                                        ,JEFFREY SLIVKO,26,Q826,COMMUNITY SCHOOL DISTRICT 26,"81-14 257 STREET
QUEENS, NY 11004
(40.741409, -73.713245)"
Q178,P.S./ IS 178 Holliswood,189-10 RADNOR ROAD,1045974,203150,408,23,127700,4072770001,QN06,Jamaica Estates-Holliswood                                                 ,JESSICA CRUZ,26,Q826,COMMUNITY SCHOOL DISTRICT 26,"189-10 RADNOR ROAD
QUEENS, NY 11423
(40.724061, -73.777314)"
Q216,J.H.S. 216 George J. Ryan,64-20 175 STREET,1041199,207921,408,24,134100,4069030001,QN41,Fresh Meadows-Utopia                                                       ,Reginald Landeau,26,Q826,COMMUNITY SCHOOL DISTRICT 26,"64-20 175 STREET
QUEENS, NY 11365
(40.737188, -73.794501)"
Q266,P.S./I.S. 266,74-10 COMMONWEALTH BOULEVARD,1059503,211228,413,23,156700,4078700074,QN43,Bellerose                                                                  ,Ayanna Greenidge,26,Q826,COMMUNITY SCHOOL DISTRICT 26,"74-10 COMMONWEALTH BOULEVARD
QUEENS, NY 11426
(40.746128, -73.728415)"
Q042,P.S./M.S 042 R. Vernam,488 BEACH  66 STREET,1041237,155884,414,31,96400,4160390014,QN12,Hammels-Arverne-Edgemere                                                   ,Patricia Finn,27,Q827,COMMUNITY SCHOOL DISTRICT 27,"488 BEACH 66 STREET
QUEENS, NY 11692
(40.594358, -73.794804)"
Q043,P.S. 043,160 BEACH  29 STREET,1050602,155588,414,31,99802,4158200001,QN15,Far Rockaway-Bayswater                                                     ,Simone Nicholas,27,Q827,COMMUNITY SCHOOL DISTRICT 27,"160 BEACH 29 STREET
QUEENS, NY 11691
(40.59348, -73.761086)"
Q047,P.S. 047 Chris Galas,9 POWER ROAD,1033928,160283,414,32,107201,4153130485,QN10,Breezy Point-Belle Harbor-Rockaway Park-Broad Channel                      ,Heather Lorenz,27,Q827,COMMUNITY SCHOOL DISTRICT 27,"9 POWER ROAD
QUEENS, NY 11693
(40.606476, -73.821089)"
Q053,M.S. 053 Brian Piccolo,10-45 NAMEOKE STREET,1053700,159436,414,31,103202,4155570025,QN15,Far Rockaway-Bayswater                                                     ,Andrea Majied,27,Q827,COMMUNITY SCHOOL DISTRICT 27,"10-45 NAMEOKE STREET
QUEENS, NY 11691
(40.604019, -73.749891)"
Q105,P.S. 105 The Bay School,420 BEACH  51 STREET,1045080,156459,414,31,97203,4159740003,QN12,Hammels-Arverne-Edgemere                                                   ,LAURIE SHAPIRO,27,Q827,COMMUNITY SCHOOL DISTRICT 27,"420 BEACH 51 STREET
QUEENS, NY 11691
(40.595911, -73.780961)"
Q114,P.S./M.S. 114 Belle Harbor,134-01 CRONSTON AVENUE,1024706,149728,414,32,92800,4162570001,QN10,Breezy Point-Belle Harbor-Rockaway Park-Broad Channel                      ,ELIZABETH WELSOME,27,Q827,COMMUNITY SCHOOL DISTRICT 27,"134-01 CRONSTON AVENUE
QUEENS, NY 11694
(40.577552, -73.854364)"
Q124,P.S. 124 Osmond A Church,129-15 150 AVENUE,1036609,181854,410,28,84602,4118820001,QN55,South Ozone Park                                                           ,Maritza Williams Jones,27,Q827,COMMUNITY SCHOOL DISTRICT 27,"129-15 150 AVENUE
QUEENS, NY 11420
(40.665669, -73.811266)"
Q137,M.S. 137 America's School of Heroes,109-15 98 STREET,1028802,186372,410,32,8600,4091720001,QN56,Ozone Park                                                                 ,LAURA MASTROGIOVANNI,27,Q827,COMMUNITY SCHOOL DISTRICT 27,"109-15 98 STREET
QUEENS, NY 11417
(40.678112, -73.839377)"
Q146,P.S. 146 Howard Beach,98-01 159 AVENUE,1030057,179969,410,32,88400,4141680016,QN57,Lindenwood-Howard Beach                                                    ,MARY KEEGAN,27,Q827,COMMUNITY SCHOOL DISTRICT 27,"98-01 159 AVENUE
QUEENS, NY 11414
(40.660531, -73.834896)"
Q183,P.S. 183 Dr. Richard R. Green,2-45 BEACH  79 STREET,1038169,154005,414,31,94202,4161120001,QN12,Hammels-Arverne-Edgemere                                                   ,Jessica Romero,27,Q827,COMMUNITY SCHOOL DISTRICT 27,"2-45 BEACH 79 STREET
QUEENS, NY 11693
(40.58922, -73.805866)"
Q202,J.H.S. 202 Robert H. Goddard,138-30 LAFAYETTE STREET,1026972,183743,410,32,5800,4114030001,QN56,Ozone Park                                                                 ,WILLIAM FITZGERALD,27,Q827,COMMUNITY SCHOOL DISTRICT 27,"138-30 LAFAYETTE STREET
QUEENS, NY 11417
(40.670905, -73.845992)"
Q207,P.S. 207 Rockwood Park,159-15 88 STREET,1027566,178946,410,32,89200,4140090060,QN57,Lindenwood-Howard Beach                                                    ,Eileen Davies,27,Q827,COMMUNITY SCHOOL DISTRICT 27,"159-15 88 STREET
QUEENS, NY 11414
(40.657736, -73.843881)"
Q210,J.H.S. 210 Elizabeth Blackwell,93-11 101 AVENUE,1026508,188790,409,32,3800,4090670001,QN53,Woodhaven                                                                  ,BONNIE BUTCHER,27,Q827,COMMUNITY SCHOOL DISTRICT 27,"93-11 101 AVENUE
QUEENS, NY 11416
(40.68476, -73.847633)"
Q226,J.H.S. 226 Virgil I. Grissom,121-10 ROCKAWAY BOULEVARD,1035086,185258,410,28,84000,4117140100,QN55,South Ozone Park                                                           ,RUSHELL WHITE,27,Q827,COMMUNITY SCHOOL DISTRICT 27,"121-10 ROCKAWAY BOULEVARD
QUEENS, NY 11420
(40.675021, -73.81673)"
Q232,P.S. 232 Lindenwood,153-23 83 STREET,1025691,181738,410,32,6202,4114450001,QN57,Lindenwood-Howard Beach                                                    ,LISA JOSEPHSON,27,Q827,COMMUNITY SCHOOL DISTRICT 27,"153-23 83 STREET
QUEENS, NY 11414
(40.665408, -73.850622)"
Q262,Channel View School for Research,100-00 BEACH CHANNEL DRIVE,1032769,152825,414,32,93800,4161670099,QN10,Breezy Point-Belle Harbor-Rockaway Park-Broad Channel                      ,DENISE HARPER RICHARDS,27,HS12,NULL,"100-00 BEACH CHANNEL DRIVE
QUEENS, NY 11694
(40.586012, -73.825317)"
Q282,Knowledge and Power Preparatory Academy VI,8-21 BAY 25 STREET,1049786,158521,414,31,100802,4157360001,QN15,Far Rockaway-Bayswater                                                     ,GARY DUMORNAY,27,Q827,COMMUNITY SCHOOL DISTRICT 27,"8-21 BAY 25 STREET
QUEENS, NY 11691
(40.601537, -73.763995)"
Q297,Hawtree Creek Middle School,121-10 ROCKAWAY BOULEVARD,1035086,185258,410,28,84000,4117140100,QN55,South Ozone Park                                                           ,Dr. Maureen Hussey,27,Q827,COMMUNITY SCHOOL DISTRICT 27,"121-10 ROCKAWAY BOULEVARD
QUEENS, NY 11420
(40.675021, -73.81673)"
Q309,Academy of Medical Technology: A College Board Sch,8-21 BAY 25 STREET,1049786,158521,414,31,100802,4157360001,QN15,Far Rockaway-Bayswater                                                     ,William Johnson,27,HS01,NULL,"8-21 BAY 25 STREET
QUEENS, NY 11691
(40.601537, -73.763995)"
Q318,Waterside School For Leadership,190 BEACH 110 STREET,1031169,150962,414,32,93800,4161810001,QN10,Breezy Point-Belle Harbor-Rockaway Park-Broad Channel                      ,LINDA MUNRO,27,Q827,COMMUNITY SCHOOL DISTRICT 27,"190 BEACH 110 STREET
ROCKAWAY PARK, NY 11694
(40.580907, -73.83109)"
K704,Explore Charter School,655 PARKSIDE AVENUE,997686,178433,309,40,80200,3050500051,BK60,Prospect Lefferts Gardens-Wingate                                          ,Michal-Anne Jones/Kevin Mara,17,NULL,OFFICE OF CHARTER SCHOOLS,"655 PARKSIDE AVENUE
BROOKLYN, NY 11226
(40.656423, -73.951575)"
Q319,Village Academy,10-45 NAMEOKE STREET,1053700,159436,414,31,103202,4155570025,QN15,Far Rockaway-Bayswater                                                     ,DORIS LEE,27,Q827,COMMUNITY SCHOOL DISTRICT 27,"10-45 NAMEOKE STREET
QUEENS, NY 11691
(40.604019, -73.749891)"
Q323,Scholars' Academy,320 BEACH 104TH STREET,1032813,152290,414,32,93800,4161590012,QN10,Breezy Point-Belle Harbor-Rockaway Park-Broad Channel                      ,BRIAN OCONNELL,27,Q827,COMMUNITY SCHOOL DISTRICT 27,"320 BEACH 104TH STREET
QUEENS, NY 11694
(40.584543, -73.825162)"
Q333,Goldie Maple Academy,3-65 BEACH 56 STREET,1043502,155762,414,31,97204,4158940011,QN12,Hammels-Arverne-Edgemere                                                   ,ANGELA LOGAN-SMITH,27,Q827,COMMUNITY SCHOOL DISTRICT 27,"3-65 BEACH 56 STREET
QUEENS, NY 11692
(40.594008, -73.786649)"
Q008,J.H.S. 008 Richard S. Grossley,108-35 167 STREET,1043479,193252,412,27,25800,4101780001,QN01,South Jamaica                                                              ,ANGELA GREEN,28,Q828,COMMUNITY SCHOOL DISTRICT 28,"108-35 167 STREET
QUEENS, NY 11433
(40.69691, -73.786403)"
Q072,Catherine & Count Basie Middle School 72,133-25 GUY R BREWER BOULEVARD,1046483,185282,412,28,33402,4124950270,QN02,Springfield Gardens North                                                  ,OMOTAYO CINEUS,28,Q828,COMMUNITY SCHOOL DISTRICT 28,"133-25 GUY R BREWER BOULEVARD
QUEENS, NY 11434
(40.675014, -73.775643)"
Q157,J.H.S. 157 Stephen A. Halsey,63-55 102ND STREET,1025024,206125,406,29,72100,4021260014,QN17,Forest Hills                                                               ,VINCENT SURACI,28,Q828,COMMUNITY SCHOOL DISTRICT 28,"63-55 102ND STREET
QUEENS, NY 11374
(40.732348, -73.852879)"
Q167,Metropolitan Expeditionary Learning School,91-30 METROPOLITAN AVENUE,1024300,197410,406,29,64500,4038860800,QN17,Forest Hills                                                               ,DAMON MCCORD,28,HS12,NULL,"91-30 METROPOLITAN AVENUE
QUEENS, NY 11375
(40.708431, -73.855543)"
Q190,J.H.S. 190 Russell Sage,68-17 AUSTIN STREET,1025356,202894,406,29,71305,4031720002,QN17,Forest Hills                                                               ,John Greggo,28,Q828,COMMUNITY SCHOOL DISTRICT 28,"68-17 AUSTIN STREET
QUEENS, NY 11375
(40.723478, -73.8517)"
Q217,J.H.S. 217 Robert A. Van Wyck,85-05 144 STREET,1036520,198145,408,24,23200,4097240173,QN35,Briarwood-Jamaica Hills                                                    ,PATRICK BURNS,28,Q828,COMMUNITY SCHOOL DISTRICT 28,"85-05 144 STREET
QUEENS, NY 11435
(40.710384, -73.811461)"
Q284,York Early College Academy,108-35 167 STREET,1043479,193252,412,27,25800,4101780001,QN01,South Jamaica                                                              ,Noah Angeles,28,HS03,NULL,"108-35 167 STREET
QUEENS, NY 11433
(40.69691, -73.786403)"
Q287,The Emerson School,108-35 167 STREET,1043479,193252,412,27,25800,4101780001,QN01,South Jamaica                                                              ,Jakub Lau,28,Q828,COMMUNITY SCHOOL DISTRICT 28,"108-35 167 STREET
QUEENS, NY 11433
(40.69691, -73.786403)"
Q310,Queens Collegiate: A College Board School,167-01 GOTHIC DRIVE,1040066,199671,408,24,45200,4098580100,QN35,Briarwood-Jamaica Hills                                                    ,JAIME DUBEI,28,HS08,NULL,"167-01 GOTHIC DRIVE
JAMAICA, NY 11432
(40.714551, -73.798658)"
Q332,Redwood Middle School,133-25 GUY R BREWER BOULEVARD,1046483,185282,412,28,33402,4124950270,QN02,Springfield Gardens North                                                  ,Judson Hamilton,28,Q828,COMMUNITY SCHOOL DISTRICT 28,"133-25 GUY R BREWER BOULEVARD
QUEENS, NY 11434
(40.675014, -73.775643)"
Q358,M.S. 358,88-08 164TH STREET,1040178,197421,412,24,44602,4098130033,QN61,Jamaica                                                                    ,BRENDAN MIMS,28,Q828,COMMUNITY SCHOOL DISTRICT 28,"88-08 164TH STREET
QUEENS, NY 11432
(40.708698, -73.797981)"
Q680,Queens Gateway to Health Sciences Secondary School,160-20 GOETHALS AVENUE,1038049,200933,408,24,126700,4068580001,QN38,Pomonok-Flushing Heights-Hillcrest                                         ,Judy Henry,28,HS08,NULL,"160-20 GOETHALS AVENUE
QUEENS, NY 11432
(40.718027, -73.805923)"
Q896,"Young Women's Leadership School, Queens",150-91 87 ROAD,1038544,197430,408,24,23600,4097070048,QN35,Briarwood-Jamaica Hills                                                    ,Mala Panday,28,HS08,NULL,"150-91 87 ROAD
QUEENS, NY 11432
(40.708409, -73.804166)"
Q059,I.S. 059 Springfield Gardens,132-55 RIDGEDALE STREET,1052820,187801,412,27,35200,4127230076,QN08,St. Albans                                                                 ,CARLETON GORDON JR,29,Q829,COMMUNITY SCHOOL DISTRICT 29,"132-55 RIDGEDALE STREET
QUEENS, NY 11413
(40.681881, -73.752772)"
Q109,Jean Nuzzi Intermediate School,213-10 92 AVENUE,1054554,201721,413,23,54200,4106260001,QN34,Queens Village                                                             ,Karleen Adam Comrie,29,Q829,COMMUNITY SCHOOL DISTRICT 29,"213-10 92 AVENUE
QUEENS, NY 11428
(40.720074, -73.746375)"
Q116,P.S./I.S. 116 William C. Hughley,107-25 WREN PLACE,1044741,194687,412,27,41400,4102500001,QN01,South Jamaica                                                              ,Debra Farrow,29,Q829,COMMUNITY SCHOOL DISTRICT 29,"107-25 WREN PLACE
QUEENS, NY 11433
(40.70084, -73.781839)"
Q138,P.S./M.S. 138 Sunrise,251-11 WELLER AVENUE,1057956,179799,413,31,66000,4135780001,QN05,Rosedale                                                                   ,James Mc Enaney,29,Q829,COMMUNITY SCHOOL DISTRICT 29,"251-11 WELLER AVENUE
QUEENS, NY 11422
(40.659876, -73.734342)"
Q147,P.S./M.S. 147 Ronald McNair,218-01 116 AVENUE,1056306,193694,413,27,59800,4113000001,QN33,Cambria Heights                                                            ,Afua Hill,29,Q829,COMMUNITY SCHOOL DISTRICT 29,"218-01 116 AVENUE
QUEENS, NY 11411
(40.698028, -73.74014)"
Q192,I.S. 192 The Linden,109-89 204 STREET,1052764,196584,412,27,50800,4109440301,QN07,Hollis                                                                     ,HARRIET DIAZ,29,Q829,COMMUNITY SCHOOL DISTRICT 29,"109-89 204 STREET
QUEENS, NY 11412
(40.705989, -73.752885)"
Q208,P.S./I.S. 208,74-30 COMMONWEALTH BLVD,1059722,210554,413,23,156700,4078700070,QN43,Bellerose                                                                  ,JAMES PHILEMY,26,Q829,COMMUNITY SCHOOL DISTRICT 29,"74-30 COMMONWEALTH BLVD
QUEENS, NY 11426
(40.744276, -73.727632)"
Q238,I.S. 238 - Susan B. Anthony Academy,88-15 182 STREET,1045336,199025,412,27,47000,4099190006,QN61,Jamaica                                                                    ,Peter Leddy,29,Q829,COMMUNITY SCHOOL DISTRICT 29,"88-15 182 STREET
QUEENS, NY 11423
(40.712743, -73.779653)"
Q259,Pathways College Preparatory School: A College Boa,109-89 204 STREET,1052764,196584,412,27,50800,4109440301,QN07,Hollis                                                                     ,FIA DAVIS,29,HS01,NULL,"109-89 204 STREET
QUEENS, NY 11412
(40.705989, -73.752885)"
Q268,P.S./I.S. 268,92-07 175 STREET,1043800,197165,412,27,44400,4102150001,QN61,Jamaica                                                                    ,LISSA GRANT STEWART,29,Q829,COMMUNITY SCHOOL DISTRICT 29,"92-07 175 STREET
QUEENS, NY 11433
(40.707648, -73.78521)"
Q270,The Gordon Parks School,233-15 MERRICK BOULEVARD,1057415,185333,413,31,61800,4129730001,QN66,Laurelton                                                                  ,Chayvonne Harper,29,Q829,COMMUNITY SCHOOL DISTRICT 29,"233-15 MERRICK BOULEVARD
QUEENS, NY 11422
(40.67507, -73.736232)"
Q283,Preparatory Academy for Writers: A College Board S,143-10 SPRINGFIELD BOULEVARD,1051454,183115,412,31,33000,4130570056,QN02,Springfield Gardens North                                                  ,CHARLES ANDERSON,29,HS01,NULL,"143-10 SPRINGFIELD BOULEVARD
QUEENS, NY 11413
(40.66903, -73.757744)"
Q289,Queens United Middle School,229-02 137 AVENUE,1055450,184303,413,31,64600,4131700012,QN66,Laurelton                                                                  ,Richard Roder,29,Q829,COMMUNITY SCHOOL DISTRICT 29,"229-02 137 AVENUE
QUEENS, NY 11413
(40.672259, -73.743327)"
Q295,P.S./I.S. 295,222-14 JAMAICA AVENUE,1058705,201931,413,23,56800,4108130005,QN34,Queens Village                                                             ,DEON LAVIGNE-JONES,29,Q829,COMMUNITY SCHOOL DISTRICT 29,"222-14 JAMAICA AVENUE
QUEENS, NY 11428
(40.720617, -73.731398)"
Q327,Eagle Academy for Young Men III,171-10 LINDEN BOULEVARD,1045675,191301,412,27,43200,0,QN08,St. Albans                                                                 ,Cedric Hall,29,HS01,NULL,"171-10 LINDEN BOULEVARD
QUEENS, NY 11434
(40.69172, -73.778924)"
Q355,Collaborative Arts Middle School,145-00 SPRINGFIELD BOULEVARD,1051000,181576,413,31,32000,4133310001,QN03,Springfield Gardens South-Brookville                                       ,Tammy Holloway,29,Q829,COMMUNITY SCHOOL DISTRICT 29,"145-00 SPRINGFIELD BOULEVARD
QUEENS, NY 11413
(40.664809, -73.759396)"
Q356,Community Voices Middle School,145-00 SPRINGFIELD BOULEVARD,1051000,181576,413,31,32000,4133310001,QN03,Springfield Gardens South-Brookville                                       ,Ryan Branch,29,Q829,COMMUNITY SCHOOL DISTRICT 29,"145-00 SPRINGFIELD BOULEVARD
QUEENS, NY 11413
(40.664809, -73.759396)"
Q010,I.S. 010 Horace Greeley,45-11 31ST AVE,1008639,216222,401,22,15100,4007140001,QN70,Astoria                                                                    ,CLEMENTE LOPES,30,Q830,COMMUNITY SCHOOL DISTRICT 30,"45-11 31ST AVE
QUEENS, NY 11103
(40.760122, -73.911962)"
Q078,P.S./I.S. 78Q,48-09 CENTER BOULEVARD,996116,210473,402,26,100,4000180001,QN31,Hunters Point-Sunnyside-West Maspeth                                       ,LOUIS PAVONE,30,Q830,COMMUNITY SCHOOL DISTRICT 30,"48-09 CENTER BOULEVARD
QUEENS, NY 11109
(40.744368, -73.957177)"
Q111,P.S. 111 Jacob Blackwell,37-15 13 STREET,1001099,215567,401,26,4300,4003630001,QN68,Queensbridge-Ravenswood-Long Island City                                   ,Dionne Jaggon,30,Q830,COMMUNITY SCHOOL DISTRICT 30,"37-15 13 STREET
QUEENS, NY 11101
(40.758342, -73.939181)"
Q122,P.S. 122 Mamie Fay,21-21 DITMARS BOULEVARD,1007573,223648,401,22,10300,4008800001,QN72,Steinway                                                                   ,ANNA APREA,30,Q830,COMMUNITY SCHOOL DISTRICT 30,"21-21 DITMARS BOULEVARD
QUEENS, NY 11105
(40.780507, -73.915785)"
Q126,Albert Shanker School for Visual and Performing Ar,31-51 21 STREET,1003643,218362,401,22,7700,4005530001,QN70,Astoria                                                                    ,ALEXANDER ANGUEIRA,30,Q830,COMMUNITY SCHOOL DISTRICT 30,"31-51 21 STREET
QUEENS, NY 11106
(40.766008, -73.92999)"
Q127,P.S. 127 Aerospace Science Magnet School,98-01 25 AVENUE,1020003,218198,403,21,35700,4011090016,QN27,East Elmhurst                                                              ,EVITA SANABRIA,30,Q830,COMMUNITY SCHOOL DISTRICT 30,"98-01 25 AVENUE
QUEENS, NY 11369
(40.765507, -73.870931)"
Q141,I.S. 141 The Steinway,37-11 21 AVENUE,1010698,221924,401,22,12301,4008100001,QN72,Steinway                                                                   ,MIRANDA PAVLOU,30,Q830,COMMUNITY SCHOOL DISTRICT 30,"37-11 21 AVENUE
QUEENS, NY 11105
(40.775766, -73.904508)"
Q145,I.S. 145 Joseph Pulitzer,33-34 80 STREET,1015412,214141,403,25,28500,4012520001,QN28,Jackson Heights                                                            ,IVAN RODRIGUEZ,30,Q830,COMMUNITY SCHOOL DISTRICT 30,"33-34 80 STREET
QUEENS, NY 11372
(40.754389, -73.887523)"
Q204,I.S. 204 Oliver W. Holmes,36-41 28 STREET,1002915,214887,401,26,5100,4003430001,QN68,Queensbridge-Ravenswood-Long Island City                                   ,Faye Erstejn Kotzer,30,Q830,COMMUNITY SCHOOL DISTRICT 30,"36-41 28 STREET
QUEENS, NY 11106
(40.756471, -73.932628)"
Q227,I.S. 227 Louis Armstrong,32-02 JUNCTION BOULEVARD,1018987,215304,403,21,35300,4014230001,QN27,East Elmhurst                                                              ,Helen Ponella,30,Q830,COMMUNITY SCHOOL DISTRICT 30,"32-02 JUNCTION BOULEVARD
QUEENS, NY 11369
(40.757567, -73.874614)"
Q230,I.S. 230,73-10 34 AVENUE,1013928,213494,403,25,28900,4012600001,QN28,Jackson Heights                                                            ,Ronald Zirin,30,Q830,COMMUNITY SCHOOL DISTRICT 30,"73-10 34 AVENUE
JACKSON HEIGHTS, NY 11372
(40.752618, -73.892883)"
Q235,Academy for New Americans,30-14 30 STREET,1005567,218688,401,22,7300,4005920015,QN71,Old Astoria                                                                ,Betty Cartagena,30,Q830,COMMUNITY SCHOOL DISTRICT 30,"30-14 30 STREET
QUEENS, NY 11102
(40.766898, -73.923044)"
Q286,"Young Women's Leadership School, Astoria",23-15 NEWTOWN AVENUE,1005348,220098,401,22,6900,4005420008,QN71,Old Astoria                                                                ,Allison Persad,30,HS08,NULL,"23-15 NEWTOWN AVENUE
QUEENS, NY 11102
(40.770769, -73.92383)"
Q291,Hunters Point Community Middle School,1-50 51ST AVENUE,995561,209958,402,26,100,0,QN31,Hunters Point-Sunnyside-West Maspeth                                       ,SARAH GOODMAN,30,Q830,COMMUNITY SCHOOL DISTRICT 30,"1-50 51ST AVENUE
QUEENS, NY 11101
(40.742964, -73.959183)"
Q300,The 30th Avenue School (G&T Citywide),28-37 29 STREET,1005705,219102,401,22,7100,4005940001,QN71,Old Astoria                                                                ,VASILIOS BINIARIS,30,Q830,COMMUNITY SCHOOL DISTRICT 30,"28-37 29 STREET
QUEENS, NY 11102
(40.768034, -73.922544)"
Q580,Baccalaureate School for Global Education,34-12 36 AVENUE,1004481,214343,401,26,5500,4006340036,QN68,Queensbridge-Ravenswood-Long Island City                                   ,KELLY JOHNSON,30,HS01,NULL,"34-12 36 AVENUE
QUEENS, NY 11106
(40.754975, -73.926977)"
R002,I.S. R002 George L. Egbert,333 MIDLAND AVENUE,956558,149410,502,50,11202,5036960100,SI45,New Dorp-Midland Beach                                                     ,ADRIENNE STALLONE,31,R831,COMMUNITY SCHOOL DISTRICT 31,"333 MIDLAND AVENUE
STATEN ISLAND, NY 10306
(40.576728, -74.099685)"
R007,I.S. 007 Elias Bernstein,1270 HUGUENOT AVENUE,932512,129864,503,51,19800,5065440001,SI01,Annadale-Huguenot-Prince's Bay-Eltingville                                 ,NORA DE ROSA,31,R831,COMMUNITY SCHOOL DISTRICT 31,"1270 HUGUENOT AVENUE
STATEN ISLAND, NY 10312
(40.522971, -74.186096)"
R024,I.S. 024 Myra S. Barnes,225 CLEVELAND AVENUE,943796,138047,503,51,13203,5051530108,SI54,Great Kills                                                                ,LENNY SANTAMARIA,31,R831,COMMUNITY SCHOOL DISTRICT 31,"225 CLEVELAND AVENUE
STATEN ISLAND, NY 10308
(40.54549, -74.145558)"
R027,I.S. 027 Anning S. Prall,11 CLOVE LAKE PLACE,951546,168202,501,49,12500,5003080001,SI22,West New Brighton-New Brighton-St. George                                  ,Matthew Barone,31,R831,COMMUNITY SCHOOL DISTRICT 31,"11 CLOVE LAKE PLACE
STATEN ISLAND, NY 10310
(40.628291, -74.117818)"
R028,The Eagle Academy for Young Men of Staten Island,101 WARREN STREET,961848,165331,501,49,2900,5005560080,SI37,Stapleton-Rosebank                                                         ,Jermaine Cameron,31,R831,COMMUNITY SCHOOL DISTRICT 31,"101 WARREN STREET
STATEN ISLAND, NY 10304
(40.620443, -74.080695)"
R034,I.S. 034 Tottenville,528 ACADEMY AVENUE,916558,124552,503,51,24401,5078940001,SI11,Charleston-Richmond Valley-Tottenville                                     ,John Boyle,31,R831,COMMUNITY SCHOOL DISTRICT 31,"528 ACADEMY AVENUE
STATEN ISLAND, NY 10307
(40.5083, -74.2434)"
R048,P.S. 048 William G. Wilcox,1050 Targee Street,958720,159013,502,50,5000,5031680004,SI14,Grasmere-Arrochar-Ft. Wadsworth                                            ,Allison Odonnell,31,R831,COMMUNITY SCHOOL DISTRICT 31,"1050 Targee Street
Staten Island, NY 10304
(40.603492, -74.091239)"
R049,I.S. 49 Berta A. Dreyfus,101 WARREN STREET,961848,165331,501,49,2900,5005560080,SI37,Stapleton-Rosebank                                                         ,James De Francesco,31,R831,COMMUNITY SCHOOL DISTRICT 31,"101 WARREN STREET
STATEN ISLAND, NY 10304
(40.620443, -74.080695)"
R051,I.S. 051 Edwin Markham,20 HOUSTON STREET,943853,166314,501,50,25100,5014780500,SI28,Port Richmond                                                              ,Nicholas Mele,31,R831,COMMUNITY SCHOOL DISTRICT 31,"20 HOUSTON STREET
STATEN ISLAND, NY 10302
(40.623077, -74.145522)"
R061,I.S. 061 William A Morris,445 CASTLETON AVENUE,957066,170456,501,49,6700,5001000100,SI35,New Brighton-Silver Lake                                                   ,Susan Tronolone,31,R831,COMMUNITY SCHOOL DISTRICT 31,"445 CASTLETON AVENUE
STATEN ISLAND, NY 10301
(40.634497, -74.097941)"
R063,Marsh Avenue School for Expeditionary Learning,100 ESSEX DRIVE,939989,151340,502,51,27702,5024500320,SI24,Todt Hill-Emerson Hill-Heartland Village-Lighthouse Hill                   ,Cara De Angelo,31,R831,COMMUNITY SCHOOL DISTRICT 31,"100 ESSEX DRIVE
STATEN ISLAND, NY 10314
(40.581958, -74.159343)"
R072,I.S. 072 Rocco Laurie,33 FERNDALE AVENUE,940197,155046,502,51,27706,5023640001,SI24,Todt Hill-Emerson Hill-Heartland Village-Lighthouse Hill                   ,PETER MACELLARI,31,R831,COMMUNITY SCHOOL DISTRICT 31,"33 FERNDALE AVENUE
STATEN ISLAND, NY 10314
(40.592132, -74.158618)"
R075,I.S. 075 Frank D. Paulo,455 HUGUENOT AVENUE,929489,137727,503,51,17010,5060500002,SI48,Arden Heights                                                              ,KENNETH ZAPATA,31,R831,COMMUNITY SCHOOL DISTRICT 31,"455 HUGUENOT AVENUE
STATEN ISLAND, NY 10312
(40.544535, -74.197033)"
R080,The Michael J. Petrides School,715 OCEAN TERRACE,954850,160673,502,50,17700,5006830001,SI24,Todt Hill-Emerson Hill-Heartland Village-Lighthouse Hill                   ,JOANNE BUCKHEIT,31,R831,COMMUNITY SCHOOL DISTRICT 31,"715 OCEAN TERRACE
STATEN ISLAND, NY 10301
(40.607637, -74.105883)"
R861,Staten Island School of Civic Leadership,280 REGIS DRIVE,938603,165315,501,49,30301,5016530001,SI12,Mariner's Harbor-Arlington-Port Ivory-Graniteville                         ,Donna Nilsen,31,R831,COMMUNITY SCHOOL DISTRICT 31,"280 REGIS DRIVE
STATEN ISLAND, NY 10314
(40.62031, -74.164427)"
K045,P.S./I.S. 045 Horace E. Greene,84 SCHAEFER STREET,1009091,189372,304,37,40100,3034270011,BK78,Bushwick South                                                             ,TRACEY LOTT DAVIS,32,K832,COMMUNITY SCHOOL DISTRICT 32,"84 SCHAEFER STREET
BROOKLYN, NY 11207
(40.686424, -73.91043)"
K162,J.H.S. 162 The Willoughby,1390 WILLOUGHBY AVENUE,1006529,196799,304,34,44500,3032120001,BK77,Bushwick North                                                             ,AMANDA LAZERSON,32,K832,COMMUNITY SCHOOL DISTRICT 32,"1390 WILLOUGHBY AVENUE
BROOKLYN, NY 11237
(40.706816, -73.919643)"
K291,J.H.S. 291 Roland Hayes,231 PALMETTO STREET,1007760,192814,304,37,43300,3033430001,BK77,Bushwick North                                                             ,Janice Bruce,32,K832,COMMUNITY SCHOOL DISTRICT 32,"231 PALMETTO STREET
BROOKLYN, NY 11221
(40.695875, -73.915217)"
K231,P.S. K231,5601 16 AVENUE,987234,167511,312,44,47000,3054920001,BK88,Borough Park                                                               ,Jude Arthur,20,DA75,CITYWIDE SPECIAL EDUCATION,"5601 16 AVENUE
BROOKLYN, NY 11204
(40.626454, -73.98925)"
K347,I.S. 347 School of Humanities,35 STARR STREET,1004231,194609,304,34,42300,3031850001,BK78,Bushwick South                                                             ,JOHN BARBELLA,32,K832,COMMUNITY SCHOOL DISTRICT 32,"35 STARR STREET
BROOKLYN, NY 11221
(40.70081, -73.927938)"
K349,"I.S. 349 Math, Science & Tech.",35 STARR STREET,1004231,194609,304,34,42300,3031850001,BK78,Bushwick South                                                             ,Michael Loughren,32,K832,COMMUNITY SCHOOL DISTRICT 32,"35 STARR STREET
BROOKLYN, NY 11221
(40.70081, -73.927938)"
K377,P.S. 377 Alejandrina B. De Gautier,200 WOODBINE STREET,1007777,191964,304,37,41500,3033600001,BK78,Bushwick South                                                             ,DOMINIC ZAGAMI,32,K832,COMMUNITY SCHOOL DISTRICT 32,"200 WOODBINE STREET
BROOKLYN, NY 11221
(40.693542, -73.915159)"
K383,J.H.S. 383 Philippa Schuyler,1300 GREENE AVENUE,1006686,193550,304,37,43100,3032980001,BK77,Bushwick North                                                             ,Jeanette Smith,32,K832,COMMUNITY SCHOOL DISTRICT 32,"1300 GREENE AVENUE
BROOKLYN, NY 11237
(40.697898, -73.919088)"
K384,P.S. /I.S. 384 Frances E. Carter,242 COOPER STREET,1010680,190634,304,37,40900,3034420001,BK77,Bushwick North                                                             ,Phyllis Raulli,32,K832,COMMUNITY SCHOOL DISTRICT 32,"242 COOPER STREET
BROOKLYN, NY 11207
(40.689883, -73.904695)"
K554,All City Leadership Secondary School,321 PALMETTO STREET,1008327,193359,304,37,43300,0,BK77,Bushwick North                                                             ,ELVIS ESTEVEZ,32,HS05,NULL,"321 PALMETTO STREET
BROOKLYN, NY 11237
(40.697378, -73.913172)"
K562,Evergreen Middle School for Urban Exploration,125 COVERT STREET,1009046,190182,304,37,41300,3034160001,BK78,Bushwick South                                                             ,Lauren Reiss,32,K832,COMMUNITY SCHOOL DISTRICT 32,"125 COVERT STREET
BROOKLYN, NY 11207
(40.688647, -73.910589)"
K036,P.S. 36,2045 LINDEN BOULEVARD,1015547,179922,305,42,110400,3043270024,BK82,East New York                                                              ,JOHANNA SCHNEIDER,19,DA75,CITYWIDE SPECIAL EDUCATION,"2045 LINDEN BOULEVARD
BROOKLYN, NY 11207
(40.660465, -73.887195)"
K053,P.S. K053,544 7TH AVENUE,987373,180026,307,38,14700,3008800001,BK32,Sunset Park West                                                           ,HEATHER LEYKAM,15,DA75,CITYWIDE SPECIAL EDUCATION,"544 7TH AVENUE
BROOKLYN, NY 11215
(40.660805, -73.988743)"
K077,P.S. K077,62 PARK PLACE,990727,186586,306,39,12902,3009410050,BK37,Park Slope-Gowanus                                                         ,Ebony Russell,13,DA75,CITYWIDE SPECIAL EDUCATION,"62 PARK PLACE
BROOKLYN, NY 11217
(40.678809, -73.976648)"
K140,P.S. K140,141 MACON STREET,999338,187723,303,36,26900,3018450001,BK75,Bedford                                                                    ,RODERICK PALTON,13,DA75,CITYWIDE SPECIAL EDUCATION,"141 MACON STREET
BROOKLYN, NY 11216
(40.68192, -73.9456)"
K141,P.S. K141,655 PARKSIDE AVENUE,997686,178433,309,40,80200,3050500051,BK60,Prospect Lefferts Gardens-Wingate                                          ,Michele Thornton Mannix,17,DA75,CITYWIDE SPECIAL EDUCATION,"655 PARKSIDE AVENUE
BROOKLYN, NY 11226
(40.656423, -73.951575)"
K368,P.S. 368,70 TOMPKINS AVENUE,998792,193107,303,36,25700,3017430018,BK75,Bedford                                                                    ,JOYCELYN NEDD,14,DA75,CITYWIDE SPECIAL EDUCATION,"70 TOMPKINS AVENUE
BROOKLYN, NY 11206
(40.696698, -73.947557)"
K369,P.S. K369 - Coy L. Cox School,383 STATE STREET,988878,189727,302,33,4100,3001720055,BK38,DUMBO-Vinegar Hill-Downtown Brooklyn-Boerum Hill                           ,RUDY GIULIANI,15,DA75,CITYWIDE SPECIAL EDUCATION,"383 STATE STREET
BROOKLYN, NY 11217
(40.687432, -73.983312)"
K370,P.S. 370,3000 WEST 1 STREET,992619,149753,313,48,35602,3072740107,BK23,West Brighton                                                              ,SUSAN MILLER,21,DA75,CITYWIDE SPECIAL EDUCATION,"3000 WEST 1 STREET
BROOKLYN, NY 11224
(40.577709, -73.969872)"
K372,P.S. 372 -The Children's School,512 CARROLL STREET,988272,185634,306,39,11900,3004550001,BK37,Park Slope-Gowanus                                                         ,Rosa Amato,15,DA75,CITYWIDE SPECIAL EDUCATION,"512 CARROLL STREET
BROOKLYN, NY 11215
(40.676198, -73.9855)"
K396,P.S. K396,110 CHESTER STREET,1008721,182744,316,41,92400,3035200008,BK81,Brownsville                                                                ,NIRA SCHWARTZ NYITRA,23,DA75,CITYWIDE SPECIAL EDUCATION,"110 CHESTER STREET
BROOKLYN, NY 11212
(40.668232, -73.911788)"
K771,P.S. K771,1075 OCEAN VIEW AVENUE,996512,150684,313,48,61004,3087120056,BK19,Brighton Beach                                                             ,DENISE DANNA,21,DA75,CITYWIDE SPECIAL EDUCATION,"1075 OCEAN VIEW AVENUE
BROOKLYN, NY 11235
(40.58026, -73.955856)"
K811,P.S. K811 Connie Lekas School,2525 HARING STREET,1001300,154648,315,48,59600,3074470001,BK17,Sheepshead Bay-Gerritsen Beach-Manhattan Beach                             ,ANTOINETTE ROSE,22,DA75,CITYWIDE SPECIAL EDUCATION,"2525 HARING STREET
BROOKLYN, NY 11235
(40.591132, -73.93861)"
M035,P.S. 035,317 WEST  52ND STREET,988156,217670,104,3,13300,1010430022,MN15,Clinton                                                                    ,MARTA BARNETT,2,DA75,CITYWIDE SPECIAL EDUCATION,"317 WEST 52ND STREET
MANHATTAN, NY 10019
(40.764129, -73.985899)"
M079,P.S. M079 - Horan School,55 EAST 120 STREET,1000305,231672,111,9,19800,1017470001,MN34,East Harlem North                                                          ,GREER PHILLIPS,5,DA75,CITYWIDE SPECIAL EDUCATION,"55 EAST 120 STREET
MANHATTAN, NY 10035
(40.802547, -73.942009)"
M094,P.S. M094,55 BATTERY PLACE,979410,196632,101,1,31704,1000160040,MN25,Battery Park City-Lower Manhattan                                          ,JEANNE BRADLEY,2,DA75,CITYWIDE SPECIAL EDUCATION,"55 BATTERY PLACE
MANHATTAN, NY 10280
(40.706384, -74.017456)"
M138,P.S. 138,144-176 EAST 128 STREET,1002117,232805,111,9,24200,1017760020,MN34,East Harlem North                                                          ,Gregg Soulette,5,DA75,CITYWIDE SPECIAL EDUCATION,"144-176 EAST 128 STREET
MANHATTAN, NY 10035
(40.805653, -73.935461)"
M169,P.S. M169 - Robert F. Kennedy,110 EAST  88 STREET,996548,223746,108,4,14802,1015167502,MN40,Upper East Side-Carnegie Hill                                              ,ELEYNA RIVAS,2,DA75,CITYWIDE SPECIAL EDUCATION,"110 EAST 88 STREET
MANHATTAN, NY 10128
(40.780798, -73.955594)"
M226,P.S. M226,345 EAST  15TH STREET,989075,206207,106,2,4800,1009220008,MN21,Gramercy                                                                   ,INMACULADA JARDI,2,DA75,CITYWIDE SPECIAL EDUCATION,"345 EAST 15TH STREET
MANHATTAN, NY 10003
(40.732665, -73.98259)"
M401,Hospital Schools,3450 EAST TREMONT AVENUE,1031947,242382,210,13,16600,2055310021,BX52,Schuylerville-Throgs Neck-Edgewater Park                                   ,MARY MAHER,8,DA75,CITYWIDE SPECIAL EDUCATION,"3450 EAST TREMONT AVENUE
BRONX, NY 10465
(40.831829, -73.827642)"
M501,Home Instruction,3450 EAST TREMONT AVENUE,1031947,242382,210,13,16600,2055310021,BX52,Schuylerville-Throgs Neck-Edgewater Park                                   ,Ramona Pizarro,8,DA75,CITYWIDE SPECIAL EDUCATION,"3450 EAST TREMONT AVENUE
BRONX, NY 10465
(40.831829, -73.827642)"
M721,P.S. M721 - Manhattan Occupational Training Center,250 WEST HOUSTON STREET,982544,204890,102,3,6700,1005810054,MN23,West Village                                                               ,SHOLOM FRIED,2,DA75,CITYWIDE SPECIAL EDUCATION,"250 WEST HOUSTON STREET
MANHATTAN, NY 10014
(40.729052, -74.006155)"
X017,P.S. X017,778 FOREST AVENUE,1010437,237567,201,17,7700,2026550030,BX34,Melrose South-Mott Haven North                                             ,MARLIN HOGGARD,7,DA75,CITYWIDE SPECIAL EDUCATION,"778 FOREST AVENUE
BRONX, NY 10456
(40.818703, -73.905389)"
M811,P.S. M811 - Mickey Mantle School,466 WEST END AVENUE,990005,225759,107,6,17100,1012300001,MN12,Upper West Side                                                            ,JOHN MCCORMICK,3,DA75,CITYWIDE SPECIAL EDUCATION,"466 WEST END AVENUE
MANHATTAN, NY 10024
(40.78633, -73.979217)"
Q004,P.S. Q004,196-25 PECK AVENUE,1045735,209576,408,23,134700,4071280010,QN41,Fresh Meadows-Utopia                                                       ,MARCY BERGER,26,DA75,CITYWIDE SPECIAL EDUCATION,"196-25 PECK AVENUE
QUEENS, NY 11365
(40.7417, -73.778118)"
Q009,P.S. 009,58-74 57 STREET,1008517,200961,405,30,53500,4026310106,QN30,Maspeth                                                                    ,ROBERT WOJNAROWSKI,24,DA75,CITYWIDE SPECIAL EDUCATION,"58-74 57 STREET
QUEENS, NY 11378
(40.718234, -73.912458)"
Q023,P.S. Q023 @ Queens Children Center,74-03 COMMONWEALTH BOULEVARD,1060823,211883,413,23,156700,4084010001,QN43,Bellerose                                                                  ,JACQUELINE JONES,26,DA75,CITYWIDE SPECIAL EDUCATION,"74-03 COMMONWEALTH BOULEVARD
QUEENS, NY 11426
(40.747914, -73.723644)"
Q075,Robert E. Peary School,16-66 HANCOCK STREET,1010623,193846,405,34,55300,4035490044,QN20,Ridgewood                                                                  ,James Thorbs,24,DA75,CITYWIDE SPECIAL EDUCATION,"16-66 HANCOCK STREET
QUEENS, NY 11385
(40.698699, -73.904888)"
Q177,P.S. Q177,56-37 188 STREET,1043156,210189,411,20,141700,4056740002,QN48,Auburndale                                                                 ,KATHLEEN POSA,26,DA75,CITYWIDE SPECIAL EDUCATION,"56-37 188 STREET
QUEENS, NY 11365
(40.7434, -73.787419)"
Q224,P.S. Q224,252-12 72 AVENUE,1061389,212483,413,23,155102,4084010375,QN44,Glen Oaks-Floral Park-New Hyde Park                                        ,DESMOND PARK,26,DA75,CITYWIDE SPECIAL EDUCATION,"252-12 72 AVENUE
QUEENS, NY 11426
(40.749556, -73.721594)"
Q233,P.S. Q233,91-30 METROPOLITAN AVENUE,1024300,197410,406,29,64500,4038860800,QN17,Forest Hills                                                               ,DEBBIE EDMONDS SHADDI,28,DA75,CITYWIDE SPECIAL EDUCATION,"91-30 METROPOLITAN AVENUE
QUEENS, NY 11375
(40.708431, -73.855543)"
Q255,P.S. Q255,158-40 76 ROAD,1037086,203178,408,24,125700,4068260001,QN37,Kew Gardens Hills                                                          ,RICHARD MAROWITZ,25,DA75,CITYWIDE SPECIAL EDUCATION,"158-40 76 ROAD
QUEENS, NY 11366
(40.724195, -73.80938)"
Q256,P.S. Q256,525 CONVENT ROAD,NULL,NULL,0,0,      ,0,    ,                                                                           ,Robert Lopez,0,DA75,CITYWIDE SPECIAL EDUCATION,
Q277,The Riverview School,1-50 51ST AVENUE,995561,209958,402,26,100,0,QN31,Hunters Point-Sunnyside-West Maspeth                                       ,ANNETTE BEALE,30,DA75,CITYWIDE SPECIAL EDUCATION,"1-50 51ST AVENUE
QUEENS, NY 11101
(40.742964, -73.959183)"
Q811,P.S. Q811,61-25 MARATHON PARKWAY,1059492,215000,411,23,152902,4083610001,QN45,Douglas Manor-Douglaston-Little Neck                                       ,PENNY RYAN,26,DA75,CITYWIDE SPECIAL EDUCATION,"61-25 MARATHON PARKWAY
QUEENS, NY 11362
(40.756481, -73.728412)"
Q993,P.S. Q993,85-15 258 STREET,1065003,206924,413,23,157903,4088010014,QN44,Glen Oaks-Floral Park-New Hyde Park                                        ,JACQUELINE ZARETSKY,26,DA75,CITYWIDE SPECIAL EDUCATION,"85-15 258 STREET
QUEENS, NY 11001
(40.734266, -73.708617)"
R025,South Richmond High School I.S./P.S. 25,6581 HYLAN BOULEVARD,923441,125895,503,51,19800,5076640001,SI01,Annadale-Huguenot-Prince's Bay-Eltingville                                 ,JAMES MCKEON,31,DA75,CITYWIDE SPECIAL EDUCATION,"6581 HYLAN BOULEVARD
STATEN ISLAND, NY 10309
(40.512019, -74.218688)"
R037,P.S. R037,15 FAIRFIELD STREET,942193,144830,503,51,14605,5045860001,SI54,Great Kills                                                                ,FLORENCE GORSKY,31,DA75,CITYWIDE SPECIAL EDUCATION,"15 FAIRFIELD STREET
STATEN ISLAND, NY 10308
(40.5641, -74.151368)"
R373,P.S. R373,91 HENDERSON AVENUE,957759,172890,501,49,8100,5000730064,SI22,West New Brighton-New Brighton-St. George                                  ,Paulette Benevento,31,DA75,CITYWIDE SPECIAL EDUCATION,"91 HENDERSON AVENUE
STATEN ISLAND, NY 10301
(40.64118, -74.095454)"
R721,The Richard H. Hungerford School,155 TOMPKINS AVENUE,962859,165473,501,49,2700,5005340075,SI37,Stapleton-Rosebank                                                         ,KRISTIN MCHUGH,31,DA75,CITYWIDE SPECIAL EDUCATION,"155 TOMPKINS AVENUE
STATEN ISLAND, NY 10304
(40.620835, -74.077054)"
X010,P.S. X010,2750 LAFAYETTE AVENUE,1031516,240651,210,13,15200,2055470001,BX52,Schuylerville-Throgs Neck-Edgewater Park                                   ,NULL,8,DA75,CITYWIDE SPECIAL EDUCATION,"2750 LAFAYETTE AVENUE
BRONX, NY 10465
(40.82708, -73.829211)"
X012,P.S. X012 Lewis and Clark School,2555 TRATMAN AVENUE,1027225,245578,210,13,20000,2039830001,BX37,Van Nest-Morris Park-Westchester Square                                    ,KUVANA JONES SANDERS,11,DA75,CITYWIDE SPECIAL EDUCATION,"2555 TRATMAN AVENUE
BRONX, NY 10461
(40.840625, -73.844685)"
X168,P.S. 168,3050 WEBSTER AVENUE,1017790,256077,207,11,42500,2033300001,BX43,Norwood                                                                    ,MAUREEN FULLERTON,10,DA75,CITYWIDE SPECIAL EDUCATION,"3050 WEBSTER AVENUE
BRONX, NY 10467
(40.869482, -73.878731)"
X176,P.S. X176,850 BAYCHESTER AVENUE,1030803,257757,210,12,46201,2051410150,BX13,Co-op City                                                                 ,JOHN SIRACUSE,11,DA75,CITYWIDE SPECIAL EDUCATION,"850 BAYCHESTER AVENUE
BRONX, NY 10475
(40.874035, -73.831669)"
X186,P186X Walter J. Damrosch School,750 JENNINGS STREET,1012533,242191,203,16,15100,2029690001,BX35,Morrisania-Melrose                                                         ,AVA KAPLAN,12,DA75,CITYWIDE SPECIAL EDUCATION,"750 JENNINGS STREET
BRONX, NY 10459
(40.831388, -73.897797)"
X188,P.S. X188,770 GROTE STREET,1016376,249038,206,15,39300,2031000014,BX06,Belmont                                                                    ,SHANIE JOHNSON,10,DA75,CITYWIDE SPECIAL EDUCATION,"770 GROTE STREET
BRONX, NY 10460
(40.850168, -73.883877)"
X352,The Vida Bogart School for All Children,1330 BRISTOW STREET,1013517,242274,203,17,15300,2029650082,BX75,Crotona Park East                                                          ,LOURDES MENDEZ,12,DA75,CITYWIDE SPECIAL EDUCATION,"1330 BRISTOW STREET
BRONX, NY 10459
(40.831613, -73.894241)"
X723,P.S. 723,3540 BIVONA STREET,1030745,261016,212,12,46202,2052630070,BX13,Co-op City                                                                 ,SHANTE CHUNN,11,DA75,CITYWIDE SPECIAL EDUCATION,"3540 BIVONA STREET
BRONX, NY 10475
(40.88298, -73.831856)"
K356,Achievement First Crown Heights Charter School,790 EAST NEW YORK AVENUE,1001919,180501,309,41,87600,3048060001,BK60,Prospect Lefferts Gardens-Wingate                                          ,Camilla Lopez/Dymir Arthur,17,NULL,OFFICE OF CHARTER SCHOOLS,"790 EAST NEW YORK AVENUE
BROOKLYN, NY 11203
(40.662092, -73.936313)"
K357,KIPP AMP Charter School,1224 PARK PLACE,1001559,184216,308,36,34300,3013700029,BK61,Crown Heights North                                                        ,Natalie Webb/Alaina Chipman,17,NULL,OFFICE OF CHARTER SCHOOLS,"1224 PARK PLACE
BROOKLYN, NY 11213
(40.67229, -73.937601)"
K358,Achievement First East New York Charter School,557 PENNSYLVANIA AVENUE,1013844,181232,305,42,112600,3038230001,BK85,East New York (Pennsylvania Ave)                                           ,Hilary Cymrot/Fatimah Barker,19,NULL,OFFICE OF CHARTER SCHOOLS,"557 PENNSYLVANIA AVENUE
BROOKLYN, NY 11207
(40.664067, -73.893328)"
K360,Launch Expeditionary Learning Charter School,1580 DEAN STREET,1002254,185450,308,36,30900,3013470001,BK61,Crown Heights North                                                        ,Evan Kilgore/Geoffrey Roehm,16,NULL,OFFICE OF CHARTER SCHOOLS,"1580 DEAN STREET
BROOKLYN, NY 11213
(40.675675, -73.935093)"
K362,Hellenic Classical Charter School,646 FIFTH AVENUE,986399,180820,307,38,14300,3006340034,BK37,Park Slope-Gowanus                                                         ,Christina Tettonis,15,NULL,OFFICE OF CHARTER SCHOOLS,"646 FIFTH AVENUE
BROOKLYN, NY 11215
(40.662985, -73.992254)"
K367,Success Academy Charter School - Bed-Stuy 1,70 TOMPKINS AVENUE,998792,193107,303,36,25700,3017430018,BK75,Bedford                                                                    ,Javeria Khan,14,NULL,OFFICE OF CHARTER SCHOOLS,"70 TOMPKINS AVENUE
BROOKLYN, NY 11206
(40.696698, -73.947557)"
K379,Explore Excel Charter School,1077 REMSEN AVENUE,1009815,173437,318,46,96400,3081600022,BK50,Canarsie                                                                   ,Dana Bogle,18,NULL,OFFICE OF CHARTER SCHOOLS,"1077 REMSEN AVENUE
BROOKLYN, NY 11236
(40.642684, -73.90788)"
K386,Invictus Preparatory Charter School,370 FOUNTAIN AVENUE,1019054,183408,305,42,111800,3042780001,BK82,East New York                                                              ,Camille Bell,19,NULL,OFFICE OF CHARTER SCHOOLS,"370 FOUNTAIN AVENUE
BROOKLYN, NY 11208
(40.67002, -73.874537)"
K406,Teaching Firms of America-Professional Preparatory,616 QUINCY STREET,1002135,190058,303,36,29300,3016300001,BK35,Stuyvesant Heights                                                         ,Rafiq Kalam Id-Din/Damien Dunkley,16,NULL,OFFICE OF CHARTER SCHOOLS,"616 QUINCY STREET
BROOKLYN, NY 11221
(40.688323, -73.935509)"
K508,Achievement First Endeavor Charter School,510 WAVERLY AVENUE,993700,187903,302,35,19900,3020110039,BK69,Clinton Hill                                                               ,Paul Adler/Stephanie Blake,13,NULL,OFFICE OF CHARTER SCHOOLS,"510 WAVERLY AVENUE
BROOKLYN, NY 11238
(40.682422, -73.965928)"
K517,Leadership Prep Bedford Stuyvesant Uncommon Prep C,141 MACON STREET,999338,187723,303,36,26900,3018450001,BK75,Bedford                                                                    ,Ishani Mehta/Owen Losse,13,NULL,OFFICE OF CHARTER SCHOOLS,"141 MACON STREET
BROOKLYN, NY 11216
(40.68192, -73.9456)"
K536,Community Roots Charter School,51 SAINT EDWARDS STREET,990441,192608,302,35,2901,3020390002,BK68,Fort Greene                                                                ,Allison Keil/Sara Stone,13,NULL,OFFICE OF CHARTER SCHOOLS,"51 SAINT EDWARDS STREET
BROOKLYN, NY 11205
(40.695339, -73.977674)"
K538,Achievement First Bushwick Charter School,1300 GREENE AVENUE,1006686,193550,304,37,43100,3032980001,BK77,Bushwick North                                                             ,Courtney Saretzky/Riley Bauling,32,NULL,OFFICE OF CHARTER SCHOOLS,"1300 GREENE AVENUE
BROOKLYN, NY 11237
(40.697898, -73.919088)"
K593,Excellence Boys Charter School,239 PATCHEN AVENUE,1004815,188283,303,41,38300,3016730001,BK35,Stuyvesant Heights                                                         ,Kevin Hall/Samantha Tweedy,16,NULL,OFFICE OF CHARTER SCHOOLS,"239 PATCHEN AVENUE
BROOKLYN, NY 11233
(40.683446, -73.925851)"
K608,Kings Collegiate Charter School,1084 LENOX ROAD,1006497,178909,317,41,88600,3046690037,BK96,Rugby-Remsen Village                                                       ,Scott Schuster/Maya Roth,18,NULL,OFFICE OF CHARTER SCHOOLS,"1084 LENOX ROAD
BROOKLYN, NY 11212
(40.657712, -73.919818)"
K626,Achievement First Brownsville Charter School,2021 BERGEN STREET,1008470,185011,316,41,36501,3014480001,BK79,Ocean Hill                                                                 ,Katherine Roger/Keith Brooks,23,NULL,OFFICE OF CHARTER SCHOOLS,"2021 BERGEN STREET
BROOKLYN, NY 11233
(40.674456, -73.912685)"
K648,Bedford Stuyvesant Collegiate Charter School,800 GATES AVENUE,1003090,189930,303,36,29300,3016360001,BK35,Stuyvesant Heights                                                         ,Justin Pigeon,16,NULL,OFFICE OF CHARTER SCHOOLS,"800 GATES AVENUE
BROOKLYN, NY 11221
(40.68797, -73.932066)"
K651,PAVE Academy Charter School,732 HENRY STREET,983175,185546,306,38,5900,3005390024,BK33,Carroll Gardens-Columbia Street-Red Hook                                   ,Hannah Prussin/Darren Horn,15,NULL,OFFICE OF CHARTER SCHOOLS,"732 HENRY STREET
BROOKLYN, NY 11231
(40.675936, -74.003372)"
K652,Brooklyn Ascend Charter School,205 Rockaway Parkway,1006323,180451,317,41,89200,3046330050,BK81,Brownsville                                                                ,Janna Genzlinger/Johana Andujar,18,NULL,OFFICE OF CHARTER SCHOOLS,"205 Rockaway Parkway
BROOKLYN, NY 11212
(40.661945, -73.92044)"
K707,Brooklyn Prospect Charter School,3002 FORT HAMILTON PARKWAY,990155,175322,307,39,50000,3053160001,BK40,Windsor Terrace                                                            ,CAROLYN MICHAEL/INGRID WONG,15,NULL,OFFICE OF CHARTER SCHOOLS,"3002 FORT HAMILTON PARKWAY
BROOKLYN, NY 11218
(40.647893, -73.97872)"
K710,Brownsville Collegiate Charter School,364 SACKMAN STREET,1010565,182941,316,41,90800,3037440009,BK81,Brownsville                                                                ,Anjya Thomas,23,NULL,OFFICE OF CHARTER SCHOOLS,"364 SACKMAN STREET
BROOKLYN, NY 11212
(40.668768, -73.90514)"
K711,Leadership Preparatory Brownsville Charter School,985 ROCKAWAY AVENUE,1010148,178159,316,42,92200,3036360007,BK81,Brownsville                                                                ,Celestina De La Garza,23,NULL,OFFICE OF CHARTER SCHOOLS,"985 ROCKAWAY AVENUE
BROOKLYN, NY 11212
(40.655644, -73.906662)"
K712,Excellence Girls Charter School,794 MONROE STREET,1005210,189979,303,41,38500,3016430036,BK35,Stuyvesant Heights                                                         ,Nikki Bowen/Meredith Anderson,16,NULL,OFFICE OF CHARTER SCHOOLS,"794 MONROE STREET
BROOKLYN, NY 11221
(40.6881, -73.924422)"
K724,Leadership Prep Canarsie Charter School (Leadershi,1070 EAST 104 STREET,1014000,173970,318,46,98600,3082300001,BK50,Canarsie                                                                   ,Emily Hoefling Crouch/Adam Cobb,18,NULL,OFFICE OF CHARTER SCHOOLS,"1070 EAST 104 STREET
BROOKLYN, NY 11236
(40.644134, -73.892797)"
K730,Summit Academy Charter School,27 HUNTINGTON STREET,982821,186259,306,38,5900,3005250001,BK33,Carroll Gardens-Columbia Street-Red Hook                                   ,Natasha Campbell,15,NULL,OFFICE OF CHARTER SCHOOLS,"27 HUNTINGTON STREET
BROOKLYN, NY 11231
(40.677914, -74.005151)"
K731,Brooklyn Excelsior Charter School,856 QUINCY STREET,1005025,190514,303,41,38700,3016330058,BK35,Stuyvesant Heights                                                         ,Adam Stevens,16,NULL,OFFICE OF CHARTER SCHOOLS,"856 QUINCY STREET
BROOKLYN, NY 11221
(40.689569, -73.925087)"
K737,Brownsville Ascend Charter School,1501 PITKIN AVENUE,1006964,182876,316,41,90000,0,BK81,Brownsville                                                                ,Erica Murphy,23,NULL,OFFICE OF CHARTER SCHOOLS,"1501 PITKIN AVENUE
BROOKLYN, NY 11212
(40.668608, -73.918123)"
K744,Coney Island Preparatory Public Charter School,501 WEST AVENUE,992025,151505,313,47,35400,3072500025,BK23,West Brighton                                                              ,Jacob Mnookin,21,NULL,OFFICE OF CHARTER SCHOOLS,"501 WEST AVENUE
BROOKLYN, NY 11224
(40.582518, -73.972009)"
K746,Hebrew Language Academy Charter School,2186 MILL AVENUE,1008041,162350,318,46,69800,3084701091,BK45,Georgetown-Marine Park-Bergen Beach-Mill Basin                             ,David Penberg,22,NULL,OFFICE OF CHARTER SCHOOLS,"2186 MILL AVENUE
BROOKLYN, NY 11234
(40.612258, -73.914312)"
K774,Achievement First Apollo Charter School,350 LINWOOD STREET,1016367,185988,305,37,117000,3039690001,BK82,East New York                                                              ,Jabari Sims,19,NULL,OFFICE OF CHARTER SCHOOLS,"350 LINWOOD STREET
BROOKLYN, NY 11208
(40.677112, -73.884211)"
K775,Leadership Preparatory Ocean Hill Charter School,51 CHRISTOPHER AVENUE,1010320,184197,316,37,90800,3036930001,BK81,Brownsville                                                                ,Nikki Bridges,23,NULL,OFFICE OF CHARTER SCHOOLS,"51 CHRISTOPHER AVENUE
BROOKLYN, NY 11212
(40.672216, -73.906018)"
K777,Ocean Hill Collegiate Charter School,1137 HERKIMER STREET,1007797,186347,316,41,30100,3015500001,BK79,Ocean Hill                                                                 ,Hannah Solomon,23,NULL,OFFICE OF CHARTER SCHOOLS,"1137 HERKIMER STREET
BROOKLYN, NY 11233
(40.678124, -73.915106)"
K780,Brooklyn East Collegiate Charter School,80 UNDERHILL AVENUE,993588,186494,308,35,20500,3011450026,BK64,Prospect Heights                                                           ,Rodolpho Loureiro,13,NULL,OFFICE OF CHARTER SCHOOLS,"80 UNDERHILL AVENUE
BROOKLYN, NY 11238
(40.678554, -73.966333)"
K782,Bedford Stuyvesant New Beginnings Charter School,82 LEWIS AVENUE,1001521,192372,303,36,28300,3015910045,BK35,Stuyvesant Heights                                                         ,Silbia Pagan/Nicholas Tishuk,16,NULL,OFFICE OF CHARTER SCHOOLS,"82 LEWIS AVENUE
BROOKLYN, NY 11206
(40.694676, -73.937717)"
K793,Bushwick Ascend Charter School,751 KNICKERBOCKER AVENUE,1009507,192041,304,37,43700,3033990001,BK77,Bushwick North                                                             ,Zelda Washington,32,NULL,OFFICE OF CHARTER SCHOOLS,"751 KNICKERBOCKER AVENUE
BROOKLYN, NY 11221
(40.693748, -73.90892)"
K803,Brooklyn LABCharter School,25 Chapel Street,988128,193305,302,33,1300,0,BK38,DUMBO-Vinegar Hill-Downtown Brooklyn-Boerum Hill                           ,"Eric Tucker, PHD",13,NULL,OFFICE OF CHARTER SCHOOLS,"25 Chapel Street
Brooklyn, NY 11201
(40.697262, -73.986016)"
K807,Collegiate Academy for Math and Personal Awareness,1962-84 LINDEN BLVD.,1015110,178976,305,42,110400,3043480001,BK82,East New York                                                              ,George E. Leonard,19,NULL,OFFICE OF CHARTER SCHOOLS,"1962-84 LINDEN BLVD.
BROOKLYN, NY 11207
(40.65787, -73.888775)"
K879,Brooklyn Prospect Charter School Downtown,300 WILLOUGHBY AVENUE,995847,191399,303,33,23500,3019260010,BK69,Clinton Hill                                                               ,JUMAANE SAUNDERS/JACKIE DELUCA,13,NULL,OFFICE OF CHARTER SCHOOLS,"300 WILLOUGHBY AVENUE
BROOKLYN, NY 11205
(40.692015, -73.95818)"
M065,Democracy Prep Endurance Charter School,250 WEST 127 STREET,998395,234568,110,9,22400,1019320010,MN03,Central Harlem North-Polo Grounds                                          ,Margaret Marrer,5,NULL,OFFICE OF CHARTER SCHOOLS,"250 WEST 127 STREET
MANHATTAN, NY 10027
(40.810499, -73.948902)"
M068,KIPP Washington Heights Middle School,21 JUMEL PLACE,1002010,245005,112,10,24900,1021120058,MN36,Washington Heights South                                                   ,Natalie Webb/Danny Swersky,6,NULL,OFFICE OF CHARTER SCHOOLS,"21 JUMEL PLACE
MANHATTAN, NY 10032
(40.839139, -73.935815)"
M202,Great Oaks Charter School,38 DELANCEY STREET,986507,201471,103,1,1800,0,MN27,Chinatown                                                                  ,Kristin Levine,1,NULL,OFFICE OF CHARTER SCHOOLS,"38 DELANCEY STREET
MANHATTAN, NY 10002
(40.719676, -73.991859)"
M204,Capital Preparatory (CP) Harlem Charter School,1 EAST 104 STREET,997716,228228,111,8,16800,1016100001,MN33,East Harlem South                                                          ,DANITA JONES,4,NULL,OFFICE OF CHARTER SCHOOLS,"1 EAST 104 STREET
MANHATTAN, NY 10029
(40.793098, -73.951367)"
M263,New York City Charter School of the Arts,440 WEST  53 STREET,987082,218308,104,3,13300,1010620003,MN15,Clinton                                                                    ,JAMIE DAVIDSON,2,NULL,OFFICE OF CHARTER SCHOOLS,"440 WEST 53 STREET
MANHATTAN, NY 10019
(40.76588, -73.989776)"
M279,The Opportunity Charter School,240 WEST 113 STREET,996547,231315,110,9,21600,1018280015,MN11,Central Harlem South                                                       ,Allison Mutzel/Ricky Koodie,3,NULL,OFFICE OF CHARTER SCHOOLS,"240 WEST 113 STREET
MANHATTAN, NY 10026
(40.801573, -73.955583)"
M284,Harlem Children's Zone Promise Academy 1 Charter S,245 West 129th Street,998600,235286,110,9,22400,1019330020,MN03,Central Harlem North-Polo Grounds                                          ,Tonya White/Shakira Petit,5,NULL,OFFICE OF CHARTER SCHOOLS,"245 West 129th Street
New York, NY 10027
(40.811882, -73.947317)"
M295,School in the Square Public Charter School,120 WADSWORTH AVENUE,1001936,248548,112,10,26300,1021630041,MN36,Washington Heights South                                                   ,EVAN MEYERS,6,NULL,OFFICE OF CHARTER SCHOOLS,"120 WADSWORTH AVENUE
MANHATTAN, NY 10033
(40.848864, -73.936073)"
M330,Girls Preparatory Charter School of New York,442 EAST HOUSTON STREET,990520,201552,103,2,2000,1003560100,MN28,Lower East Side                                                            ,Lacy Reed/Rebekah Adamek,1,NULL,OFFICE OF CHARTER SCHOOLS,"442 EAST HOUSTON STREET
NEW YORK, NY 10002
(40.719888, -73.97738)"
M335,Harlem Village Academy Leadership Charter School,2351 FIRST AVENUE,1002595,230478,111,8,19400,1017970100,MN34,East Harlem North                                                          ,Todd Richardson/Megan Ou-yang,4,NULL,OFFICE OF CHARTER SCHOOLS,"2351 FIRST AVENUE
MANHATTAN, NY 10035
(40.799265, -73.93374)"
M336,KIPP Infinity Charter School,625 WEST 133 STREET,996203,237953,109,7,22302,1020010005,MN06,Manhattanville                                                             ,Natalie Webb/Allison Willis Holley,5,NULL,OFFICE OF CHARTER SCHOOLS,"625 WEST 133 STREET
MANHATTAN, NY 10027
(40.819793, -73.956814)"
M341,Harlem Children's Zone Promise Academy II Charter,2005 MADISON AVENUE,1001216,233302,111,9,20600,1017520022,MN03,Central Harlem North-Polo Grounds                                          ,Kathleen Fernald/Sheryl Ragland,5,NULL,OFFICE OF CHARTER SCHOOLS,"2005 MADISON AVENUE
MANHATTAN, NY 10035
(40.807019, -73.938714)"
M350,Democracy Prep Charter School,2230 5 AVENUE,1001316,235675,110,9,21200,1017330017,MN03,Central Harlem North-Polo Grounds                                          ,Tanya Nunez/Natasha Trivers,5,NULL,OFFICE OF CHARTER SCHOOLS,"2230 5 AVENUE
MANHATTAN, NY 10037
(40.813532, -73.938347)"
M351,Success Academy Charter School - Harlem 1,34 WEST 118 STREET,998622,231708,110,9,19000,1016010001,MN11,Central Harlem South                                                       ,Andrea Klein/Danique Loving,3,NULL,OFFICE OF CHARTER SCHOOLS,"34 WEST 118 STREET
MANHATTAN, NY 10026
(40.802649, -73.948088)"
M353,New Heights Academy Charter School,1818 AMSTERDAM AVENUE,999369,241251,109,7,23700,1020820028,MN04,Hamilton Heights                                                           ,Fred Givens III/Denise Linares,6,NULL,OFFICE OF CHARTER SCHOOLS,"1818 AMSTERDAM AVENUE
MANHATTAN, NY 10031
(40.82884, -73.945368)"
M382,DREAM Charter School,1991 SECOND AVENUE,999452,226799,111,8,16400,1016520001,MN33,East Harlem South                                                          ,Eve Colavito,4,NULL,OFFICE OF CHARTER SCHOOLS,"1991 SECOND AVENUE
NEW YORK, NY 10029
(40.789174, -73.945101)"
M384,Success Academy Charter School - Harlem 2,144-176 EAST 128 STREET,1002117,232805,111,9,24200,1017760020,MN34,East Harlem North                                                          ,Kaitlin McDermott/Lavinia Mackall,5,NULL,OFFICE OF CHARTER SCHOOLS,"144-176 EAST 128 STREET
MANHATTAN, NY 10035
(40.805653, -73.935461)"
M385,Success Academy Charter School - Harlem 3,410 EAST 100 STREET,1000269,225318,111,8,16200,1016930001,MN33,East Harlem South                                                          ,Tara Stant/David Noah,4,NULL,OFFICE OF CHARTER SCHOOLS,"410 EAST 100 STREET
MANHATTAN, NY 10029
(40.785107, -73.942154)"
M386,Success Academy Charter School - Harlem 4,240 WEST 113 STREET,996547,231315,110,9,21600,1018280015,MN11,Central Harlem South                                                       ,William Loskoch,3,NULL,OFFICE OF CHARTER SCHOOLS,"240 WEST 113 STREET
MANHATTAN, NY 10026
(40.801573, -73.955583)"
M388,St. HOPE Leadership Academy Charter School,222 WEST 134 STREET,999242,236178,110,9,22600,1019390011,MN03,Central Harlem North-Polo Grounds                                          ,"Constance K. Bond, Ph.D",5,NULL,OFFICE OF CHARTER SCHOOLS,"222 WEST 134 STREET
MANHATTAN, NY 10030
(40.814917, -73.945838)"
M430,The Equity Project Charter School (TEP),549 AUDOBON AVENUE,1004704,251344,112,10,27700,1021600018,MN35,Washington Heights North                                                   ,Zeke Vanderhoek,6,NULL,OFFICE OF CHARTER SCHOOLS,"549 AUDOBON AVENUE
MANHATTAN, NY 10040
(40.856532, -73.92606)"
M478,Inwood Academy for Leadership Charter School,108 COOPER STREET,1006144,255823,112,10,30300,0,MN01,Marble Hill-Inwood                                                         ,Christina Reyes,6,NULL,OFFICE OF CHARTER SCHOOLS,"108 COOPER STREET
MANHATTAN, NY 10034
(40.868831, -73.920841)"
M481,Democracy Prep Harlem Charter School,207 WEST 133RD STREET,999474,236062,110,9,22600,1019390026,MN03,Central Harlem North-Polo Grounds                                          ,Theresa Walsh/Zachary Siegel,5,NULL,OFFICE OF CHARTER SCHOOLS,"207 WEST 133RD STREET
MANHATTAN, NY 10030
(40.814598, -73.945)"
M482,Success Academy Charter School - Harlem 5,301 WEST 140 STREET,999597,238109,110,9,22102,1020420035,MN03,Central Harlem North-Polo Grounds                                          ,Meghan Mackay/Molly Cohen,5,NULL,OFFICE OF CHARTER SCHOOLS,"301 WEST 140 STREET
MANHATTAN, NY 10030
(40.820216, -73.944551)"
M518,East Harlem Scholars Academy Charter School,2050 Second Avenue,1000177,227104,111,8,17000,1016770001,MN33,East Harlem South                                                          ,Desree Cabrall-Njenga,4,NULL,OFFICE OF CHARTER SCHOOLS,"2050 Second Avenue
Manhattan, NY 10029
(40.79001, -73.942482)"
M523,Success Academy Charter School - Upper West,145 WEST  84 STREET,991316,225688,107,6,16900,1012150001,MN12,Upper West Side                                                            ,Jennifer Haynes,3,NULL,OFFICE OF CHARTER SCHOOLS,"145 WEST 84 STREET
MANHATTAN, NY 10024
(40.786134, -73.974483)"
M704,Harbor Science and Arts Charter School,132 EAST 111 STREET,999631,229069,111,8,17200,1016380057,MN33,East Harlem South                                                          ,Joanne Hunt,4,NULL,OFFICE OF CHARTER SCHOOLS,"132 EAST 111 STREET
MANHATTAN, NY 10029
(40.795404, -73.944449)"
M708,Harlem Prep Charter School,240 EAST 123 STREET,1002153,231309,111,8,19400,1017870080,MN34,East Harlem North                                                          ,STEVE CUNNING,4,NULL,OFFICE OF CHARTER SCHOOLS,"240 EAST 123 STREET
MANHATTAN, NY 10035
(40.801547, -73.935335)"
M709,Harlem Village Academy Charter School,244 WEST 144 STREET,1000549,238471,110,9,23200,1020290011,MN03,Central Harlem North-Polo Grounds                                          ,Jason Epting/Kevin Tallat-Kelpsa,5,NULL,OFFICE OF CHARTER SCHOOLS,"244 WEST 144 STREET
MANHATTAN, NY 10030
(40.821208, -73.941111)"
M726,KIPP STAR College Prep Charter School,433 WEST 123 STREET,996507,234674,109,7,20901,1019640012,MN09,Morningside Heights                                                        ,Joseph Negron/Natalie Webb,5,NULL,OFFICE OF CHARTER SCHOOLS,"433 WEST 123 STREET
MANHATTAN, NY 10027
(40.810793, -73.955722)"
M861,Future Leaders Institute Charter School,134 WEST 122 STREET,998539,232949,110,9,22000,1019060011,MN11,Central Harlem South                                                       ,Dani McPartlin,3,NULL,OFFICE OF CHARTER SCHOOLS,"134 WEST 122 STREET
MANHATTAN, NY 10027
(40.806055, -73.948385)"
Q083,Central Queens Academy Charter School,55-30 JUNCTION BOULEVARD,1021259,207931,404,25,45700,4019010026,QN29,Elmhurst                                                                   ,Jesse Tang,24,NULL,OFFICE OF CHARTER SCHOOLS,"55-30 JUNCTION BOULEVARD
QUEENS, NY 11373
(40.737321, -73.866454)"
Q298,Middle Village Prep Charter School,68-02 METROPOLITAN AVENUE,1015210,198323,405,30,61301,4036670023,QN20,Ridgewood                                                                  ,Nancy Velez,24,NULL,OFFICE OF CHARTER SCHOOLS,"68-02 METROPOLITAN AVENUE
QUEENS, NY 11379
(40.710973, -73.888325)"
Q304,VOICE Charter School of New York,36-24 12TH STREET,1000876,216308,401,26,8500,4003520001,QN68,Queensbridge-Ravenswood-Long Island City                                   ,Frank Headley,30,NULL,OFFICE OF CHARTER SCHOOLS,"36-24 12TH STREET
QUEENS, NY 11106
(40.760376, -73.939984)"
Q321,Growing Up Green Charter School,39-37 28th Street,1002053,213475,401,26,3100,4003980001,QN68,Queensbridge-Ravenswood-Long Island City                                   ,Matthew Greenberg,30,NULL,OFFICE OF CHARTER SCHOOLS,"39-37 28th Street
Long Island City, NY 11101
(40.752598, -73.935743)"
Q340,Challenge Preparatory Charter School,710 HARTMAN LANE,1049768,158011,414,31,100802,4157370010,QN15,Far Rockaway-Bayswater                                                     ,Debra Sostre,27,NULL,OFFICE OF CHARTER SCHOOLS,"710 HARTMAN LANE
QUEENS, NY 11691
(40.600137, -73.764065)"
Q341,Riverton Street Charter School,118-34 RIVERTON STREET,1049807,190543,412,27,36600,4124490004,QN08,St. Albans                                                                 ,Verone Kennedy,29,NULL,OFFICE OF CHARTER SCHOOLS,"118-34 RIVERTON STREET
QUEENS, NY 11412
(40.68943, -73.763609)"
Q705,Renaissance Charter School,35-59 81ST STREET,1016164,212519,403,25,28300,4012810038,QN28,Jackson Heights                                                            ,Stacey Gauthier,30,NULL,OFFICE OF CHARTER SCHOOLS,"35-59 81ST STREET
QUEENS, NY 11372
(40.749934, -73.884817)"
Q706,Our World Neighborhood Charter School,36-12 35 AVENUE,1005257,214613,401,26,5700,4006400024,QN70,Astoria                                                                    ,Brian Ferguson,30,NULL,OFFICE OF CHARTER SCHOOLS,"36-12 35 AVENUE
QUEENS, NY 11106
(40.755714, -73.924175)"
R067,John W. Lavelle Preparatory Charter School,1 TELEPORT DRIVE,934775,160508,502,50,29103,5021650200,SI05,New Springville-Bloomfield-Travis                                          ,Christopher Zilinski,31,NULL,OFFICE OF CHARTER SCHOOLS,"1 TELEPORT DRIVE
STATEN IS, NY 10311
(40.607104, -74.178183)"
R073,New World Preparatory Charter School,26 SHARPE AVENUE,946182,172358,501,49,20700,5010840062,SI28,Port Richmond                                                              ,Amanda Ainley,31,NULL,OFFICE OF CHARTER SCHOOLS,"26 SHARPE AVENUE
STATEN ISLAND, NY 10302
(40.639677, -74.137166)"
X133,Icahn Charter School 6,1701 FULTON AVENUE,1012488,245969,203,15,16500,2029300075,BX01,Claremont-Bathgate                                                         ,Brian Geelan,9,NULL,OFFICE OF CHARTER SCHOOLS,"1701 FULTON AVENUE
BRONX, NY 10457
(40.841758, -73.897943)"
X165,Grand Concourse Charter School,925 HUTCHINSON RIVER PARKWAY,1029002,240149,210,13,9000,2055420001,BX09,Soundview-Castle Hill-Clason Point-Harding Park                            ,Ira Victor,8,NULL,OFFICE OF CHARTER SCHOOLS,"925 HUTCHINSON RIVER PARKWAY
BRONX, NY 10465
(40.825715, -73.838299)"
X177,Mott Hall Charter School,1260 FRANKLIN AVENUE,1011409,242023,203,16,14900,2026150014,BX35,Morrisania-Melrose                                                         ,Connie Lobdell,9,NULL,OFFICE OF CHARTER SCHOOLS,"1260 FRANKLIN AVENUE
BRONX, NY 10456
(40.83093, -73.901859)"
X185,Bronx Lighthouse Charter School,1001 INTERVALE AVENUE,1012648,239218,202,17,12901,2026990045,BX33,Longwood                                                                   ,Alexandra Duggins,12,NULL,OFFICE OF CHARTER SCHOOLS,"1001 INTERVALE AVENUE
BRONX, NY 10459
(40.823228, -73.897394)"
X255,Bronx Charter School for Excellence,1960 BENEDICT AVENUE,1023397,243167,209,18,22200,2039300038,BX46,Parkchester                                                                ,Charlene Reid,11,NULL,OFFICE OF CHARTER SCHOOLS,"1960 BENEDICT AVENUE
BRONX, NY 10462
(40.834025, -73.858533)"
X345,Hyde Leadership Charter School,730 BRYANT AVENUE,1016003,236526,202,17,11700,2027630279,BX27,Hunts Point                                                                ,Tom Sturtevant,8,NULL,OFFICE OF CHARTER SCHOOLS,"730 BRYANT AVENUE
BRONX, NY 10474
(40.815827, -73.885284)"
X346,South Bronx Classical Charter School,977 FOX STREET,1013486,238792,202,17,15900,2027140004,BX27,Hunts Point                                                                ,Lester Long,12,NULL,OFFICE OF CHARTER SCHOOLS,"977 FOX STREET
BRONX, NY 10459
(40.822056, -73.894368)"
X378,Icahn Charter School 2,1640 BRONXDALE AVE,1023541,247174,211,13,24400,2040910001,BX37,Van Nest-Morris Park-Westchester Square                                    ,Brenda Carrasquillo,11,NULL,OFFICE OF CHARTER SCHOOLS,"1640 BRONXDALE AVE
BRONX, NY 10462
(40.845023, -73.857989)"
X389,Bronx Global Learning Institute for Girls Charter,750 CONCOURSE VILLAGE WEST,1005692,239133,204,17,6100,2024430079,BX14,East Concourse-Concourse Village                                           ,MARY CORDERO/SYLVIA KEITT,7,NULL,OFFICE OF CHARTER SCHOOLS,"750 CONCOURSE VILLAGE WEST
BRONX, NY 10451
(40.823014, -73.922527)"
X398,Bronx Community Charter School,3170 WEBSTER AVENUE,1018696,257158,207,11,42500,0,BX43,Norwood                                                                    ,Martha Andrews/Sasha Wilson,10,NULL,OFFICE OF CHARTER SCHOOLS,"3170 WEBSTER AVENUE
BRONX, NY 10467
(40.872455, -73.875451)"
X419,Bronx Academy of Promise Charter School,1349 INWOOD AVENUE,1006498,245138,204,16,21900,0,BX26,Highbridge                                                                 ,Catherine Jackvony,9,NULL,OFFICE OF CHARTER SCHOOLS,"1349 INWOOD AVENUE
BRONX, NY 10452
(40.839503, -73.919597)"
X422,Icahn Charter School 3,1500 PELHAM PARKWAY SOUTH,1027677,251374,211,13,29600,2042220005,BX49,Pelham Parkway                                                             ,Marcy Glattstein,11,NULL,OFFICE OF CHARTER SCHOOLS,"1500 PELHAM PARKWAY SOUTH
BRONX, NY 10461
(40.856531, -73.843013)"
X460,Atmosphere Charter School,22 MARBLE HILL AVENUE,1009022,258135,208,10,30900,0,MN01,Marble Hill-Inwood                                                         ,COLIN GREENE,10,NULL,OFFICE OF CHARTER SCHOOLS,"22 MARBLE HILL AVENUE
BRONX, NY 10463
(40.875161, -73.910426)"
X461,Metropolitan Lighthouse Charter School,180 West 165th street,1003677,243349,204,8,18900,0,BX26,Highbridge                                                                 ,Tyra Williams,9,NULL,OFFICE OF CHARTER SCHOOLS,"180 West 165th street
BRONX, NY 10452
(40.834599, -73.929797)"
X471,American Dream Charter School,510 EAST 141 STREET,1007111,234037,201,8,3900,2022670015,BX39,Mott Haven-Port Morris                                                     ,Melissa Melkonian,7,NULL,OFFICE OF CHARTER SCHOOLS,"510 EAST 141 STREET
BRONX, NY 10454
(40.809023, -73.917417)"
X482,Dr. Richard Izquierdo Health and Science Charter S,800 HOME STREET,1011761,240567,203,16,13100,2026710011,BX33,Longwood                                                                   ,Richard Burke,12,NULL,OFFICE OF CHARTER SCHOOLS,"800 HOME STREET
BRONX, NY 10456
(40.826933, -73.900593)"
X487,Girls Preparatory Charter School of the Bronx,681 KELLY STREET,1011487,236612,202,17,8300,2026860020,BX33,Longwood                                                                   ,Rebekah Adamek/Michael Farkosh,8,NULL,OFFICE OF CHARTER SCHOOLS,"681 KELLY STREET
BRONX, NY 10455
(40.816078, -73.901599)"
X488,The Equality Charter School,4140 HUTCHINSON RIVER PKWAY EA,1032982,254132,210,12,30200,2051350200,BX13,Co-op City                                                                 ,Caitlin Franco,11,NULL,OFFICE OF CHARTER SCHOOLS,"4140 HUTCHINSON RIVER PKWAY EA
BRONX, NY 10475
(40.864073, -73.823816)"
X491,Academic Leadership Charter School,677 EAST 141 STREET,1008457,233635,201,8,3300,2025710001,BX39,Mott Haven-Port Morris                                                     ,Norma Hurwitz/Leena Varghese,7,NULL,OFFICE OF CHARTER SCHOOLS,"677 EAST 141 STREET
BRONX, NY 10454
(40.807916, -73.912557)"
X492,South Bronx Early College Academy Charter School,766 WESTCHESTER AVENUE,1010760,237336,201,17,79,2026760003,BX34,Melrose South-Mott Haven North                                             ,RIC CAMPBELL,8,NULL,OFFICE OF CHARTER SCHOOLS,"766 WESTCHESTER AVENUE
Bronx, NY 10455
(40.818069, -73.904223)"
X493,Success Academy Charter School - Bronx 1,339 MORRIS AVENUE,1004735,235732,201,8,5100,2023330070,BX39,Mott Haven-Port Morris                                                     ,Elizabeth Vandlik,7,NULL,OFFICE OF CHARTER SCHOOLS,"339 MORRIS AVENUE
BRONX, NY 10451
(40.813681, -73.925995)"
X494,Success Academy Charter School - Bronx 2,450 SAINT PAUL'S PLACE,1010546,243845,203,16,14702,2029020001,BX01,Claremont-Bathgate                                                         ,Vanessa Bangser,9,NULL,OFFICE OF CHARTER SCHOOLS,"450 SAINT PAUL'S PLACE
BRONX, NY 10456
(40.835934, -73.90497)"
X496,Icahn Charter School 4,1500 PELHAM PARKWAY SOUTH,1027677,251374,211,13,29600,2042220005,BX49,Pelham Parkway                                                             ,Michelle Allen,11,NULL,OFFICE OF CHARTER SCHOOLS,"1500 PELHAM PARKWAY SOUTH
BRONX, NY 10461
(40.856531, -73.843013)"
X538,Icahn Charter School 5,1500 PELHAM PARKWAY SOUTH,1027677,251374,211,13,29600,2042220005,BX49,Pelham Parkway                                                             ,Lawford Cunningham,11,NULL,OFFICE OF CHARTER SCHOOLS,"1500 PELHAM PARKWAY SOUTH
BRONX, NY 10461
(40.856531, -73.843013)"
X585,Legacy College Preparatory,416 WILLIS AVENUE,1006401,235510,201,8,4300,0,BX39,Mott Haven-Port Morris                                                     ,NULL,7,NULL,OFFICE OF CHARTER SCHOOLS,"416 WILLIS AVENUE
BRONX, NY 10454
(40.813077, -73.919979)"
X703,Bronx Preparatory Charter School,3872 THIRD AVENUE,1011886,244990,203,16,16700,2029290008,BX01,Claremont-Bathgate                                                         ,Emmanuel George,9,NULL,OFFICE OF CHARTER SCHOOLS,"3872 THIRD AVENUE
BRONX, NY 10457
(40.839072, -73.900123)"
X704,KIPP Academy Charter School,250 EAST 156 STREET,1006076,238973,204,17,6100,2024430190,BX14,East Concourse-Concourse Village                                           ,Natalie Webb/Frank Corcoran,7,NULL,OFFICE OF CHARTER SCHOOLS,"250 EAST 156 STREET
BRONX, NY 10451
(40.822574, -73.92114)"
X706,Harriet Tubman Charter School,3565 THIRD AVENUE,1010326,242531,203,16,14500,2023730014,BX01,Claremont-Bathgate                                                         ,Cleveland Person,9,NULL,OFFICE OF CHARTER SCHOOLS,"3565 THIRD AVENUE
BRONX, NY 10456
(40.832328, -73.905771)"
X717,Icahn Charter School,1506-30 BROOK AVENUE,1010619,244836,203,16,16900,2028950068,BX01,Claremont-Bathgate                                                         ,Rose Fullam,9,NULL,OFFICE OF CHARTER SCHOOLS,"1506-30 BROOK AVENUE
BRONX, NY 10457
(40.838654, -73.904703)"